{"type":"FeatureCollection","features":[{"type":"Feature","properties":{"id":1,"NAME":"1","TotalPop":547850,"PopDevPct":-0.00153001,"DemPct":0.62293649,"RepPct":0.34864242,"WhitePct":0.58622193,"MinorityPct":0.41377807,"BlackPct":0.12661357,"HispanicPct":0.23185366,"PacificPct":0.00232792,"AsianPct":0.04829286,"NativePct":0.02237311,"TotalVAP":438160,"Margin":0.12293649,"color":"#00008b","opacity":"0.5"},"geometry":{"type":"MultiPolygon","coordinates":[[[[-71.393201,41.669592],[-71.392214,41.664741],[-71.390103,41.652293],[-71.380542,41.650326],[-71.379718,41.656458],[-71.378972,41.657977],[-71.376581,41.660295],[-71.374783,41.662765],[-71.367566,41.665876],[-71.363289,41.667937],[-71.360359,41.670406],[-71.358092,41.674202],[-71.355982,41.676783],[-71.354069,41.678165],[-71.352354,41.678885],[-71.33097,41.686962],[-71.328976,41.679936],[-71.323717,41.662229],[-71.321825,41.657148],[-71.31824,41.650648],[-71.315539,41.647405],[-71.311465,41.644048],[-71.307055,41.642545],[-71.303468,41.642156],[-71.300279,41.642675],[-71.296525,41.644354],[-71.29438,41.646218],[-71.291688,41.648557],[-71.290061,41.648824],[-71.281994,41.650151],[-71.277725,41.650854],[-71.275727,41.650678],[-71.27478,41.649832],[-71.270203,41.642089],[-71.268048,41.639868],[-71.2659,41.638544],[-71.265381,41.638366],[-71.257016,41.638145],[-71.254378,41.639602],[-71.251373,41.641814],[-71.249068,41.643997],[-71.244903,41.647467],[-71.227614,41.663039],[-71.224608,41.666053],[-71.221143,41.670419],[-71.220716,41.675347],[-71.217634,41.679149],[-71.214109,41.68335],[-71.210429,41.688009],[-71.208371,41.690598],[-71.222471,41.707679],[-71.225998,41.712242],[-71.227175,41.713512],[-71.229468,41.716123],[-71.235982,41.723538],[-71.24515,41.733973],[-71.24796,41.737172],[-71.252041,41.741818],[-71.25464,41.744771],[-71.257566,41.748095],[-71.261067,41.752082],[-71.263871,41.753275],[-71.265878,41.754128],[-71.270835,41.756236],[-71.283421,41.761579],[-71.284404,41.762005],[-71.286131,41.762738],[-71.294753,41.766389],[-71.2977,41.767639],[-71.303586,41.770127],[-71.310355,41.773009],[-71.314668,41.774838],[-71.317873,41.776199],[-71.321751,41.777843],[-71.327792,41.780407],[-71.328639,41.780872],[-71.329096,41.782719],[-71.329725,41.781918],[-71.330046,41.786247],[-71.329432,41.788274],[-71.331861,41.789725],[-71.332841,41.790514],[-71.332343,41.791208],[-71.334112,41.794388],[-71.336463,41.795731],[-71.338838,41.795935],[-71.340495,41.797074],[-71.339894,41.797628],[-71.341124,41.799546],[-71.340543,41.802078],[-71.340511,41.803226],[-71.339569,41.804628],[-71.339466,41.806648],[-71.339404,41.806791],[-71.339325,41.808461],[-71.340405,41.810442],[-71.340635,41.810861],[-71.343089,41.815261],[-71.347496,41.823158],[-71.346095,41.825984],[-71.345787,41.826565],[-71.345198,41.827676],[-71.343254,41.829259],[-71.337855,41.833658],[-71.337321,41.834093],[-71.335417,41.835645],[-71.336438,41.83694],[-71.337032,41.837675],[-71.337299,41.838023],[-71.337453,41.838231],[-71.340629,41.842231],[-71.340803,41.84245],[-71.341015,41.842726],[-71.341931,41.843874],[-71.34255,41.844656],[-71.33771,41.854861],[-71.337265,41.855805],[-71.334653,41.861314],[-71.334255,41.862151],[-71.33404,41.862604],[-71.33599,41.86807],[-71.3374,41.872019],[-71.337818,41.873171],[-71.33886,41.876112],[-71.340626,41.881062],[-71.340752,41.882904],[-71.33985,41.89013],[-71.339767,41.890794],[-71.339539,41.89258],[-71.339517,41.89277],[-71.339307,41.894439],[-71.339286,41.894609],[-71.338787,41.898593],[-71.343864,41.897993],[-71.345934,41.89775],[-71.346809,41.897645],[-71.347849,41.897522],[-71.348565,41.897434],[-71.350383,41.897223],[-71.351335,41.89711],[-71.35294,41.89692],[-71.354558,41.896728],[-71.355581,41.896607],[-71.356757,41.896468],[-71.358695,41.89624],[-71.359541,41.896139],[-71.365457,41.895441],[-71.366113,41.895363],[-71.366239,41.895348],[-71.37109,41.894773],[-71.373798,41.894454],[-71.37409,41.894419],[-71.376369,41.894151],[-71.381125,41.893584],[-71.381463,41.893546],[-71.3821,41.894099],[-71.38299,41.897062],[-71.38366,41.897655],[-71.384644,41.898574],[-71.385932,41.899591],[-71.386249,41.899539],[-71.388236,41.899846],[-71.39006,41.899319],[-71.391739,41.898343],[-71.394296,41.897652],[-71.397243,41.896782],[-71.398145,41.896513],[-71.398941,41.896313],[-71.400869,41.895827],[-71.402001,41.895526],[-71.403488,41.895168],[-71.403673,41.895108],[-71.404568,41.894824],[-71.404691,41.894784],[-71.405529,41.893766],[-71.407055,41.89191],[-71.407283,41.891633],[-71.406441,41.88914],[-71.406227,41.888491],[-71.406016,41.887848],[-71.405817,41.887239],[-71.405485,41.886254],[-71.40428,41.882739],[-71.403706,41.881059],[-71.404748,41.880927],[-71.405004,41.880894],[-71.406403,41.880716],[-71.40652,41.880701],[-71.408948,41.880404],[-71.409843,41.880294],[-71.410728,41.880186],[-71.411606,41.880063],[-71.41292,41.879879],[-71.413887,41.879772],[-71.415553,41.879547],[-71.41806,41.879204],[-71.418564,41.879139],[-71.4219,41.878695],[-71.423908,41.878462],[-71.425217,41.878291],[-71.4321,41.87735],[-71.432337,41.877326],[-71.433513,41.877223],[-71.433654,41.87721],[-71.434891,41.877039],[-71.438179,41.876588],[-71.441955,41.876116],[-71.449154,41.875242],[-71.455584,41.874429],[-71.463265,41.873529],[-71.466623,41.872797],[-71.466759,41.872767],[-71.4669,41.872738],[-71.468845,41.87239],[-71.46922,41.87239],[-71.475526,41.87157],[-71.484053,41.870463],[-71.486682,41.870119],[-71.49128,41.869534],[-71.492477,41.869465],[-71.495545,41.868983],[-71.495487,41.868669],[-71.494451,41.868355],[-71.493152,41.867581],[-71.492523,41.866578],[-71.492353,41.865365],[-71.490929,41.863896],[-71.488565,41.862708],[-71.487421,41.859073],[-71.487398,41.858893],[-71.487381,41.858843],[-71.487354,41.858712],[-71.487274,41.85839],[-71.487227,41.857927],[-71.487236,41.857725],[-71.487234,41.857672],[-71.487231,41.857598],[-71.487234,41.857462],[-71.487246,41.857334],[-71.487242,41.85701],[-71.487224,41.856948],[-71.487198,41.856823],[-71.48719,41.856689],[-71.487174,41.856589],[-71.487123,41.85626],[-71.487095,41.856134],[-71.48708,41.856105],[-71.487073,41.856085],[-71.487057,41.856039],[-71.487023,41.855978],[-71.486908,41.855669],[-71.486869,41.855545],[-71.486731,41.855278],[-71.486631,41.855153],[-71.486567,41.855094],[-71.486453,41.855007],[-71.486433,41.854998],[-71.486373,41.854956],[-71.486311,41.854912],[-71.486065,41.854312],[-71.485636,41.853519],[-71.481165,41.851176],[-71.480974,41.850821],[-71.480619,41.849353],[-71.480602,41.846605],[-71.480782,41.84597],[-71.48033,41.845044],[-71.479586,41.844462],[-71.479521,41.844283],[-71.479004,41.843501],[-71.478888,41.842846],[-71.478659,41.842369],[-71.478123,41.841804],[-71.47764,41.841469],[-71.477322,41.839636],[-71.477216,41.837911],[-71.475986,41.837952],[-71.47331,41.838982],[-71.473034,41.837975],[-71.472829,41.837529],[-71.472459,41.836981],[-71.472004,41.836474],[-71.471721,41.836169],[-71.471667,41.835599],[-71.471791,41.835231],[-71.472176,41.834933],[-71.472383,41.834122],[-71.470444,41.832912],[-71.468624,41.832212],[-71.46759,41.831491],[-71.464992,41.831243],[-71.464693,41.830659],[-71.464742,41.830588],[-71.46475,41.830316],[-71.464744,41.830247],[-71.464686,41.830126],[-71.464646,41.830071],[-71.464569,41.829877],[-71.464422,41.829597],[-71.464304,41.829397],[-71.46418,41.829228],[-71.464125,41.829136],[-71.464021,41.828939],[-71.463948,41.828841],[-71.463793,41.828681],[-71.463744,41.828616],[-71.463676,41.828475],[-71.463635,41.828405],[-71.463461,41.828214],[-71.463348,41.828074],[-71.463249,41.827965],[-71.4632,41.827919],[-71.463145,41.827881],[-71.463065,41.827836],[-71.462983,41.827832],[-71.46293,41.827847],[-71.462306,41.827047],[-71.462542,41.826453],[-71.461936,41.825115],[-71.462423,41.824687],[-71.464703,41.824623],[-71.468399,41.824322],[-71.471306,41.824139],[-71.471764,41.824153],[-71.471632,41.823816],[-71.4716,41.823735],[-71.471573,41.823665],[-71.471511,41.823511],[-71.470877,41.821944],[-71.47082,41.821809],[-71.470031,41.819828],[-71.46965,41.818876],[-71.469347,41.818122],[-71.469226,41.817821],[-71.469018,41.817305],[-71.46882,41.81681],[-71.468625,41.816318],[-71.468285,41.815575],[-71.468208,41.815586],[-71.468193,41.815445],[-71.468094,41.814838],[-71.467804,41.814201],[-71.467867,41.814156],[-71.467698,41.813402],[-71.46768,41.813325],[-71.467675,41.813308],[-71.467572,41.813317],[-71.466551,41.810742],[-71.468703,41.8106],[-71.466803,41.8078],[-71.467851,41.807251],[-71.468109,41.806265],[-71.469064,41.806059],[-71.469165,41.804864],[-71.467668,41.804939],[-71.467072,41.80447],[-71.466644,41.804699],[-71.465935,41.80513],[-71.46492,41.805874],[-71.464686,41.805946],[-71.464725,41.804964],[-71.463665,41.805046],[-71.464315,41.804163],[-71.466027,41.803749],[-71.466167,41.802652],[-71.464379,41.802595],[-71.464255,41.803982],[-71.461631,41.804645],[-71.460226,41.804055],[-71.458702,41.802741],[-71.459096,41.801937],[-71.459478,41.801587],[-71.458998,41.799542],[-71.459356,41.799071],[-71.461563,41.799457],[-71.462322,41.79818],[-71.460303,41.793895],[-71.459532,41.793566],[-71.459882,41.792989],[-71.4592,41.789812],[-71.459028,41.78776],[-71.457513,41.786092],[-71.458154,41.785619],[-71.458326,41.785493],[-71.458923,41.785053],[-71.459569,41.784586],[-71.460176,41.784147],[-71.460778,41.783712],[-71.461105,41.78347],[-71.460411,41.783566],[-71.45726,41.783974],[-71.457413,41.78315],[-71.457397,41.782509],[-71.456886,41.780506],[-71.456674,41.779711],[-71.45652,41.778275],[-71.45665,41.777603],[-71.456772,41.776955],[-71.45681,41.776794],[-71.456909,41.776295],[-71.457008,41.775826],[-71.457047,41.775646],[-71.457184,41.774998],[-71.457314,41.774372],[-71.457352,41.77422],[-71.457443,41.773762],[-71.457481,41.773598],[-71.457571,41.773152],[-71.457657,41.772728],[-71.457954,41.771297],[-71.458,41.771057],[-71.458138,41.770374],[-71.458259,41.769766],[-71.458397,41.769032],[-71.455876,41.768488],[-71.45649,41.767876],[-71.457047,41.767326],[-71.457703,41.76656],[-71.458061,41.766193],[-71.458359,41.765877],[-71.458656,41.765564],[-71.458778,41.765373],[-71.458939,41.765133],[-71.45932,41.763996],[-71.459495,41.760636],[-71.459688,41.75974],[-71.460179,41.758469],[-71.461747,41.756327],[-71.464172,41.753212],[-71.464272,41.753265],[-71.464355,41.753159],[-71.468857,41.747547],[-71.469498,41.746819],[-71.471291,41.745419],[-71.472389,41.743893],[-71.473679,41.742455],[-71.474655,41.741364],[-71.47459,41.741259],[-71.475838,41.740398],[-71.478607,41.739409],[-71.478424,41.738621],[-71.478092,41.737166],[-71.477964,41.736397],[-71.477837,41.735683],[-71.477707,41.735062],[-71.477608,41.734592],[-71.477478,41.73399],[-71.477211,41.732803],[-71.476971,41.731752],[-71.476868,41.730776],[-71.476883,41.729375],[-71.47673,41.728815],[-71.475746,41.727562],[-71.473663,41.726283],[-71.473396,41.726127],[-71.472708,41.725701],[-71.472342,41.725481],[-71.472369,41.725466],[-71.473023,41.72355],[-71.469879,41.721987],[-71.469002,41.721056],[-71.46972,41.719849],[-71.469382,41.719749],[-71.469147,41.71968],[-71.470852,41.71617],[-71.470887,41.71606],[-71.471191,41.714592],[-71.471596,41.709112],[-71.472763,41.705169],[-71.473709,41.702253],[-71.474681,41.699235],[-71.475204,41.697547],[-71.475571,41.697535],[-71.476747,41.697488],[-71.478966,41.697466],[-71.479811,41.697456],[-71.480191,41.697445],[-71.480478,41.69743],[-71.483361,41.69716],[-71.484764,41.697075],[-71.487098,41.69694],[-71.493126,41.696867],[-71.497446,41.696712],[-71.49764,41.696709],[-71.500691,41.696545],[-71.501679,41.696474],[-71.501521,41.694791],[-71.501343,41.692897],[-71.501327,41.692703],[-71.501258,41.691494],[-71.50116,41.68996],[-71.501137,41.688934],[-71.501113,41.688347],[-71.50103,41.68759],[-71.500723,41.685016],[-71.5003,41.681589],[-71.500052,41.679212],[-71.500001,41.67739],[-71.5,41.67733],[-71.499836,41.673776],[-71.499759,41.672914],[-71.499702,41.671079],[-71.499672,41.669868],[-71.499481,41.666648],[-71.499473,41.666509],[-71.499367,41.665543],[-71.498932,41.664607],[-71.499225,41.662948],[-71.498043,41.662979],[-71.497822,41.662986],[-71.490578,41.663181],[-71.490206,41.663193],[-71.484434,41.663348],[-71.480272,41.663386],[-71.479839,41.66339],[-71.479295,41.663398],[-71.475833,41.663485],[-71.473923,41.66351],[-71.47278,41.663526],[-71.46985,41.663588],[-71.466037,41.663685],[-71.465121,41.663716],[-71.459534,41.663731],[-71.458919,41.663734],[-71.45853,41.663734],[-71.45829,41.663705],[-71.455658,41.663788],[-71.455368,41.663794],[-71.454903,41.663804],[-71.453972,41.663819],[-71.452301,41.663878],[-71.451218,41.663923],[-71.450127,41.663964],[-71.449142,41.663985],[-71.448311,41.664026],[-71.447441,41.664049],[-71.446355,41.664089],[-71.445244,41.664023],[-71.444969,41.664029],[-71.4423,41.664019],[-71.442398,41.667557],[-71.440806,41.669613],[-71.439748,41.670799],[-71.434639,41.674434],[-71.430064,41.675658],[-71.423504,41.676346],[-71.4082,41.67452],[-71.393201,41.669592]]]]}},{"type":"Feature","properties":{"id":2,"NAME":"2","TotalPop":549529,"PopDevPct":0.00153001,"DemPct":0.50583723,"RepPct":0.46833026,"WhitePct":0.85791462,"MinorityPct":0.14208538,"BlackPct":0.03312833,"HispanicPct":0.05428828,"PacificPct":0.00141289,"AsianPct":0.03512418,"NativePct":0.01522804,"TotalVAP":449434,"Margin":0.00583723,"color":"#adadff","opacity":"0.5"},"geometry":{"type":"MultiPolygon","coordinates":[[[[-71.575199,41.320941],[-71.556933,41.316254],[-71.543851,41.312598],[-71.526594,41.308804],[-71.51206,41.30808],[-71.509442,41.307732],[-71.506601,41.312601],[-71.482019,41.348537],[-71.47861,41.350924],[-71.476794,41.352687],[-71.474648,41.355253],[-71.467329,41.365112],[-71.459999,41.375102],[-71.440854,41.414205],[-71.432026,41.432236],[-71.429139,41.437998],[-71.421899,41.449002],[-71.417677,41.446482],[-71.412437,41.44433],[-71.406249,41.442253],[-71.40338,41.441615],[-71.397357,41.44162],[-71.394435,41.442014],[-71.384658,41.44897],[-71.374138,41.456618],[-71.367624,41.460999],[-71.367085,41.461362],[-71.36189,41.46496],[-71.361575,41.46473],[-71.361807,41.463005],[-71.362906,41.462547],[-71.363303,41.460632],[-71.362203,41.459254],[-71.361312,41.460219],[-71.359237,41.459861],[-71.358838,41.459126],[-71.359411,41.457405],[-71.358357,41.457122],[-71.357461,41.455899],[-71.357534,41.453465],[-71.357166,41.451453],[-71.35551,41.448967],[-71.352693,41.449998],[-71.35168,41.449764],[-71.351455,41.451101],[-71.349049,41.451791],[-71.347578,41.452896],[-71.346127,41.45244],[-71.34555,41.453359],[-71.344425,41.453394],[-71.343237,41.454348],[-71.342666,41.45315],[-71.342064,41.453484],[-71.34107,41.45379],[-71.339578,41.453127],[-71.339006,41.451902],[-71.33727,41.451331],[-71.338067,41.449892],[-71.33756,41.449249],[-71.337431,41.449029],[-71.332064,41.449394],[-71.313305,41.450676],[-71.310696,41.451086],[-71.308875,41.452118],[-71.307673,41.451852],[-71.306658,41.453256],[-71.305546,41.453181],[-71.305564,41.454172],[-71.304264,41.454484],[-71.303809,41.45719],[-71.304148,41.458145],[-71.303313,41.458928],[-71.30252,41.460336],[-71.303267,41.460376],[-71.303331,41.462067],[-71.303983,41.462749],[-71.302744,41.465711],[-71.301219,41.467153],[-71.299073,41.467126],[-71.296921,41.468659],[-71.296369,41.469341],[-71.297261,41.470707],[-71.29735,41.473132],[-71.297393,41.473443],[-71.297961,41.474367],[-71.29708,41.475826],[-71.296495,41.479773],[-71.296741,41.481089],[-71.296889,41.482681],[-71.297253,41.484986],[-71.2953,41.486203],[-71.291851,41.487606],[-71.286127,41.488827],[-71.285915,41.489247],[-71.285396,41.488823],[-71.282254,41.488242],[-71.280527,41.486029],[-71.279551,41.484791],[-71.279552,41.483678],[-71.278246,41.482845],[-71.277982,41.481423],[-71.27664,41.480038],[-71.276041,41.479824],[-71.274764,41.479678],[-71.271651,41.482417],[-71.271297,41.481721],[-71.270447,41.483411],[-71.269799,41.483131],[-71.267918,41.486649],[-71.267635,41.488706],[-71.265927,41.489144],[-71.263634,41.489011],[-71.259455,41.488109],[-71.254539,41.486682],[-71.249857,41.484423],[-71.247866,41.483125],[-71.245379,41.480628],[-71.24773,41.474765],[-71.247642,41.472469],[-71.24656,41.472798],[-71.245031,41.473637],[-71.243591,41.475174],[-71.242543,41.475017],[-71.240637,41.47569],[-71.239779,41.476739],[-71.240204,41.477955],[-71.239491,41.480055],[-71.238292,41.480383],[-71.237479,41.481997],[-71.237298,41.486144],[-71.241526,41.485322],[-71.242921,41.485375],[-71.24611,41.486841],[-71.247465,41.488766],[-71.247865,41.490767],[-71.246568,41.494389],[-71.244844,41.49573],[-71.242263,41.499158],[-71.240545,41.501963],[-71.239656,41.504337],[-71.240816,41.504806],[-71.240534,41.505967],[-71.238514,41.507606],[-71.237697,41.509028],[-71.236549,41.509549],[-71.23597,41.511942],[-71.234837,41.513665],[-71.23339,41.514027],[-71.233334,41.514941],[-71.230396,41.512997],[-71.211012,41.500177],[-71.211409,41.497929],[-71.209283,41.497131],[-71.207693,41.495883],[-71.204515,41.492467],[-71.203583,41.490683],[-71.202588,41.486672],[-71.202526,41.484186],[-71.204612,41.478392],[-71.205724,41.476011],[-71.208466,41.471902],[-71.213024,41.46613],[-71.216912,41.461997],[-71.21974,41.459632],[-71.201492,41.453899],[-71.195162,41.451909],[-71.169319,41.458391],[-71.164713,41.460809],[-71.120032,41.484272],[-71.116404,41.484568],[-71.121116,41.492787],[-71.119936,41.495079],[-71.120559,41.497421],[-71.121463,41.508803],[-71.121473,41.508928],[-71.121661,41.511354],[-71.121661,41.511366],[-71.121687,41.512406],[-71.121698,41.512543],[-71.121776,41.51351],[-71.122437,41.522075],[-71.124232,41.535829],[-71.125822,41.547995],[-71.126268,41.55142],[-71.126809,41.554902],[-71.127111,41.557331],[-71.127837,41.563203],[-71.129839,41.579352],[-71.13162,41.593716],[-71.135765,41.599855],[-71.136764,41.601334],[-71.138346,41.603676],[-71.140308,41.60485],[-71.140801,41.607136],[-71.141958,41.612533],[-71.141745,41.613898],[-71.141291,41.616797],[-71.140521,41.621705],[-71.139894,41.624146],[-71.138715,41.625268],[-71.135302,41.628565],[-71.135157,41.630926],[-71.13483,41.636285],[-71.134672,41.638888],[-71.134588,41.640246],[-71.134511,41.641485],[-71.134451,41.642452],[-71.134447,41.642514],[-71.134346,41.644117],[-71.133814,41.648948],[-71.133763,41.649417],[-71.13335,41.653176],[-71.13317,41.654774],[-71.132874,41.657498],[-71.132659,41.659449],[-71.132647,41.659555],[-71.132624,41.659785],[-71.132606,41.659928],[-71.132597,41.660023],[-71.132564,41.660315],[-71.132557,41.660363],[-71.133057,41.660457],[-71.135045,41.660807],[-71.138905,41.661491],[-71.144852,41.662568],[-71.147117,41.662968],[-71.153608,41.664151],[-71.15522,41.664475],[-71.159111,41.665186],[-71.161771,41.665671],[-71.16212,41.665735],[-71.17612,41.668248],[-71.175784,41.671493],[-71.178022,41.671901],[-71.181268,41.672495],[-71.18221,41.672667],[-71.183272,41.672857],[-71.184328,41.673063],[-71.186091,41.673401],[-71.186853,41.673538],[-71.187625,41.673676],[-71.190868,41.674262],[-71.192772,41.674596],[-71.193697,41.674765],[-71.194496,41.67491],[-71.195594,41.675201],[-71.198257,41.678406],[-71.208371,41.690598],[-71.210429,41.688009],[-71.214109,41.68335],[-71.217634,41.679149],[-71.220716,41.675347],[-71.221143,41.670419],[-71.224608,41.666053],[-71.227614,41.663039],[-71.244903,41.647467],[-71.249068,41.643997],[-71.251373,41.641814],[-71.254378,41.639602],[-71.257016,41.638145],[-71.265381,41.638366],[-71.2659,41.638544],[-71.268048,41.639868],[-71.270203,41.642089],[-71.27478,41.649832],[-71.275727,41.650678],[-71.277725,41.650854],[-71.281994,41.650151],[-71.290061,41.648824],[-71.291688,41.648557],[-71.29438,41.646218],[-71.296525,41.644354],[-71.300279,41.642675],[-71.303468,41.642156],[-71.307055,41.642545],[-71.311465,41.644048],[-71.315539,41.647405],[-71.31824,41.650648],[-71.321825,41.657148],[-71.323717,41.662229],[-71.328976,41.679936],[-71.33097,41.686962],[-71.352354,41.678885],[-71.354069,41.678165],[-71.355982,41.676783],[-71.358092,41.674202],[-71.360359,41.670406],[-71.363289,41.667937],[-71.367566,41.665876],[-71.374783,41.662765],[-71.376581,41.660295],[-71.378972,41.657977],[-71.379718,41.656458],[-71.380542,41.650326],[-71.390103,41.652293],[-71.392214,41.664741],[-71.393201,41.669592],[-71.4082,41.67452],[-71.423504,41.676346],[-71.430064,41.675658],[-71.434639,41.674434],[-71.439748,41.670799],[-71.440806,41.669613],[-71.442398,41.667557],[-71.4423,41.664019],[-71.444969,41.664029],[-71.445244,41.664023],[-71.446355,41.664089],[-71.447441,41.664049],[-71.448311,41.664026],[-71.449142,41.663985],[-71.450127,41.663964],[-71.451218,41.663923],[-71.452301,41.663878],[-71.453972,41.663819],[-71.454903,41.663804],[-71.455368,41.663794],[-71.455658,41.663788],[-71.45829,41.663705],[-71.45853,41.663734],[-71.458919,41.663734],[-71.459534,41.663731],[-71.465121,41.663716],[-71.466037,41.663685],[-71.46985,41.663588],[-71.47278,41.663526],[-71.473923,41.66351],[-71.475833,41.663485],[-71.479295,41.663398],[-71.479839,41.66339],[-71.480272,41.663386],[-71.484434,41.663348],[-71.490206,41.663193],[-71.490578,41.663181],[-71.497822,41.662986],[-71.498043,41.662979],[-71.499225,41.662948],[-71.498932,41.664607],[-71.499367,41.665543],[-71.499473,41.666509],[-71.499481,41.666648],[-71.499672,41.669868],[-71.499702,41.671079],[-71.499759,41.672914],[-71.499836,41.673776],[-71.5,41.67733],[-71.500001,41.67739],[-71.500052,41.679212],[-71.5003,41.681589],[-71.500723,41.685016],[-71.50103,41.68759],[-71.501113,41.688347],[-71.501137,41.688934],[-71.50116,41.68996],[-71.501258,41.691494],[-71.501327,41.692703],[-71.501343,41.692897],[-71.501521,41.694791],[-71.501679,41.696474],[-71.500691,41.696545],[-71.49764,41.696709],[-71.497446,41.696712],[-71.493126,41.696867],[-71.487098,41.69694],[-71.484764,41.697075],[-71.483361,41.69716],[-71.480478,41.69743],[-71.480191,41.697445],[-71.479811,41.697456],[-71.478966,41.697466],[-71.476747,41.697488],[-71.475571,41.697535],[-71.475204,41.697547],[-71.474681,41.699235],[-71.473709,41.702253],[-71.472763,41.705169],[-71.471596,41.709112],[-71.471191,41.714592],[-71.470887,41.71606],[-71.470852,41.71617],[-71.469147,41.71968],[-71.469382,41.719749],[-71.46972,41.719849],[-71.469002,41.721056],[-71.469879,41.721987],[-71.473023,41.72355],[-71.472369,41.725466],[-71.472342,41.725481],[-71.472708,41.725701],[-71.473396,41.726127],[-71.473663,41.726283],[-71.475746,41.727562],[-71.47673,41.728815],[-71.476883,41.729375],[-71.476868,41.730776],[-71.476971,41.731752],[-71.477211,41.732803],[-71.477478,41.73399],[-71.477608,41.734592],[-71.477707,41.735062],[-71.477837,41.735683],[-71.477964,41.736397],[-71.478092,41.737166],[-71.478424,41.738621],[-71.478607,41.739409],[-71.475838,41.740398],[-71.47459,41.741259],[-71.474655,41.741364],[-71.473679,41.742455],[-71.472389,41.743893],[-71.471291,41.745419],[-71.469498,41.746819],[-71.468857,41.747547],[-71.464355,41.753159],[-71.464272,41.753265],[-71.464172,41.753212],[-71.461747,41.756327],[-71.460179,41.758469],[-71.459688,41.75974],[-71.459495,41.760636],[-71.45932,41.763996],[-71.458939,41.765133],[-71.458778,41.765373],[-71.458656,41.765564],[-71.458359,41.765877],[-71.458061,41.766193],[-71.457703,41.76656],[-71.457047,41.767326],[-71.45649,41.767876],[-71.455876,41.768488],[-71.458397,41.769032],[-71.458259,41.769766],[-71.458138,41.770374],[-71.458,41.771057],[-71.457954,41.771297],[-71.457657,41.772728],[-71.457571,41.773152],[-71.457481,41.773598],[-71.457443,41.773762],[-71.457352,41.77422],[-71.457314,41.774372],[-71.457184,41.774998],[-71.457047,41.775646],[-71.457008,41.775826],[-71.456909,41.776295],[-71.45681,41.776794],[-71.456772,41.776955],[-71.45665,41.777603],[-71.45652,41.778275],[-71.456674,41.779711],[-71.456886,41.780506],[-71.457397,41.782509],[-71.457413,41.78315],[-71.45726,41.783974],[-71.460411,41.783566],[-71.461105,41.78347],[-71.460778,41.783712],[-71.460176,41.784147],[-71.459569,41.784586],[-71.458923,41.785053],[-71.458326,41.785493],[-71.458154,41.785619],[-71.457513,41.786092],[-71.459028,41.78776],[-71.4592,41.789812],[-71.459882,41.792989],[-71.459532,41.793566],[-71.460303,41.793895],[-71.462322,41.79818],[-71.461563,41.799457],[-71.459356,41.799071],[-71.458998,41.799542],[-71.459478,41.801587],[-71.459096,41.801937],[-71.458702,41.802741],[-71.460226,41.804055],[-71.461631,41.804645],[-71.464255,41.803982],[-71.464379,41.802595],[-71.466167,41.802652],[-71.466027,41.803749],[-71.464315,41.804163],[-71.463665,41.805046],[-71.464725,41.804964],[-71.464686,41.805946],[-71.46492,41.805874],[-71.465935,41.80513],[-71.466644,41.804699],[-71.467072,41.80447],[-71.467668,41.804939],[-71.469165,41.804864],[-71.469064,41.806059],[-71.468109,41.806265],[-71.467851,41.807251],[-71.466803,41.8078],[-71.468703,41.8106],[-71.466551,41.810742],[-71.467572,41.813317],[-71.467675,41.813308],[-71.46768,41.813325],[-71.467698,41.813402],[-71.467867,41.814156],[-71.467804,41.814201],[-71.468094,41.814838],[-71.468193,41.815445],[-71.468208,41.815586],[-71.468285,41.815575],[-71.468625,41.816318],[-71.46882,41.81681],[-71.469018,41.817305],[-71.469226,41.817821],[-71.469347,41.818122],[-71.46965,41.818876],[-71.470031,41.819828],[-71.47082,41.821809],[-71.470877,41.821944],[-71.471511,41.823511],[-71.471573,41.823665],[-71.4716,41.823735],[-71.471632,41.823816],[-71.471764,41.824153],[-71.471306,41.824139],[-71.468399,41.824322],[-71.464703,41.824623],[-71.462423,41.824687],[-71.461936,41.825115],[-71.462542,41.826453],[-71.462306,41.827047],[-71.46293,41.827847],[-71.462983,41.827832],[-71.463065,41.827836],[-71.463145,41.827881],[-71.4632,41.827919],[-71.463249,41.827965],[-71.463348,41.828074],[-71.463461,41.828214],[-71.463635,41.828405],[-71.463676,41.828475],[-71.463744,41.828616],[-71.463793,41.828681],[-71.463948,41.828841],[-71.464021,41.828939],[-71.464125,41.829136],[-71.46418,41.829228],[-71.464304,41.829397],[-71.464422,41.829597],[-71.464569,41.829877],[-71.464646,41.830071],[-71.464686,41.830126],[-71.464744,41.830247],[-71.46475,41.830316],[-71.464742,41.830588],[-71.464693,41.830659],[-71.464992,41.831243],[-71.46759,41.831491],[-71.468624,41.832212],[-71.470444,41.832912],[-71.472383,41.834122],[-71.472176,41.834933],[-71.471791,41.835231],[-71.471667,41.835599],[-71.471721,41.836169],[-71.472004,41.836474],[-71.472459,41.836981],[-71.472829,41.837529],[-71.473034,41.837975],[-71.47331,41.838982],[-71.475986,41.837952],[-71.477216,41.837911],[-71.477322,41.839636],[-71.47764,41.841469],[-71.478123,41.841804],[-71.478659,41.842369],[-71.478888,41.842846],[-71.479004,41.843501],[-71.479521,41.844283],[-71.479586,41.844462],[-71.48033,41.845044],[-71.480782,41.84597],[-71.480602,41.846605],[-71.480619,41.849353],[-71.480974,41.850821],[-71.481165,41.851176],[-71.485636,41.853519],[-71.486065,41.854312],[-71.486311,41.854912],[-71.486373,41.854956],[-71.486433,41.854998],[-71.486453,41.855007],[-71.486567,41.855094],[-71.486631,41.855153],[-71.486731,41.855278],[-71.486869,41.855545],[-71.486908,41.855669],[-71.487023,41.855978],[-71.487057,41.856039],[-71.487073,41.856085],[-71.48708,41.856105],[-71.487095,41.856134],[-71.487123,41.85626],[-71.487174,41.856589],[-71.48719,41.856689],[-71.487198,41.856823],[-71.487224,41.856948],[-71.487242,41.85701],[-71.487246,41.857334],[-71.487234,41.857462],[-71.487231,41.857598],[-71.487234,41.857672],[-71.487236,41.857725],[-71.487227,41.857927],[-71.487274,41.85839],[-71.487354,41.858712],[-71.487381,41.858843],[-71.487398,41.858893],[-71.487421,41.859073],[-71.488565,41.862708],[-71.490929,41.863896],[-71.492353,41.865365],[-71.492523,41.866578],[-71.493152,41.867581],[-71.494451,41.868355],[-71.495487,41.868669],[-71.495545,41.868983],[-71.492477,41.869465],[-71.49128,41.869534],[-71.486682,41.870119],[-71.484053,41.870463],[-71.475526,41.87157],[-71.46922,41.87239],[-71.468845,41.87239],[-71.4669,41.872738],[-71.466759,41.872767],[-71.466623,41.872797],[-71.463265,41.873529],[-71.455584,41.874429],[-71.449154,41.875242],[-71.441955,41.876116],[-71.438179,41.876588],[-71.434891,41.877039],[-71.433654,41.87721],[-71.433513,41.877223],[-71.432337,41.877326],[-71.4321,41.87735],[-71.425217,41.878291],[-71.423908,41.878462],[-71.4219,41.878695],[-71.418564,41.879139],[-71.41806,41.879204],[-71.415553,41.879547],[-71.413887,41.879772],[-71.41292,41.879879],[-71.411606,41.880063],[-71.410728,41.880186],[-71.409843,41.880294],[-71.408948,41.880404],[-71.40652,41.880701],[-71.406403,41.880716],[-71.405004,41.880894],[-71.404748,41.880927],[-71.403706,41.881059],[-71.40428,41.882739],[-71.405485,41.886254],[-71.405817,41.887239],[-71.406016,41.887848],[-71.406227,41.888491],[-71.406441,41.88914],[-71.407283,41.891633],[-71.407055,41.89191],[-71.405529,41.893766],[-71.404691,41.894784],[-71.404568,41.894824],[-71.403673,41.895108],[-71.403488,41.895168],[-71.402001,41.895526],[-71.400869,41.895827],[-71.398941,41.896313],[-71.398145,41.896513],[-71.397243,41.896782],[-71.394296,41.897652],[-71.391739,41.898343],[-71.39006,41.899319],[-71.388236,41.899846],[-71.386249,41.899539],[-71.385932,41.899591],[-71.384644,41.898574],[-71.38366,41.897655],[-71.38299,41.897062],[-71.3821,41.894099],[-71.381463,41.893546],[-71.381463,41.893731],[-71.381459,41.896756],[-71.381456,41.898879],[-71.381456,41.899767],[-71.381455,41.900276],[-71.381452,41.903598],[-71.381446,41.907687],[-71.381446,41.910206],[-71.381443,41.911457],[-71.381444,41.912212],[-71.38144,41.912903],[-71.38144,41.914745],[-71.381439,41.915287],[-71.381439,41.915472],[-71.381434,41.919725],[-71.381432,41.919857],[-71.381434,41.919949],[-71.381434,41.920011],[-71.381434,41.920167],[-71.381434,41.920219],[-71.381434,41.920605],[-71.381433,41.921149],[-71.381432,41.921366],[-71.381433,41.921472],[-71.381432,41.921686],[-71.381432,41.921981],[-71.381433,41.922335],[-71.381433,41.92256],[-71.381431,41.922836],[-71.381431,41.923009],[-71.381422,41.923155],[-71.381427,41.926501],[-71.381425,41.929828],[-71.381408,41.943627],[-71.3814,41.947682],[-71.381399,41.951662],[-71.381398,41.952862],[-71.381398,41.953156],[-71.381398,41.954883],[-71.381394,41.956429],[-71.381393,41.957419],[-71.381388,41.962994],[-71.381383,41.966977],[-71.381378,41.971399],[-71.381377,41.972688],[-71.381373,41.97639],[-71.381372,41.977196],[-71.381369,41.980231],[-71.381365,41.982778],[-71.381378,41.992025],[-71.381505,42.000021],[-71.3815,42.00071],[-71.381501,42.006682],[-71.381503,42.01024],[-71.381401,42.018798],[-71.387409,42.018791],[-71.390748,42.018798],[-71.396578,42.018748],[-71.412368,42.018525],[-71.41426,42.018499],[-71.415708,42.018498],[-71.419858,42.018385],[-71.422481,42.018298],[-71.424407,42.01828],[-71.439153,42.018121],[-71.441511,42.018092],[-71.45024,42.017895],[-71.452735,42.017864],[-71.454035,42.017848],[-71.458104,42.017798],[-71.463456,42.017732],[-71.473124,42.017621],[-71.483784,42.017481],[-71.485368,42.017459],[-71.486652,42.017441],[-71.489389,42.017401],[-71.491324,42.017373],[-71.49357,42.01734],[-71.494428,42.017328],[-71.495296,42.017315],[-71.496186,42.017302],[-71.497677,42.017281],[-71.499065,42.017213],[-71.499244,42.017199],[-71.502054,42.016991],[-71.505728,42.016712],[-71.506428,42.016667],[-71.507155,42.016613],[-71.511633,42.01628],[-71.514439,42.016073],[-71.516614,42.015912],[-71.518809,42.015747],[-71.519774,42.01568],[-71.520734,42.015605],[-71.521714,42.015533],[-71.524641,42.015316],[-71.52718,42.015128],[-71.527702,42.015095],[-71.528665,42.015072],[-71.529125,42.015063],[-71.533673,42.014959],[-71.53522,42.014924],[-71.536306,42.014898],[-71.537507,42.014873],[-71.537877,42.014864],[-71.54278,42.014753],[-71.543658,42.014733],[-71.553256,42.014514],[-71.55337,42.014512],[-71.553618,42.014505],[-71.558748,42.014388],[-71.565485,42.014235],[-71.570322,42.014124],[-71.571897,42.014088],[-71.573399,42.014061],[-71.576816,42.013975],[-71.580471,42.013889],[-71.583019,42.013833],[-71.584608,42.013796],[-71.586861,42.013743],[-71.587254,42.013734],[-71.594116,42.013575],[-71.594332,42.013568],[-71.606731,42.01328],[-71.60785,42.013254],[-71.614552,42.013099],[-71.625977,42.012828],[-71.636672,42.012578],[-71.64533,42.012372],[-71.649516,42.012274],[-71.6616,42.011987],[-71.669997,42.011788],[-71.678019,42.011598],[-71.682432,42.011495],[-71.698585,42.011135],[-71.702161,42.011055],[-71.713558,42.010796],[-71.724934,42.010542],[-71.734064,42.010334],[-71.740881,42.010179],[-71.750278,42.009966],[-71.755106,42.009857],[-71.765713,42.009611],[-71.76608,42.009601],[-71.771427,42.009481],[-71.799188,42.008053],[-71.799195,42.004218],[-71.798763,41.985147],[-71.798646,41.976912],[-71.798549,41.970427],[-71.798379,41.962946],[-71.798328,41.961642],[-71.798313,41.961238],[-71.798068,41.95373],[-71.798038,41.945079],[-71.798015,41.941717],[-71.79791,41.933216],[-71.797893,41.932216],[-71.797778,41.928645],[-71.797726,41.927446],[-71.797299,41.916891],[-71.797262,41.916247],[-71.797105,41.912231],[-71.796698,41.899921],[-71.796522,41.895288],[-71.795863,41.877688],[-71.795356,41.867126],[-71.794941,41.859475],[-71.79468,41.854409],[-71.794474,41.849159],[-71.794471,41.849088],[-71.794173,41.841416],[-71.794121,41.841103],[-71.794134,41.840008],[-71.79344,41.825637],[-71.793161,41.817169],[-71.793114,41.814658],[-71.792894,41.812521],[-71.792364,41.800053],[-71.792079,41.795076],[-71.792058,41.794592],[-71.791919,41.790715],[-71.79194,41.789614],[-71.79137,41.777296],[-71.791066,41.77018],[-71.790554,41.750117],[-71.790323,41.747792],[-71.790089,41.740991],[-71.790016,41.738876],[-71.789768,41.731556],[-71.789704,41.725198],[-71.789272,41.711929],[-71.789069,41.705964],[-71.788804,41.698336],[-71.788715,41.695598],[-71.788577,41.691526],[-71.788397,41.686218],[-71.787843,41.669817],[-71.787239,41.656111],[-71.787649,41.640274],[-71.787726,41.637946],[-71.787846,41.63445],[-71.787984,41.629347],[-71.788213,41.621017],[-71.788647,41.612057],[-71.789044,41.603521],[-71.789247,41.596847],[-71.789462,41.594328],[-71.789995,41.582071],[-71.790432,41.571986],[-71.790467,41.570872],[-71.790672,41.566058],[-71.790972,41.561451],[-71.791033,41.556177],[-71.791138,41.553021],[-71.791402,41.546092],[-71.792206,41.526783],[-71.792667,41.516013],[-71.79351,41.498985],[-71.794147,41.486219],[-71.794232,41.48472],[-71.79427,41.484049],[-71.794778,41.475093],[-71.795025,41.470748],[-71.795415,41.463938],[-71.795647,41.459984],[-71.796296,41.451516],[-71.796468,41.44735],[-71.796645,41.443086],[-71.796669,41.442494],[-71.796681,41.442202],[-71.796767,41.440124],[-71.79688,41.437294],[-71.797112,41.4305],[-71.797134,41.429982],[-71.797287,41.426399],[-71.79772,41.417408],[-71.797744,41.41691],[-71.798391,41.416447],[-71.799513,41.415838],[-71.800739,41.415533],[-71.801726,41.415658],[-71.803253,41.417307],[-71.803684,41.417428],[-71.805177,41.417134],[-71.805895,41.416836],[-71.806812,41.416673],[-71.807237,41.416834],[-71.808052,41.417387],[-71.809212,41.417822],[-71.8105,41.418521],[-71.81215,41.419213],[-71.8129,41.419404],[-71.814889,41.419487],[-71.816904,41.419927],[-71.818088,41.419852],[-71.82033,41.419382],[-71.821765,41.418248],[-71.822767,41.41786],[-71.823418,41.41747],[-71.823731,41.417282],[-71.823873,41.417164],[-71.823981,41.417028],[-71.824146,41.416764],[-71.824273,41.416257],[-71.824304,41.415833],[-71.824384,41.415461],[-71.824573,41.415235],[-71.82492,41.414961],[-71.825384,41.414687],[-71.825936,41.414596],[-71.826128,41.414565],[-71.827218,41.414492],[-71.827902,41.414334],[-71.829288,41.413782],[-71.830628,41.41318],[-71.831412,41.412793],[-71.833416,41.411946],[-71.834107,41.411582],[-71.834658,41.411597],[-71.835797,41.412232],[-71.836883,41.412228],[-71.83789,41.412483],[-71.839258,41.41239],[-71.839697,41.412222],[-71.84044,41.411532],[-71.842029,41.410706],[-71.842426,41.41026],[-71.842627,41.409757],[-71.842352,41.408084],[-71.842935,41.407151],[-71.843229,41.406181],[-71.843591,41.405331],[-71.843256,41.404461],[-71.842326,41.403817],[-71.841553,41.403046],[-71.84138,41.401439],[-71.841068,41.399658],[-71.84115,41.39923],[-71.842004,41.397496],[-71.842244,41.396879],[-71.842209,41.39538],[-71.841722,41.394625],[-71.841042,41.394089],[-71.840991,41.394024],[-71.840608,41.393622],[-71.839623,41.392168],[-71.838749,41.391054],[-71.838118,41.390554],[-71.835708,41.389852],[-71.834557,41.389181],[-71.83313,41.387839],[-71.832655,41.387156],[-71.832591,41.386385],[-71.832955,41.385257],[-71.833395,41.38383],[-71.833553,41.382846],[-71.833527,41.382264],[-71.833232,41.381686],[-71.832736,41.381164],[-71.832082,41.380139],[-71.831796,41.379866],[-71.830831,41.379137],[-71.831356,41.377752],[-71.831464,41.377654],[-71.832134,41.377059],[-71.832436,41.376462],[-71.832656,41.37585],[-71.832674,41.375621],[-71.832699,41.375309],[-71.832623,41.375151],[-71.832531,41.374963],[-71.832508,41.374893],[-71.832468,41.374768],[-71.832374,41.374476],[-71.831779,41.372628],[-71.831775,41.372615],[-71.831712,41.372417],[-71.831652,41.372226],[-71.831653,41.372088],[-71.831656,41.371683],[-71.831657,41.371472],[-71.83166,41.371258],[-71.831665,41.37123],[-71.831681,41.371152],[-71.831844,41.370344],[-71.831954,41.370109],[-71.831997,41.370017],[-71.832776,41.369169],[-71.837034,41.366286],[-71.837633,41.365499],[-71.837751,41.363296],[-71.837807,41.358994],[-71.836768,41.355103],[-71.836044,41.353988],[-71.831303,41.351295],[-71.829779,41.346229],[-71.829479,41.342326],[-71.830627,41.341258],[-71.83728,41.335068],[-71.844611,41.33073],[-71.847709,41.329604],[-71.851923,41.324664],[-71.857458,41.320789],[-71.859896,41.320358],[-71.866538,41.319185],[-71.874513,41.321868],[-71.882131,41.325673],[-71.889292,41.328975],[-71.891265,41.329714],[-71.892356,41.329218],[-71.893657,41.326504],[-71.900301,41.316046],[-71.901658,41.312683],[-71.907258,41.304483],[-71.879847,41.276246],[-71.874513,41.270686],[-71.858513,41.253697],[-71.854462,41.2501],[-71.809384,41.203235],[-71.790972,41.184101],[-71.79148,41.2501],[-71.79148,41.271922],[-71.79148,41.272165],[-71.77843,41.275111],[-71.765812,41.274245],[-71.749509,41.274999],[-71.747045,41.274974],[-71.73956,41.275449],[-71.732835,41.276876],[-71.729228,41.277891],[-71.723435,41.279617],[-71.719994,41.281149],[-71.711661,41.280601],[-71.705744,41.280739],[-71.695043,41.282647],[-71.685861,41.28539],[-71.672595,41.289079],[-71.666319,41.292487],[-71.659565,41.296653],[-71.656976,41.296897],[-71.651523,41.298362],[-71.645638,41.300124],[-71.64072,41.301821],[-71.636129,41.303157],[-71.632188,41.304842],[-71.624504,41.306143],[-71.624504,41.305997],[-71.598151,41.312594],[-71.584452,41.317037],[-71.575199,41.320941]]],[[[-71.643014,41.231323],[-71.649378,41.223986],[-71.654561,41.215465],[-71.663768,41.206605],[-71.667858,41.200626],[-71.670491,41.194503],[-71.672814,41.18465],[-71.673808,41.17885],[-71.676264,41.168864],[-71.678807,41.158912],[-71.678302,41.148904],[-71.676092,41.141502],[-71.672644,41.134292],[-71.668345,41.12825],[-71.665453,41.125821],[-71.657633,41.119875],[-71.649849,41.114143],[-71.640344,41.108433],[-71.630301,41.103455],[-71.624501,41.100979],[-71.618861,41.099091],[-71.611673,41.097413],[-71.601864,41.096619],[-71.593513,41.095834],[-71.5693,41.097182],[-71.565311,41.09779],[-71.55316,41.100079],[-71.543771,41.100817],[-71.535841,41.101664],[-71.528168,41.103114],[-71.517538,41.107077],[-71.508093,41.111615],[-71.501887,41.115541],[-71.499496,41.117492],[-71.494679,41.122192],[-71.491432,41.125104],[-71.488273,41.130541],[-71.48403,41.139232],[-71.479562,41.148055],[-71.477024,41.155657],[-71.476877,41.161171],[-71.476925,41.168157],[-71.478603,41.175792],[-71.480455,41.181288],[-71.482716,41.186253],[-71.489844,41.194698],[-71.485884,41.204727],[-71.485175,41.209468],[-71.484583,41.217486],[-71.486497,41.226927],[-71.489322,41.235171],[-71.492196,41.240876],[-71.496595,41.245823],[-71.499994,41.250103],[-71.51635,41.271549],[-71.535979,41.28618],[-71.557569,41.294018],[-71.570655,41.294018],[-71.591591,41.289317],[-71.609257,41.281999],[-71.624504,41.274129],[-71.634968,41.263682],[-71.640844,41.250101],[-71.642006,41.245313],[-71.642758,41.237934],[-71.643014,41.231323]]]]}}],"labels":{"type":"FeatureCollection","features":[{"type":"Feature","properties":{"id":"1","NAME":"1","featureLabel":{"left":-71.38938508793639,"right":-71.38938508793639,"top":41.74313926869203,"bottom":41.74313926869203},"text-field":"1"},"geometry":{"type":"Point","coordinates":[-71.38938508793639,41.74313926869203]}},{"type":"Feature","properties":{"id":"2","NAME":"2","featureLabel":{"left":-71.60475658634948,"right":-71.60475658634948,"top":41.507225727340696,"bottom":41.507225727340696},"text-field":"2"},"geometry":{"type":"Point","coordinates":[-71.60475658634948,41.507225727340696]}}]}}