{"type":"FeatureCollection","features":[{"type":"Feature","properties":{"id":1,"NAME":"1","TotalPop":721812,"PopDevPct":0.00086413,"DemPct":0.63956205,"RepPct":0.3427283,"WhitePct":0.56675443,"MinorityPct":0.43324557,"BlackPct":0.18094976,"HispanicPct":0.18240095,"PacificPct":0.00152821,"AsianPct":0.06814434,"NativePct":0.01461861,"TotalVAP":571258,"Margin":0.13956205,"color":"#00008b","opacity":"0.5"},"geometry":{"type":"MultiPolygon","coordinates":[[[[-72.526747,41.712123],[-72.526546,41.714174],[-72.525556,41.715751],[-72.525782,41.717107],[-72.526525,41.718277],[-72.526882,41.718982],[-72.526165,41.721066],[-72.524327,41.721255],[-72.524159,41.721885],[-72.523772,41.723841],[-72.524021,41.725774],[-72.522672,41.727631],[-72.523581,41.728898],[-72.522427,41.729629],[-72.517814,41.730316],[-72.517527,41.733298],[-72.5182,41.737387],[-72.518077,41.738153],[-72.517132,41.739935],[-72.516256,41.739824],[-72.510768,41.740437],[-72.505651,41.741227],[-72.503309,41.741207],[-72.50078,41.741877],[-72.489123,41.742998],[-72.474227,41.744492],[-72.463899,41.745572],[-72.464669,41.749006],[-72.46509,41.750025],[-72.467226,41.762877],[-72.468065,41.767133],[-72.468724,41.770475],[-72.468829,41.771659],[-72.46906,41.772798],[-72.470335,41.779834],[-72.470721,41.782139],[-72.470852,41.783133],[-72.471062,41.784371],[-72.472281,41.79096],[-72.472559,41.79244],[-72.473034,41.795326],[-72.473468,41.798264],[-72.47364,41.799141],[-72.474129,41.801972],[-72.475998,41.812777],[-72.476029,41.812997],[-72.483676,41.812416],[-72.485404,41.812233],[-72.487364,41.811751],[-72.491959,41.811353],[-72.497595,41.810755],[-72.502559,41.810176],[-72.507531,41.809698],[-72.506828,41.81321],[-72.506428,41.815506],[-72.50604,41.817252],[-72.50543,41.820298],[-72.505416,41.820391],[-72.505255,41.821308],[-72.504435,41.824674],[-72.504077,41.826484],[-72.504042,41.826658],[-72.503884,41.827467],[-72.503764,41.828073],[-72.503637,41.828715],[-72.503631,41.828743],[-72.503517,41.829316],[-72.503515,41.829328],[-72.503211,41.830868],[-72.502632,41.833589],[-72.50232,41.834745],[-72.501382,41.839197],[-72.499273,41.850273],[-72.498733,41.853329],[-72.497262,41.858759],[-72.49681,41.860616],[-72.501963,41.859452],[-72.509683,41.858305],[-72.515142,41.857461],[-72.51833,41.856899],[-72.51733,41.869897],[-72.516924,41.873639],[-72.516731,41.877997],[-72.516227,41.888142],[-72.515928,41.892422],[-72.515226,41.899467],[-72.515132,41.905984],[-72.514717,41.913807],[-72.514628,41.916631],[-72.514153,41.928072],[-72.514128,41.932564],[-72.513839,41.937741],[-72.51383,41.938171],[-72.51363,41.942997],[-72.51333,41.945401],[-72.50572,41.946372],[-72.492729,41.947497],[-72.496778,41.967234],[-72.498383,41.97517],[-72.498954,41.978285],[-72.499377,41.981447],[-72.499406,41.98159],[-72.499722,41.984223],[-72.50232,41.998039],[-72.503903,42.006475],[-72.50539,42.013567],[-72.505935,42.016478],[-72.506389,42.01894],[-72.506925,42.021853],[-72.508637,42.031135],[-72.509233,42.034376],[-72.517152,42.034448],[-72.520118,42.034473],[-72.524589,42.034514],[-72.527979,42.034544],[-72.531549,42.034578],[-72.553077,42.032243],[-72.56099,42.03143],[-72.572778,42.030219],[-72.574113,42.02944],[-72.575869,42.028416],[-72.580733,42.025573],[-72.581394,42.025192],[-72.582972,42.024756],[-72.583951,42.024774],[-72.587325,42.024837],[-72.589691,42.024878],[-72.589876,42.024882],[-72.600912,42.025082],[-72.604381,42.025136],[-72.606959,42.025147],[-72.607169,42.025148],[-72.607978,42.031083],[-72.611006,42.031071],[-72.616902,42.031238],[-72.618123,42.03128],[-72.636976,42.031933],[-72.640191,42.032048],[-72.663237,42.03426],[-72.673032,42.035195],[-72.678336,42.03555],[-72.686052,42.036065],[-72.699405,42.036957],[-72.700343,42.036952],[-72.71094,42.036922],[-72.713377,42.036914],[-72.715883,42.036547],[-72.719281,42.03653],[-72.751666,42.03637],[-72.755894,42.036349],[-72.756046,42.034943],[-72.757301,42.033381],[-72.754641,42.032595],[-72.752553,42.031249],[-72.751905,42.029824],[-72.752598,42.028238],[-72.753842,42.027258],[-72.754536,42.02576],[-72.75578,42.024732],[-72.757156,42.021114],[-72.759232,42.021078],[-72.759434,42.022163],[-72.761411,42.022713],[-72.763487,42.021184],[-72.765145,42.022434],[-72.764544,42.020751],[-72.765741,42.019502],[-72.764739,42.019947],[-72.76372,42.019893],[-72.762883,42.019636],[-72.762453,42.018222],[-72.762018,42.017696],[-72.761335,42.017291],[-72.760557,42.017073],[-72.760068,42.017315],[-72.759826,42.016944],[-72.760005,42.016385],[-72.759402,42.016242],[-72.75895,42.015469],[-72.759175,42.015272],[-72.759704,42.01521],[-72.760624,42.01569],[-72.760813,42.015447],[-72.761004,42.014704],[-72.7616,42.014278],[-72.76219,42.01407],[-72.762977,42.013466],[-72.763072,42.013277],[-72.763066,42.011983],[-72.762543,42.011458],[-72.762062,42.010343],[-72.761363,42.00971],[-72.761501,42.009302],[-72.761831,42.009048],[-72.762976,42.008545],[-72.763989,42.008404],[-72.764874,42.008371],[-72.765497,42.008211],[-72.766253,42.007871],[-72.766411,42.006361],[-72.766733,42.003266],[-72.771347,42.002755],[-72.774691,42.002385],[-72.784904,42.001252],[-72.794866,42.00015],[-72.808585,41.998628],[-72.812997,41.998136],[-72.817053,41.997685],[-72.813784,42.036744],[-72.824353,42.036912],[-72.827408,42.03696],[-72.84752,42.037276],[-72.862517,42.03751],[-72.86364,42.037528],[-72.863819,42.035383],[-72.865781,42.030431],[-72.866291,42.029706],[-72.86916,42.021339],[-72.873001,42.011628],[-72.874543,42.008822],[-72.87762,42.000161],[-72.87795,41.998159],[-72.878469,41.996781],[-72.878714,41.995878],[-72.880943,41.990193],[-72.886558,41.974725],[-72.88661,41.974527],[-72.88706,41.973121],[-72.892846,41.957811],[-72.896288,41.948298],[-72.898595,41.942255],[-72.902244,41.931995],[-72.902968,41.931361],[-72.905945,41.921696],[-72.906754,41.919907],[-72.915346,41.896797],[-72.92737,41.89607],[-72.929406,41.895916],[-72.939774,41.895254],[-72.940647,41.895196],[-72.942528,41.88949],[-72.943894,41.884815],[-72.946178,41.877234],[-72.946342,41.874027],[-72.947335,41.871384],[-72.951932,41.858226],[-72.953294,41.85478],[-72.95364,41.853919],[-72.953647,41.853885],[-72.95381,41.849497],[-72.953651,41.84668],[-72.952346,41.844799],[-72.951889,41.842953],[-72.951187,41.842697],[-72.946526,41.843628],[-72.942245,41.843445],[-72.939095,41.842506],[-72.93679,41.840736],[-72.936502,41.840263],[-72.93641,41.839988],[-72.937441,41.837493],[-72.939545,41.831729],[-72.939559,41.83169],[-72.940402,41.829234],[-72.941559,41.826462],[-72.946481,41.81341],[-72.94717,41.811683],[-72.949024,41.806431],[-72.945122,41.806915],[-72.937258,41.807892],[-72.928081,41.808876],[-72.925901,41.809161],[-72.925623,41.809212],[-72.924133,41.808723],[-72.921183,41.807117],[-72.920731,41.805726],[-72.921391,41.805194],[-72.924253,41.804794],[-72.927414,41.803707],[-72.928082,41.801765],[-72.92688,41.799805],[-72.925523,41.798702],[-72.925252,41.795639],[-72.924659,41.792615],[-72.924542,41.789574],[-72.924946,41.787785],[-72.924058,41.78602],[-72.923087,41.785217],[-72.922791,41.784304],[-72.922256,41.783047],[-72.921596,41.782537],[-72.921317,41.781609],[-72.920856,41.780737],[-72.920475,41.779573],[-72.920057,41.779068],[-72.919023,41.778299],[-72.917652,41.777739],[-72.915702,41.777382],[-72.914917,41.777338],[-72.913158,41.776844],[-72.911706,41.776602],[-72.909506,41.776146],[-72.909088,41.776217],[-72.90848,41.776043],[-72.908328,41.775196],[-72.906247,41.764892],[-72.904927,41.75809],[-72.904246,41.750236],[-72.90289,41.745336],[-72.902726,41.744662],[-72.902625,41.743569],[-72.902611,41.743166],[-72.902157,41.741299],[-72.90208,41.739737],[-72.901357,41.737688],[-72.90108,41.73668],[-72.901021,41.736557],[-72.89983,41.732046],[-72.89827,41.723177],[-72.897031,41.717272],[-72.88807,41.718381],[-72.883006,41.718951],[-72.882204,41.717992],[-72.88198,41.71637],[-72.881944,41.716074],[-72.881673,41.713853],[-72.880184,41.709452],[-72.87987,41.706511],[-72.87739,41.706805],[-72.874212,41.707142],[-72.873793,41.705074],[-72.873104,41.703209],[-72.870773,41.701777],[-72.86954,41.697523],[-72.869342,41.696522],[-72.863845,41.695429],[-72.856079,41.694223],[-72.855793,41.694162],[-72.85321,41.693792],[-72.848861,41.693041],[-72.844685,41.692324],[-72.843172,41.692073],[-72.842175,41.691908],[-72.835817,41.690879],[-72.832508,41.690434],[-72.825973,41.689433],[-72.815442,41.68782],[-72.815782,41.687114],[-72.819779,41.683104],[-72.821559,41.677691],[-72.823411,41.672568],[-72.825335,41.669244],[-72.825418,41.668938],[-72.825523,41.668711],[-72.825624,41.66849],[-72.825525,41.668273],[-72.82537,41.667341],[-72.824289,41.661853],[-72.82343,41.658779],[-72.822573,41.65571],[-72.820739,41.655715],[-72.819428,41.646101],[-72.819441,41.645806],[-72.819442,41.645579],[-72.819297,41.645256],[-72.819185,41.645004],[-72.818401,41.645018],[-72.818048,41.645025],[-72.817467,41.64513],[-72.814322,41.645699],[-72.814188,41.645706],[-72.809612,41.64605],[-72.806424,41.646256],[-72.800128,41.646781],[-72.796388,41.647201],[-72.794642,41.647213],[-72.79304,41.647357],[-72.79116,41.647484],[-72.790973,41.647491],[-72.789623,41.647553],[-72.78852,41.647625],[-72.781528,41.648],[-72.778572,41.648244],[-72.77131,41.648393],[-72.768871,41.648879],[-72.768402,41.648901],[-72.767824,41.648901],[-72.767619,41.648904],[-72.758153,41.649722],[-72.753881,41.649833],[-72.751643,41.650006],[-72.750357,41.650167],[-72.749874,41.646965],[-72.747384,41.647243],[-72.744697,41.647583],[-72.736178,41.648586],[-72.734481,41.64874],[-72.732024,41.648958],[-72.730191,41.649116],[-72.729167,41.649279],[-72.728926,41.64931],[-72.727163,41.649484],[-72.727356,41.652197],[-72.725535,41.652338],[-72.723053,41.65252],[-72.720846,41.652581],[-72.715296,41.652706],[-72.71502,41.648494],[-72.71476,41.646725],[-72.713833,41.636205],[-72.713677,41.634379],[-72.713377,41.633533],[-72.712339,41.630599],[-72.713897,41.627705],[-72.701424,41.629451],[-72.701203,41.629488],[-72.688425,41.631399],[-72.685766,41.631794],[-72.675884,41.633093],[-72.67587,41.633095],[-72.67355,41.633446],[-72.663644,41.634952],[-72.65764,41.635865],[-72.65085,41.636897],[-72.648764,41.637097],[-72.647215,41.637194],[-72.642111,41.637965],[-72.634036,41.639199],[-72.630373,41.639763],[-72.627836,41.640199],[-72.624436,41.645099],[-72.623535,41.650299],[-72.628136,41.661699],[-72.628021,41.666037],[-72.627147,41.665864],[-72.626355,41.666107],[-72.624536,41.668361],[-72.6222,41.669011],[-72.619785,41.669289],[-72.61101,41.671616],[-72.609554,41.672139],[-72.609252,41.671922],[-72.603054,41.673596],[-72.600445,41.673795],[-72.598774,41.674854],[-72.598671,41.675465],[-72.599032,41.679664],[-72.600164,41.682944],[-72.600315,41.683428],[-72.600465,41.683922],[-72.600411,41.684934],[-72.598722,41.686606],[-72.598087,41.687998],[-72.593307,41.687882],[-72.590342,41.6889],[-72.587711,41.686286],[-72.586805,41.686983],[-72.586328,41.689153],[-72.584122,41.689428],[-72.580398,41.689786],[-72.575317,41.689791],[-72.573028,41.691102],[-72.572856,41.693203],[-72.568995,41.694285],[-72.571279,41.695708],[-72.573869,41.697097],[-72.572412,41.697358],[-72.571927,41.698246],[-72.565501,41.699483],[-72.564746,41.700035],[-72.554827,41.697541],[-72.554835,41.697985],[-72.554844,41.698545],[-72.550598,41.700449],[-72.548984,41.700583],[-72.546322,41.700076],[-72.543232,41.700556],[-72.537729,41.700696],[-72.53221,41.701224],[-72.531095,41.701339],[-72.531517,41.703644],[-72.530353,41.705324],[-72.52776,41.709703],[-72.526747,41.712123]]]]}},{"type":"Feature","properties":{"id":2,"NAME":"2","TotalPop":721104,"PopDevPct":-0.00011758,"DemPct":0.5339199,"RepPct":0.44866358,"WhitePct":0.79898647,"MinorityPct":0.20101353,"BlackPct":0.05629306,"HispanicPct":0.07836369,"PacificPct":0.0019074,"AsianPct":0.0454282,"NativePct":0.02085187,"TotalVAP":586662,"Margin":0.0339199,"color":"#7070ff","opacity":"0.5"},"geometry":{"type":"MultiPolygon","coordinates":[[[[-72.08282,41.262027],[-72.081775,41.26224],[-72.050058,41.276614],[-72.019214,41.290594],[-72.016012,41.291438],[-71.999486,41.295794],[-71.979147,41.300032],[-71.939804,41.308229],[-71.929451,41.310387],[-71.907258,41.304483],[-71.901658,41.312683],[-71.900301,41.316046],[-71.893105,41.327373],[-71.892356,41.329218],[-71.892067,41.330075],[-71.889292,41.328975],[-71.882131,41.325673],[-71.875011,41.322117],[-71.866538,41.319185],[-71.859896,41.320358],[-71.857458,41.320789],[-71.851923,41.324664],[-71.847709,41.329604],[-71.844611,41.33073],[-71.83728,41.335068],[-71.829365,41.342432],[-71.829779,41.346229],[-71.831303,41.351295],[-71.836044,41.353988],[-71.836768,41.355103],[-71.837807,41.358994],[-71.837633,41.365499],[-71.835013,41.367647],[-71.832069,41.369863],[-71.831652,41.372226],[-71.832656,41.37585],[-71.831464,41.377654],[-71.831356,41.377752],[-71.830831,41.379137],[-71.831796,41.379866],[-71.833527,41.382264],[-71.832955,41.385257],[-71.832591,41.386385],[-71.83313,41.387839],[-71.835708,41.389852],[-71.838749,41.391054],[-71.840991,41.394024],[-71.841042,41.394089],[-71.842211,41.395771],[-71.842004,41.397496],[-71.841068,41.399658],[-71.841553,41.403046],[-71.843256,41.404461],[-71.843591,41.405331],[-71.842352,41.408084],[-71.842488,41.408714],[-71.842029,41.410706],[-71.839258,41.41239],[-71.835797,41.412232],[-71.834107,41.411582],[-71.830628,41.41318],[-71.827902,41.414334],[-71.825384,41.414687],[-71.824384,41.415461],[-71.823418,41.41747],[-71.82033,41.419382],[-71.816904,41.419927],[-71.8129,41.419404],[-71.8105,41.418521],[-71.806812,41.416673],[-71.803684,41.417428],[-71.801726,41.415658],[-71.799513,41.415838],[-71.797747,41.416834],[-71.797287,41.426399],[-71.79688,41.437294],[-71.796681,41.442202],[-71.796669,41.442494],[-71.796645,41.443086],[-71.796468,41.44735],[-71.796388,41.449255],[-71.795647,41.459984],[-71.795415,41.463938],[-71.794679,41.476855],[-71.79366,41.495921],[-71.79316,41.505704],[-71.792405,41.522251],[-71.792206,41.526783],[-71.791138,41.553021],[-71.790972,41.561451],[-71.790432,41.571986],[-71.789995,41.582071],[-71.789984,41.582331],[-71.789462,41.594328],[-71.789247,41.596847],[-71.789044,41.603521],[-71.788213,41.621017],[-71.787997,41.628915],[-71.787993,41.629059],[-71.787984,41.629347],[-71.787922,41.631616],[-71.787846,41.63445],[-71.787755,41.637098],[-71.787658,41.639918],[-71.787549,41.644216],[-71.787239,41.656111],[-71.787843,41.669817],[-71.788577,41.691526],[-71.788804,41.698336],[-71.789565,41.720552],[-71.789768,41.731556],[-71.790016,41.738876],[-71.790089,41.740991],[-71.790323,41.747792],[-71.790554,41.750117],[-71.791066,41.77018],[-71.791254,41.774497],[-71.79194,41.789614],[-71.791919,41.790715],[-71.792079,41.795076],[-71.792135,41.795624],[-71.792593,41.804016],[-71.792894,41.812521],[-71.793114,41.814658],[-71.793161,41.817169],[-71.793689,41.830686],[-71.794134,41.840008],[-71.794179,41.841639],[-71.794474,41.849159],[-71.794906,41.858805],[-71.794941,41.859475],[-71.795286,41.865713],[-71.795356,41.867126],[-71.795863,41.877688],[-71.796522,41.895288],[-71.796566,41.89714],[-71.796698,41.899921],[-71.796828,41.904446],[-71.797105,41.912231],[-71.797262,41.916247],[-71.797299,41.916891],[-71.797726,41.927446],[-71.797894,41.932364],[-71.798014,41.941627],[-71.798302,41.96058],[-71.798549,41.970427],[-71.798646,41.976912],[-71.798763,41.985147],[-71.799192,42.004051],[-71.799188,42.008053],[-71.799488,42.012378],[-71.799707,42.015593],[-71.800489,42.022053],[-71.800671,42.023514],[-71.802592,42.023535],[-71.830625,42.023835],[-71.832299,42.023852],[-71.833414,42.023865],[-71.837612,42.023908],[-71.839298,42.023927],[-71.841647,42.023943],[-71.842567,42.023955],[-71.845712,42.023994],[-71.853358,42.024073],[-71.860398,42.024146],[-71.860908,42.024154],[-71.865951,42.024205],[-71.871423,42.02426],[-71.877396,42.024322],[-71.88288,42.024376],[-71.883739,42.02439],[-71.884039,42.024395],[-71.888025,42.024435],[-71.90109,42.024562],[-71.903251,42.024584],[-71.920885,42.02507],[-71.928892,42.025287],[-71.937906,42.025536],[-71.939917,42.025584],[-71.944419,42.025715],[-71.946531,42.025772],[-71.954317,42.025984],[-71.958313,42.026092],[-71.958759,42.026105],[-71.96302,42.026221],[-71.971337,42.026446],[-71.987648,42.026883],[-72.010044,42.027087],[-72.028028,42.027244],[-72.034578,42.027304],[-72.044769,42.027395],[-72.052868,42.027467],[-72.059374,42.027522],[-72.071826,42.027637],[-72.10217,42.028869],[-72.126135,42.029837],[-72.135125,42.030198],[-72.136229,42.030242],[-72.136841,42.030267],[-72.143228,42.030522],[-72.144007,42.03053],[-72.144899,42.030538],[-72.145819,42.030547],[-72.148332,42.030569],[-72.150086,42.030586],[-72.174082,42.030805],[-72.198917,42.031022],[-72.205081,42.031069],[-72.212578,42.031114],[-72.226886,42.031261],[-72.241292,42.031374],[-72.278933,42.031684],[-72.291561,42.031786],[-72.299927,42.031852],[-72.30563,42.031898],[-72.321266,42.032022],[-72.321821,42.032027],[-72.338849,42.032161],[-72.353705,42.032558],[-72.355036,42.032572],[-72.365592,42.032682],[-72.389249,42.032926],[-72.391907,42.032954],[-72.397434,42.033069],[-72.418775,42.03351],[-72.435678,42.033858],[-72.441491,42.033981],[-72.460119,42.034357],[-72.469559,42.034318],[-72.479759,42.034269],[-72.492319,42.034215],[-72.509233,42.034376],[-72.508637,42.031135],[-72.506925,42.021853],[-72.506389,42.01894],[-72.505935,42.016478],[-72.50539,42.013567],[-72.503903,42.006475],[-72.50232,41.998039],[-72.499722,41.984223],[-72.499406,41.98159],[-72.499377,41.981447],[-72.498954,41.978285],[-72.498383,41.97517],[-72.496778,41.967234],[-72.492729,41.947497],[-72.50572,41.946372],[-72.51333,41.945401],[-72.51363,41.942997],[-72.51383,41.938171],[-72.513839,41.937741],[-72.514128,41.932564],[-72.514153,41.928072],[-72.514628,41.916631],[-72.514717,41.913807],[-72.515132,41.905984],[-72.515226,41.899467],[-72.515928,41.892422],[-72.516227,41.888142],[-72.516731,41.877997],[-72.516924,41.873639],[-72.51733,41.869897],[-72.51833,41.856899],[-72.515142,41.857461],[-72.509683,41.858305],[-72.501963,41.859452],[-72.49681,41.860616],[-72.497262,41.858759],[-72.498733,41.853329],[-72.499273,41.850273],[-72.501382,41.839197],[-72.50232,41.834745],[-72.502632,41.833589],[-72.503211,41.830868],[-72.503515,41.829328],[-72.503517,41.829316],[-72.503631,41.828743],[-72.503637,41.828715],[-72.503764,41.828073],[-72.503884,41.827467],[-72.504042,41.826658],[-72.504077,41.826484],[-72.504435,41.824674],[-72.505255,41.821308],[-72.505416,41.820391],[-72.50543,41.820298],[-72.50604,41.817252],[-72.506428,41.815506],[-72.506828,41.81321],[-72.507531,41.809698],[-72.502559,41.810176],[-72.497595,41.810755],[-72.491959,41.811353],[-72.487364,41.811751],[-72.485404,41.812233],[-72.483676,41.812416],[-72.476029,41.812997],[-72.475998,41.812777],[-72.474129,41.801972],[-72.47364,41.799141],[-72.473468,41.798264],[-72.473034,41.795326],[-72.472559,41.79244],[-72.472281,41.79096],[-72.471062,41.784371],[-72.470852,41.783133],[-72.470721,41.782139],[-72.470335,41.779834],[-72.46906,41.772798],[-72.468829,41.771659],[-72.468724,41.770475],[-72.468065,41.767133],[-72.467226,41.762877],[-72.46509,41.750025],[-72.464669,41.749006],[-72.463899,41.745572],[-72.474227,41.744492],[-72.489123,41.742998],[-72.50078,41.741877],[-72.503309,41.741207],[-72.505651,41.741227],[-72.510768,41.740437],[-72.516256,41.739824],[-72.517132,41.739935],[-72.518077,41.738153],[-72.5182,41.737387],[-72.517527,41.733298],[-72.517814,41.730316],[-72.522427,41.729629],[-72.523581,41.728898],[-72.522672,41.727631],[-72.524021,41.725774],[-72.523772,41.723841],[-72.524159,41.721885],[-72.524327,41.721255],[-72.526165,41.721066],[-72.526882,41.718982],[-72.526525,41.718277],[-72.525782,41.717107],[-72.525556,41.715751],[-72.526546,41.714174],[-72.526747,41.712123],[-72.52776,41.709703],[-72.530353,41.705324],[-72.531517,41.703644],[-72.531095,41.701339],[-72.53221,41.701224],[-72.537729,41.700696],[-72.543232,41.700556],[-72.546322,41.700076],[-72.548984,41.700583],[-72.550598,41.700449],[-72.554844,41.698545],[-72.554835,41.697985],[-72.554827,41.697541],[-72.564746,41.700035],[-72.565501,41.699483],[-72.571927,41.698246],[-72.572412,41.697358],[-72.573869,41.697097],[-72.571279,41.695708],[-72.568995,41.694285],[-72.572856,41.693203],[-72.573028,41.691102],[-72.575317,41.689791],[-72.580398,41.689786],[-72.584122,41.689428],[-72.586328,41.689153],[-72.586805,41.686983],[-72.587711,41.686286],[-72.590342,41.6889],[-72.593307,41.687882],[-72.598087,41.687998],[-72.598722,41.686606],[-72.600411,41.684934],[-72.600465,41.683922],[-72.600315,41.683428],[-72.600164,41.682944],[-72.599032,41.679664],[-72.598671,41.675465],[-72.598774,41.674854],[-72.600445,41.673795],[-72.603054,41.673596],[-72.609252,41.671922],[-72.609554,41.672139],[-72.61101,41.671616],[-72.619785,41.669289],[-72.6222,41.669011],[-72.624536,41.668361],[-72.626355,41.666107],[-72.627147,41.665864],[-72.628021,41.666037],[-72.628136,41.661699],[-72.623535,41.650299],[-72.624436,41.645099],[-72.627836,41.640199],[-72.630373,41.639763],[-72.634036,41.639199],[-72.642111,41.637965],[-72.647215,41.637194],[-72.648764,41.637097],[-72.65085,41.636897],[-72.65764,41.635865],[-72.663644,41.634952],[-72.67355,41.633446],[-72.67587,41.633095],[-72.675884,41.633093],[-72.685766,41.631794],[-72.688425,41.631399],[-72.701203,41.629488],[-72.701424,41.629451],[-72.713897,41.627705],[-72.7155,41.625573],[-72.715706,41.625353],[-72.715527,41.622821],[-72.713287,41.620839],[-72.712844,41.618927],[-72.711134,41.618036],[-72.71181,41.617196],[-72.712567,41.616684],[-72.712767,41.614064],[-72.713644,41.610736],[-72.7151,41.608074],[-72.715769,41.607014],[-72.715608,41.605671],[-72.714538,41.60431],[-72.720196,41.60353],[-72.720984,41.603419],[-72.723032,41.603135],[-72.723352,41.60309],[-72.723679,41.603045],[-72.723941,41.603003],[-72.724146,41.602957],[-72.724177,41.602952],[-72.727041,41.602398],[-72.727175,41.601994],[-72.72994,41.601498],[-72.73167,41.595803],[-72.731671,41.595779],[-72.73448,41.595406],[-72.739077,41.594794],[-72.74284,41.594398],[-72.752941,41.592497],[-72.752181,41.578894],[-72.750864,41.564441],[-72.75024,41.559177],[-72.749348,41.549757],[-72.74917,41.547055],[-72.748991,41.546308],[-72.748931,41.545673],[-72.748878,41.544279],[-72.747242,41.528659],[-72.7472,41.528072],[-72.747116,41.527719],[-72.747056,41.527289],[-72.746502,41.520681],[-72.746038,41.513555],[-72.74566,41.508922],[-72.74478,41.498183],[-72.74333,41.483114],[-72.733886,41.485368],[-72.735399,41.473564],[-72.735437,41.473273],[-72.73585,41.470072],[-72.736074,41.46833],[-72.736568,41.464483],[-72.738528,41.44617],[-72.73912,41.438294],[-72.740259,41.436442],[-72.74033,41.436229],[-72.746141,41.423297],[-72.744736,41.423578],[-72.73801,41.424669],[-72.735,41.425188],[-72.730471,41.425928],[-72.72064,41.427397],[-72.71042,41.429073],[-72.708343,41.429443],[-72.705525,41.43008],[-72.692795,41.432257],[-72.691558,41.432437],[-72.690555,41.432569],[-72.682666,41.433776],[-72.678739,41.433797],[-72.672478,41.435078],[-72.668401,41.435514],[-72.667918,41.435573],[-72.666833,41.435694],[-72.654193,41.438256],[-72.653672,41.438125],[-72.654563,41.43626],[-72.652215,41.434528],[-72.650908,41.435031],[-72.64929,41.435612],[-72.648363,41.435148],[-72.648431,41.434199],[-72.649504,41.430924],[-72.646843,41.431153],[-72.644458,41.43051],[-72.642351,41.429323],[-72.64448,41.42678],[-72.648789,41.421998],[-72.650482,41.419119],[-72.649214,41.417345],[-72.647406,41.416962],[-72.646875,41.415744],[-72.645073,41.415802],[-72.641634,41.413736],[-72.637801,41.41232],[-72.636983,41.412735],[-72.634243,41.412197],[-72.632877,41.4125],[-72.631656,41.411167],[-72.632516,41.41045],[-72.632269,41.408122],[-72.630587,41.406943],[-72.63083,41.403589],[-72.629017,41.401232],[-72.62608,41.400059],[-72.625027,41.399092],[-72.625909,41.397165],[-72.624392,41.396016],[-72.623887,41.39502],[-72.622706,41.394631],[-72.622458,41.393594],[-72.621277,41.393435],[-72.620022,41.392247],[-72.61801,41.391656],[-72.61771,41.390744],[-72.616332,41.38968],[-72.616032,41.388742],[-72.612328,41.386179],[-72.613837,41.384398],[-72.614006,41.38078],[-72.612616,41.377994],[-72.611423,41.377296],[-72.611524,41.3765],[-72.60884,41.373513],[-72.608743,41.371125],[-72.609241,41.370529],[-72.608132,41.367404],[-72.61014,41.367148],[-72.610538,41.366253],[-72.609346,41.365357],[-72.609746,41.363368],[-72.612233,41.362674],[-72.612634,41.360485],[-72.612527,41.358155],[-72.612563,41.357205],[-72.612655,41.353834],[-72.611605,41.352327],[-72.611699,41.351262],[-72.612834,41.350219],[-72.611836,41.349006],[-72.61139,41.347096],[-72.611213,41.343233],[-72.612705,41.342414],[-72.612689,41.340866],[-72.61346,41.339653],[-72.614405,41.337002],[-72.613604,41.336223],[-72.614112,41.334274],[-72.614963,41.333588],[-72.614145,41.329483],[-72.612077,41.32922],[-72.611518,41.327506],[-72.608399,41.328181],[-72.605226,41.327609],[-72.60251,41.325977],[-72.600567,41.325837],[-72.599513,41.327263],[-72.597136,41.328545],[-72.595708,41.328035],[-72.59479,41.326125],[-72.592866,41.324065],[-72.591804,41.322778],[-72.589445,41.322663],[-72.587341,41.324326],[-72.586344,41.324244],[-72.585768,41.322976],[-72.585957,41.321802],[-72.585337,41.320551],[-72.585318,41.318618],[-72.587809,41.316045],[-72.5889,41.316262],[-72.589415,41.315133],[-72.587062,41.313706],[-72.585445,41.314239],[-72.585206,41.314232],[-72.584903,41.313955],[-72.584616,41.31321],[-72.584885,41.312934],[-72.586565,41.312936],[-72.587528,41.312482],[-72.587859,41.311983],[-72.58837,41.311881],[-72.588574,41.3117],[-72.588207,41.311467],[-72.586895,41.311032],[-72.585801,41.310106],[-72.585657,41.309852],[-72.585625,41.309662],[-72.585768,41.309495],[-72.586157,41.309151],[-72.585555,41.308348],[-72.585643,41.307653],[-72.585599,41.307348],[-72.585181,41.307099],[-72.584642,41.306863],[-72.584264,41.306753],[-72.584038,41.306742],[-72.583536,41.306539],[-72.583157,41.306462],[-72.582502,41.306386],[-72.581287,41.305511],[-72.581123,41.304932],[-72.581802,41.304218],[-72.581822,41.303902],[-72.581498,41.303884],[-72.579875,41.304002],[-72.578616,41.303673],[-72.577627,41.303313],[-72.57726,41.303084],[-72.57634,41.302425],[-72.576286,41.302216],[-72.57635,41.301966],[-72.576291,41.301663],[-72.576086,41.301121],[-72.575953,41.300921],[-72.575568,41.300669],[-72.57454,41.300041],[-72.574189,41.2998],[-72.573685,41.299389],[-72.573448,41.299175],[-72.572739,41.298798],[-72.572594,41.298702],[-72.571963,41.298413],[-72.57135,41.298206],[-72.570702,41.298004],[-72.570946,41.297768],[-72.571747,41.297672],[-72.571739,41.297565],[-72.569977,41.296646],[-72.570808,41.295776],[-72.570636,41.295381],[-72.570146,41.294419],[-72.569349,41.294318],[-72.569013,41.294381],[-72.568764,41.294376],[-72.567559,41.294174],[-72.567421,41.2939],[-72.567078,41.293087],[-72.565628,41.292393],[-72.565369,41.291882],[-72.565315,41.29147],[-72.564813,41.290539],[-72.564528,41.289997],[-72.564556,41.28986],[-72.564628,41.289519],[-72.564301,41.288991],[-72.563977,41.288965],[-72.563934,41.288698],[-72.562709,41.288424],[-72.561132,41.2875],[-72.559286,41.285098],[-72.559045,41.284664],[-72.5586,41.284379],[-72.557434,41.283695],[-72.557358,41.283251],[-72.557352,41.282989],[-72.557236,41.281992],[-72.556228,41.281403],[-72.555435,41.280788],[-72.555028,41.280608],[-72.554894,41.280587],[-72.551128,41.280583],[-72.54917,41.281713],[-72.548894,41.281855],[-72.548873,41.281892],[-72.548056,41.281452],[-72.547344,41.281067],[-72.545986,41.280335],[-72.546088,41.280184],[-72.546103,41.28002],[-72.546197,41.27986],[-72.546336,41.279564],[-72.546496,41.279388],[-72.546805,41.278993],[-72.548046,41.277415],[-72.547687,41.277126],[-72.546609,41.276263],[-72.546253,41.275977],[-72.545782,41.275855],[-72.545143,41.275476],[-72.544744,41.274683],[-72.544339,41.273697],[-72.544929,41.273404],[-72.545001,41.273353],[-72.545721,41.272622],[-72.546486,41.272123],[-72.547035,41.2716],[-72.546761,41.269923],[-72.546531,41.269506],[-72.546549,41.269153],[-72.54655,41.268834],[-72.54636,41.267398],[-72.547655,41.264323],[-72.547235,41.262499],[-72.545837,41.260304],[-72.545734,41.260238],[-72.535942,41.254592],[-72.532709,41.252791],[-72.532652,41.252759],[-72.532483,41.252665],[-72.532427,41.252634],[-72.532281,41.252552],[-72.527902,41.250115],[-72.527901,41.177774],[-72.469464,41.188848],[-72.421688,41.197903],[-72.396529,41.202671],[-72.331453,41.215004],[-72.248529,41.230711],[-72.220393,41.235808],[-72.184863,41.242245],[-72.141534,41.250098],[-72.08282,41.262027]]]]}},{"type":"Feature","properties":{"id":3,"NAME":"3","TotalPop":720793,"PopDevPct":-0.00054882,"DemPct":0.57950906,"RepPct":0.40034304,"WhitePct":0.59795981,"MinorityPct":0.40204019,"BlackPct":0.16378199,"HispanicPct":0.18213815,"PacificPct":0.00165816,"AsianPct":0.05296713,"NativePct":0.01615572,"TotalVAP":575338,"Margin":0.07950906,"color":"#2020ff","opacity":"0.5"},"geometry":{"type":"MultiPolygon","coordinates":[[[[-72.827828,41.120318],[-72.795024,41.126634],[-72.749393,41.135305],[-72.735817,41.137911],[-72.647478,41.154854],[-72.575225,41.168703],[-72.527901,41.177774],[-72.527902,41.250115],[-72.532281,41.252552],[-72.532427,41.252634],[-72.532483,41.252665],[-72.532652,41.252759],[-72.532709,41.252791],[-72.535942,41.254592],[-72.545734,41.260238],[-72.545837,41.260304],[-72.547235,41.262499],[-72.547655,41.264323],[-72.54636,41.267398],[-72.54655,41.268834],[-72.546549,41.269153],[-72.546531,41.269506],[-72.546761,41.269923],[-72.547035,41.2716],[-72.546486,41.272123],[-72.545721,41.272622],[-72.545001,41.273353],[-72.544929,41.273404],[-72.544339,41.273697],[-72.544744,41.274683],[-72.545143,41.275476],[-72.545782,41.275855],[-72.546253,41.275977],[-72.546609,41.276263],[-72.547687,41.277126],[-72.548046,41.277415],[-72.546805,41.278993],[-72.546496,41.279388],[-72.546336,41.279564],[-72.546197,41.27986],[-72.546103,41.28002],[-72.546088,41.280184],[-72.545986,41.280335],[-72.547344,41.281067],[-72.548056,41.281452],[-72.548873,41.281892],[-72.548894,41.281855],[-72.54917,41.281713],[-72.551128,41.280583],[-72.554894,41.280587],[-72.555028,41.280608],[-72.555435,41.280788],[-72.556228,41.281403],[-72.557236,41.281992],[-72.557352,41.282989],[-72.557358,41.283251],[-72.557434,41.283695],[-72.5586,41.284379],[-72.559045,41.284664],[-72.559286,41.285098],[-72.561132,41.2875],[-72.562709,41.288424],[-72.563934,41.288698],[-72.563977,41.288965],[-72.564301,41.288991],[-72.564628,41.289519],[-72.564556,41.28986],[-72.564528,41.289997],[-72.564813,41.290539],[-72.565315,41.29147],[-72.565369,41.291882],[-72.565628,41.292393],[-72.567078,41.293087],[-72.567421,41.2939],[-72.567559,41.294174],[-72.568764,41.294376],[-72.569013,41.294381],[-72.569349,41.294318],[-72.570146,41.294419],[-72.570636,41.295381],[-72.570808,41.295776],[-72.569977,41.296646],[-72.571739,41.297565],[-72.571747,41.297672],[-72.570946,41.297768],[-72.570702,41.298004],[-72.57135,41.298206],[-72.571963,41.298413],[-72.572594,41.298702],[-72.572739,41.298798],[-72.573448,41.299175],[-72.573685,41.299389],[-72.574189,41.2998],[-72.57454,41.300041],[-72.575568,41.300669],[-72.575953,41.300921],[-72.576086,41.301121],[-72.576291,41.301663],[-72.57635,41.301966],[-72.576286,41.302216],[-72.57634,41.302425],[-72.57726,41.303084],[-72.577627,41.303313],[-72.578616,41.303673],[-72.579875,41.304002],[-72.581498,41.303884],[-72.581822,41.303902],[-72.581802,41.304218],[-72.581123,41.304932],[-72.581287,41.305511],[-72.582502,41.306386],[-72.583157,41.306462],[-72.583536,41.306539],[-72.584038,41.306742],[-72.584264,41.306753],[-72.584642,41.306863],[-72.585181,41.307099],[-72.585599,41.307348],[-72.585643,41.307653],[-72.585555,41.308348],[-72.586157,41.309151],[-72.585768,41.309495],[-72.585625,41.309662],[-72.585657,41.309852],[-72.585801,41.310106],[-72.586895,41.311032],[-72.588207,41.311467],[-72.588574,41.3117],[-72.58837,41.311881],[-72.587859,41.311983],[-72.587528,41.312482],[-72.586565,41.312936],[-72.584885,41.312934],[-72.584616,41.31321],[-72.584903,41.313955],[-72.585206,41.314232],[-72.585445,41.314239],[-72.587062,41.313706],[-72.589415,41.315133],[-72.5889,41.316262],[-72.587809,41.316045],[-72.585318,41.318618],[-72.585337,41.320551],[-72.585957,41.321802],[-72.585768,41.322976],[-72.586344,41.324244],[-72.587341,41.324326],[-72.589445,41.322663],[-72.591804,41.322778],[-72.592866,41.324065],[-72.59479,41.326125],[-72.595708,41.328035],[-72.597136,41.328545],[-72.599513,41.327263],[-72.600567,41.325837],[-72.60251,41.325977],[-72.605226,41.327609],[-72.608399,41.328181],[-72.611518,41.327506],[-72.612077,41.32922],[-72.614145,41.329483],[-72.614963,41.333588],[-72.614112,41.334274],[-72.613604,41.336223],[-72.614405,41.337002],[-72.61346,41.339653],[-72.612689,41.340866],[-72.612705,41.342414],[-72.611213,41.343233],[-72.61139,41.347096],[-72.611836,41.349006],[-72.612834,41.350219],[-72.611699,41.351262],[-72.611605,41.352327],[-72.612655,41.353834],[-72.612563,41.357205],[-72.612527,41.358155],[-72.612634,41.360485],[-72.612233,41.362674],[-72.609746,41.363368],[-72.609346,41.365357],[-72.610538,41.366253],[-72.61014,41.367148],[-72.608132,41.367404],[-72.609241,41.370529],[-72.608743,41.371125],[-72.60884,41.373513],[-72.611524,41.3765],[-72.611423,41.377296],[-72.612616,41.377994],[-72.614006,41.38078],[-72.613837,41.384398],[-72.612328,41.386179],[-72.616032,41.388742],[-72.616332,41.38968],[-72.61771,41.390744],[-72.61801,41.391656],[-72.620022,41.392247],[-72.621277,41.393435],[-72.622458,41.393594],[-72.622706,41.394631],[-72.623887,41.39502],[-72.624392,41.396016],[-72.625909,41.397165],[-72.625027,41.399092],[-72.62608,41.400059],[-72.629017,41.401232],[-72.63083,41.403589],[-72.630587,41.406943],[-72.632269,41.408122],[-72.632516,41.41045],[-72.631656,41.411167],[-72.632877,41.4125],[-72.634243,41.412197],[-72.636983,41.412735],[-72.637801,41.41232],[-72.641634,41.413736],[-72.645073,41.415802],[-72.646875,41.415744],[-72.647406,41.416962],[-72.649214,41.417345],[-72.650482,41.419119],[-72.648789,41.421998],[-72.64448,41.42678],[-72.642351,41.429323],[-72.644458,41.43051],[-72.646843,41.431153],[-72.649504,41.430924],[-72.648431,41.434199],[-72.648363,41.435148],[-72.64929,41.435612],[-72.650908,41.435031],[-72.652215,41.434528],[-72.654563,41.43626],[-72.653672,41.438125],[-72.654193,41.438256],[-72.666833,41.435694],[-72.667918,41.435573],[-72.668401,41.435514],[-72.672478,41.435078],[-72.678739,41.433797],[-72.682666,41.433776],[-72.690555,41.432569],[-72.691558,41.432437],[-72.692795,41.432257],[-72.705525,41.43008],[-72.708343,41.429443],[-72.71042,41.429073],[-72.72064,41.427397],[-72.730471,41.425928],[-72.735,41.425188],[-72.73801,41.424669],[-72.744736,41.423578],[-72.746141,41.423297],[-72.74033,41.436229],[-72.740259,41.436442],[-72.73912,41.438294],[-72.738528,41.44617],[-72.736568,41.464483],[-72.736074,41.46833],[-72.73585,41.470072],[-72.735437,41.473273],[-72.735399,41.473564],[-72.733886,41.485368],[-72.74333,41.483114],[-72.74478,41.498183],[-72.74566,41.508922],[-72.746038,41.513555],[-72.746502,41.520681],[-72.747056,41.527289],[-72.747116,41.527719],[-72.7472,41.528072],[-72.747242,41.528659],[-72.748878,41.544279],[-72.748931,41.545673],[-72.748991,41.546308],[-72.74917,41.547055],[-72.749348,41.549757],[-72.75024,41.559177],[-72.750864,41.564441],[-72.752181,41.578894],[-72.767821,41.577339],[-72.768079,41.577313],[-72.768871,41.577235],[-72.771029,41.576931],[-72.772209,41.576846],[-72.77246,41.576828],[-72.775638,41.576446],[-72.775814,41.576425],[-72.776042,41.576398],[-72.776348,41.576358],[-72.776526,41.576335],[-72.779343,41.57598],[-72.779721,41.575936],[-72.801243,41.573098],[-72.805243,41.566598],[-72.809243,41.561997],[-72.80996,41.562284],[-72.810242,41.562397],[-72.819145,41.554298],[-72.821243,41.554195],[-72.826141,41.555897],[-72.825743,41.564298],[-72.829644,41.562397],[-72.827898,41.570153],[-72.827644,41.570999],[-72.828594,41.570791],[-72.840244,41.569098],[-72.848541,41.567329],[-72.846005,41.55485],[-72.845986,41.554694],[-72.845922,41.554309],[-72.845731,41.553346],[-72.845612,41.551938],[-72.845295,41.548528],[-72.845111,41.547312],[-72.844973,41.546966],[-72.844806,41.546549],[-72.84428,41.544725],[-72.845554,41.544992],[-72.846988,41.545237],[-72.84944,41.545616],[-72.850293,41.54581],[-72.852707,41.546291],[-72.85329,41.546664],[-72.854669,41.546527],[-72.855792,41.546792],[-72.858121,41.547342],[-72.859753,41.547727],[-72.86031,41.547749],[-72.860488,41.547756],[-72.862537,41.547841],[-72.864697,41.548305],[-72.865588,41.548443],[-72.867806,41.54898],[-72.867999,41.55083],[-72.868227,41.552236],[-72.869514,41.554531],[-72.871916,41.554873],[-72.871876,41.555272],[-72.871857,41.555569],[-72.871823,41.556761],[-72.873306,41.556486],[-72.874112,41.558266],[-72.873956,41.559154],[-72.876233,41.560385],[-72.879748,41.562454],[-72.879256,41.563152],[-72.879745,41.563198],[-72.880873,41.563345],[-72.882693,41.563607],[-72.883057,41.563667],[-72.883885,41.563812],[-72.890074,41.563204],[-72.89203,41.563026],[-72.901408,41.562012],[-72.903213,41.561747],[-72.90347,41.561708],[-72.910065,41.56101],[-72.917139,41.560099],[-72.917806,41.560039],[-72.926399,41.558919],[-72.928538,41.558891],[-72.94635,41.556797],[-72.952506,41.555892],[-72.955167,41.555487],[-72.956788,41.555295],[-72.956906,41.555279],[-72.958519,41.55509],[-72.959146,41.555021],[-72.960199,41.554916],[-72.960779,41.55484],[-72.961883,41.554728],[-72.964216,41.554429],[-72.969369,41.553803],[-72.969907,41.553809],[-72.974435,41.553705],[-72.974514,41.553696],[-72.975285,41.553609],[-72.979853,41.553349],[-72.981057,41.554406],[-72.982439,41.555619],[-72.982613,41.555963],[-72.985168,41.558131],[-72.991587,41.564319],[-72.992208,41.564892],[-72.992797,41.565439],[-72.994386,41.566905],[-72.996753,41.56906],[-72.998278,41.570644],[-72.99873,41.57101],[-73.001734,41.573939],[-73.001868,41.574089],[-73.002465,41.574303],[-73.003675,41.575512],[-73.003859,41.575695],[-73.012049,41.583778],[-73.013214,41.588686],[-73.014931,41.596304],[-73.015071,41.597244],[-73.015751,41.600391],[-73.016114,41.601998],[-73.016985,41.606122],[-73.017443,41.609813],[-73.01865,41.614097],[-73.034777,41.615134],[-73.036156,41.615197],[-73.050362,41.609748],[-73.058024,41.60674],[-73.059469,41.606179],[-73.059097,41.602243],[-73.059176,41.602566],[-73.0607,41.600811],[-73.060244,41.597368],[-73.06015,41.593484],[-73.059458,41.591605],[-73.05752,41.589228],[-73.05801,41.588647],[-73.058389,41.588625],[-73.061132,41.588536],[-73.064209,41.588491],[-73.069844,41.588112],[-73.074402,41.587749],[-73.077593,41.587499],[-73.077934,41.586719],[-73.078003,41.586571],[-73.078203,41.586145],[-73.078261,41.586166],[-73.080401,41.586711],[-73.082984,41.585565],[-73.083374,41.584905],[-73.085145,41.582108],[-73.085886,41.581041],[-73.085939,41.580952],[-73.086099,41.580684],[-73.086153,41.580596],[-73.086183,41.580563],[-73.086277,41.580464],[-73.086308,41.580432],[-73.086755,41.579592],[-73.087253,41.578796],[-73.087772,41.577959],[-73.088207,41.577107],[-73.088674,41.576327],[-73.089113,41.575654],[-73.089406,41.575211],[-73.092353,41.570496],[-73.093853,41.570196],[-73.093169,41.565842],[-73.091269,41.555744],[-73.090377,41.551475],[-73.090141,41.550467],[-73.089816,41.549062],[-73.089735,41.547773],[-73.089047,41.545376],[-73.088996,41.545121],[-73.088845,41.544356],[-73.088795,41.544102],[-73.088746,41.543931],[-73.088599,41.543418],[-73.08855,41.543247],[-73.088382,41.54242],[-73.088159,41.541199],[-73.087561,41.539116],[-73.087072,41.538072],[-73.086832,41.537205],[-73.086556,41.536595],[-73.086324,41.536177],[-73.084718,41.533278],[-73.083727,41.531487],[-73.080485,41.526407],[-73.077884,41.523527],[-73.076854,41.522714],[-73.072266,41.5183],[-73.070164,41.514363],[-73.070114,41.514301],[-73.069892,41.514292],[-73.066508,41.51422],[-73.059318,41.514524],[-73.055016,41.514657],[-73.05475,41.514636],[-73.054191,41.514758],[-73.05376,41.514764],[-73.052934,41.514892],[-73.051591,41.514996],[-73.049545,41.515178],[-73.049465,41.515184],[-73.049366,41.515192],[-73.047552,41.515204],[-73.039504,41.516586],[-73.029999,41.51771],[-73.027925,41.517923],[-73.022453,41.519001],[-73.020356,41.519417],[-73.019201,41.519409],[-73.018419,41.519789],[-73.01817,41.519834],[-73.015127,41.520825],[-73.01131,41.522156],[-73.005085,41.523693],[-73.003832,41.524233],[-73.00215,41.524754],[-73.002141,41.524641],[-73.002375,41.520334],[-73.001691,41.516867],[-72.999923,41.514527],[-72.999085,41.514141],[-72.994946,41.513507],[-72.993904,41.513048],[-72.992704,41.511799],[-72.992197,41.510541],[-72.991542,41.508692],[-72.99062,41.506501],[-72.988319,41.505267],[-72.982873,41.503787],[-72.983453,41.502678],[-72.984277,41.500825],[-72.98637,41.496648],[-72.988506,41.4923],[-72.989312,41.49075],[-72.992183,41.485406],[-72.993667,41.48241],[-72.997032,41.47629],[-72.998709,41.473887],[-73.00226,41.472705],[-73.001811,41.471159],[-73.003503,41.467092],[-73.004229,41.462557],[-73.025326,41.459654],[-73.025751,41.459596],[-73.02561,41.458087],[-73.02497,41.451232],[-73.024952,41.450094],[-73.025022,41.437336],[-73.02522,41.434567],[-73.029459,41.419492],[-73.036483,41.420215],[-73.041651,41.420896],[-73.046409,41.401691],[-73.047543,41.395834],[-73.047608,41.395611],[-73.0483,41.390459],[-73.048885,41.383888],[-73.04907,41.381053],[-73.047162,41.360531],[-73.046445,41.352086],[-73.046334,41.346078],[-73.043718,41.34232],[-73.043843,41.341577],[-73.042788,41.338759],[-73.041881,41.337578],[-73.041193,41.335632],[-73.041072,41.335293],[-73.039981,41.332357],[-73.038934,41.32801],[-73.039141,41.326654],[-73.040529,41.317182],[-73.040707,41.313891],[-73.044164,41.312944],[-73.047358,41.311766],[-73.04911,41.3113],[-73.050168,41.311282],[-73.05315,41.311351],[-73.054627,41.311568],[-73.056149,41.311974],[-73.056701,41.312168],[-73.058984,41.311627],[-73.061255,41.310444],[-73.065027,41.306127],[-73.065454,41.304835],[-73.067204,41.301674],[-73.067436,41.301407],[-73.067851,41.300996],[-73.066151,41.299496],[-73.065051,41.297596],[-73.065251,41.294896],[-73.068751,41.289196],[-73.071251,41.287296],[-73.075451,41.285749],[-73.078852,41.284496],[-73.08153,41.282856],[-73.083752,41.281496],[-73.086852,41.276596],[-73.088682,41.271737],[-73.087752,41.265296],[-73.087852,41.260096],[-73.086752,41.254596],[-73.08735,41.251792],[-73.091215,41.246411],[-73.091414,41.246262],[-73.093402,41.244617],[-73.101573,41.240088],[-73.104952,41.236595],[-73.107553,41.232496],[-73.109953,41.229396],[-73.110553,41.227396],[-73.110453,41.225296],[-73.109353,41.221096],[-73.108353,41.218296],[-73.110253,41.213996],[-73.11034,41.213294],[-73.110653,41.210796],[-73.110653,41.207797],[-73.109553,41.205297],[-73.109476,41.204914],[-73.109453,41.204797],[-73.109653,41.201997],[-73.110572,41.20027],[-73.113077,41.19672],[-73.116233,41.192586],[-73.118253,41.190497],[-73.120753,41.188497],[-73.121366,41.187444],[-73.121953,41.185097],[-73.122453,41.182897],[-73.122353,41.179797],[-73.121997,41.178927],[-73.121453,41.177597],[-73.119853,41.175697],[-73.117953,41.174497],[-73.116053,41.173697],[-73.112152,41.171397],[-73.107779,41.168605],[-73.107452,41.168397],[-73.101367,41.16387],[-73.093313,41.157877],[-73.048886,41.125097],[-73.038515,41.117112],[-73.027048,41.108283],[-72.999547,41.087108],[-72.92408,41.101703],[-72.882601,41.109725],[-72.862708,41.113572],[-72.827828,41.120318]]],[[[-73.007621,41.486148],[-73.007544,41.485694],[-73.007316,41.484332],[-73.007305,41.484264],[-73.007075,41.483948],[-73.007109,41.484239],[-73.00707,41.484356],[-73.007011,41.484509],[-73.006996,41.484718],[-73.007238,41.485479],[-73.00732,41.485752],[-73.007442,41.485941],[-73.007621,41.486148]]]]}},{"type":"Feature","properties":{"id":4,"NAME":"4","TotalPop":720303,"PopDevPct":-0.00122825,"DemPct":0.61715112,"RepPct":0.3672907,"WhitePct":0.57409559,"MinorityPct":0.42590441,"BlackPct":0.14709205,"HispanicPct":0.20835237,"PacificPct":0.00137077,"AsianPct":0.06083758,"NativePct":0.01260141,"TotalVAP":555890,"Margin":0.11715112,"color":"#00008b","opacity":"0.5"},"geometry":{"type":"MultiPolygon","coordinates":[[[[-73.291406,41.01788],[-73.275392,41.02112],[-73.249557,41.025866],[-73.241353,41.027767],[-73.231797,41.030083],[-73.229104,41.030604],[-73.221524,41.032506],[-73.183476,41.042052],[-73.17483,41.044169],[-73.11821,41.058039],[-73.0652,41.071025],[-72.999547,41.087108],[-73.027048,41.108283],[-73.038515,41.117112],[-73.048886,41.125097],[-73.093313,41.157877],[-73.101367,41.16387],[-73.107452,41.168397],[-73.107779,41.168605],[-73.112152,41.171397],[-73.116053,41.173697],[-73.117953,41.174497],[-73.119853,41.175697],[-73.121453,41.177597],[-73.121997,41.178927],[-73.122353,41.179797],[-73.122453,41.182897],[-73.121953,41.185097],[-73.121366,41.187444],[-73.120753,41.188497],[-73.118253,41.190497],[-73.116233,41.192586],[-73.113077,41.19672],[-73.110572,41.20027],[-73.109653,41.201997],[-73.109453,41.204797],[-73.109476,41.204914],[-73.109553,41.205297],[-73.110653,41.207797],[-73.110653,41.210796],[-73.11034,41.213294],[-73.110253,41.213996],[-73.108353,41.218296],[-73.109353,41.221096],[-73.110453,41.225296],[-73.110553,41.227396],[-73.109953,41.229396],[-73.107553,41.232496],[-73.104952,41.236595],[-73.101573,41.240088],[-73.093402,41.244617],[-73.091414,41.246262],[-73.091215,41.246411],[-73.08735,41.251792],[-73.086752,41.254596],[-73.088752,41.255396],[-73.090872,41.257082],[-73.094558,41.256214],[-73.095265,41.258052],[-73.096976,41.258788],[-73.097723,41.259078],[-73.098359,41.25928],[-73.103117,41.259775],[-73.102952,41.261643],[-73.104616,41.263556],[-73.106851,41.263878],[-73.107228,41.264972],[-73.106049,41.26705],[-73.108295,41.268582],[-73.112751,41.267288],[-73.113576,41.266824],[-73.120241,41.264679],[-73.124388,41.26337],[-73.1314,41.261019],[-73.14192,41.257692],[-73.14355,41.257215],[-73.146009,41.255807],[-73.146882,41.255367],[-73.147367,41.256222],[-73.148713,41.258347],[-73.149273,41.259376],[-73.150791,41.261578],[-73.155266,41.269087],[-73.155573,41.269096],[-73.157722,41.269057],[-73.160786,41.26894],[-73.164912,41.268795],[-73.170017,41.268681],[-73.173596,41.268606],[-73.174294,41.269029],[-73.177175,41.271487],[-73.178639,41.272636],[-73.179032,41.273731],[-73.1806,41.275419],[-73.182265,41.277063],[-73.186328,41.280937],[-73.187763,41.282269],[-73.188167,41.283091],[-73.190988,41.285799],[-73.198299,41.293093],[-73.198592,41.293379],[-73.200693,41.294719],[-73.202888,41.297335],[-73.2048,41.29936],[-73.20336,41.301292],[-73.201172,41.30429],[-73.198975,41.307469],[-73.195116,41.312688],[-73.195014,41.31282],[-73.193332,41.314861],[-73.189779,41.319581],[-73.189299,41.320431],[-73.188163,41.321934],[-73.184718,41.326495],[-73.180615,41.332973],[-73.179483,41.334231],[-73.178877,41.334744],[-73.176814,41.337587],[-73.173358,41.348882],[-73.171147,41.356192],[-73.170657,41.357934],[-73.17058,41.357898],[-73.159442,41.372914],[-73.15965,41.374905],[-73.158011,41.376245],[-73.157168,41.376671],[-73.157055,41.376696],[-73.157923,41.377223],[-73.158832,41.379684],[-73.157977,41.382959],[-73.158656,41.383396],[-73.161253,41.383853],[-73.166556,41.383196],[-73.166565,41.383356],[-73.171339,41.383935],[-73.171588,41.383887],[-73.173356,41.383596],[-73.181168,41.389611],[-73.183269,41.391711],[-73.187117,41.389118],[-73.188963,41.388532],[-73.190426,41.388258],[-73.191748,41.388934],[-73.194378,41.388752],[-73.195933,41.38747],[-73.196408,41.385107],[-73.197829,41.382812],[-73.201075,41.38102],[-73.203578,41.379162],[-73.203391,41.378251],[-73.202294,41.378005],[-73.202029,41.375179],[-73.201311,41.373941],[-73.202369,41.371978],[-73.204828,41.370475],[-73.206614,41.370166],[-73.207772,41.369294],[-73.211199,41.367721],[-73.213294,41.367919],[-73.215104,41.36728],[-73.215127,41.36666],[-73.21903,41.364495],[-73.221158,41.364002],[-73.223326,41.36422],[-73.225336,41.365342],[-73.228031,41.36513],[-73.228497,41.365637],[-73.229378,41.366439],[-73.229198,41.368197],[-73.228449,41.368367],[-73.228401,41.368394],[-73.228333,41.368483],[-73.228234,41.368531],[-73.22818,41.368594],[-73.228108,41.368673],[-73.228108,41.368693],[-73.228136,41.368703],[-73.228209,41.368712],[-73.228239,41.368718],[-73.228258,41.368736],[-73.228243,41.368762],[-73.228117,41.368813],[-73.228107,41.368827],[-73.228102,41.368839],[-73.228104,41.368849],[-73.228126,41.368878],[-73.228156,41.368896],[-73.228179,41.368902],[-73.228293,41.368908],[-73.228357,41.368916],[-73.228362,41.368951],[-73.228358,41.368976],[-73.228341,41.369019],[-73.22831,41.369064],[-73.228299,41.369093],[-73.228304,41.369111],[-73.228449,41.369293],[-73.228534,41.369382],[-73.228564,41.369473],[-73.228579,41.369548],[-73.228643,41.369719],[-73.228656,41.36978],[-73.228654,41.369801],[-73.228525,41.369855],[-73.228505,41.369863],[-73.228487,41.36989],[-73.228506,41.369914],[-73.228526,41.369923],[-73.228562,41.369927],[-73.22862,41.369921],[-73.228651,41.369912],[-73.228673,41.369914],[-73.228705,41.369927],[-73.228722,41.369951],[-73.228739,41.370031],[-73.228763,41.370085],[-73.228773,41.370119],[-73.228802,41.370174],[-73.228813,41.37019],[-73.22884,41.370219],[-73.228898,41.370262],[-73.228912,41.370275],[-73.229007,41.370303],[-73.231826,41.369015],[-73.23495,41.367538],[-73.238005,41.366083],[-73.241034,41.364639],[-73.256172,41.357441],[-73.261292,41.355006],[-73.26827,41.351464],[-73.271406,41.349883],[-73.273975,41.348581],[-73.276629,41.347235],[-73.284205,41.343394],[-73.291929,41.339485],[-73.292278,41.339307],[-73.295159,41.337871],[-73.297371,41.336729],[-73.29981,41.335493],[-73.301858,41.334456],[-73.305999,41.332358],[-73.315111,41.327696],[-73.325287,41.322474],[-73.326294,41.321958],[-73.333337,41.318343],[-73.334846,41.321868],[-73.337188,41.32182],[-73.338697,41.320736],[-73.339187,41.319784],[-73.341147,41.318971],[-73.340724,41.317158],[-73.341626,41.317012],[-73.350652,41.314129],[-73.354969,41.320499],[-73.356619,41.322537],[-73.356933,41.322623],[-73.363212,41.322659],[-73.365326,41.324013],[-73.367714,41.324303],[-73.36945,41.325452],[-73.369838,41.326862],[-73.372604,41.329625],[-73.376179,41.333387],[-73.378245,41.336878],[-73.378386,41.337015],[-73.381984,41.335397],[-73.382862,41.332708],[-73.384813,41.331323],[-73.389759,41.329612],[-73.391244,41.332239],[-73.392286,41.332153],[-73.395024,41.330831],[-73.396488,41.330117],[-73.399349,41.329697],[-73.402209,41.330195],[-73.402879,41.329821],[-73.405545,41.329824],[-73.406997,41.329083],[-73.408946,41.327931],[-73.410623,41.327929],[-73.414075,41.327317],[-73.415376,41.324939],[-73.417016,41.324015],[-73.417613,41.32309],[-73.42009,41.322904],[-73.422671,41.323372],[-73.423075,41.321735],[-73.424125,41.321732],[-73.42508,41.320566],[-73.424587,41.320365],[-73.426655,41.316609],[-73.428595,41.315167],[-73.426881,41.311509],[-73.42478,41.308465],[-73.427024,41.307383],[-73.427887,41.305827],[-73.431599,41.304249],[-73.435266,41.304872],[-73.437296,41.303752],[-73.439999,41.303084],[-73.441092,41.302876],[-73.445259,41.301213],[-73.446558,41.300565],[-73.447501,41.300706],[-73.448599,41.300487],[-73.450008,41.300031],[-73.450197,41.300128],[-73.450269,41.300397],[-73.450261,41.298962],[-73.44957,41.293594],[-73.448658,41.287991],[-73.448535,41.287234],[-73.447986,41.283628],[-73.447138,41.278475],[-73.444989,41.275266],[-73.444785,41.274962],[-73.444427,41.274541],[-73.444112,41.274154],[-73.44085,41.268981],[-73.43819,41.265187],[-73.438605,41.265063],[-73.439473,41.264791],[-73.439771,41.264642],[-73.440067,41.264453],[-73.441902,41.263617],[-73.442012,41.263575],[-73.442936,41.263209],[-73.445492,41.262106],[-73.450872,41.259787],[-73.456488,41.257381],[-73.46099,41.255622],[-73.463636,41.254191],[-73.463926,41.252819],[-73.469234,41.251959],[-73.471837,41.250731],[-73.473922,41.249968],[-73.479615,41.247346],[-73.481361,41.246562],[-73.483592,41.245636],[-73.484935,41.245085],[-73.49186,41.241858],[-73.492892,41.241203],[-73.498096,41.239045],[-73.498359,41.238693],[-73.502022,41.237176],[-73.502532,41.237228],[-73.491407,41.223588],[-73.48854,41.220076],[-73.487977,41.219387],[-73.482695,41.212772],[-73.484898,41.211748],[-73.485109,41.211652],[-73.487474,41.210549],[-73.493962,41.207616],[-73.495901,41.206781],[-73.503958,41.203312],[-73.509174,41.20093],[-73.514179,41.198732],[-73.521164,41.195339],[-73.52377,41.194098],[-73.526029,41.19311],[-73.535884,41.188489],[-73.54005,41.186595],[-73.551468,41.181458],[-73.554783,41.179909],[-73.557665,41.178565],[-73.563356,41.175909],[-73.564759,41.175255],[-73.571915,41.172051],[-73.57914,41.168742],[-73.586153,41.165568],[-73.589321,41.164136],[-73.59711,41.160786],[-73.598098,41.160221],[-73.605525,41.15676],[-73.613512,41.153184],[-73.615749,41.152171],[-73.624174,41.148354],[-73.628796,41.146429],[-73.633858,41.144018],[-73.63393,41.143992],[-73.637723,41.142337],[-73.639672,41.141496],[-73.644074,41.139501],[-73.651581,41.136137],[-73.65597,41.13403],[-73.660573,41.131996],[-73.66096,41.131758],[-73.661769,41.131403],[-73.667804,41.128628],[-73.676774,41.124496],[-73.679022,41.12342],[-73.686074,41.120096],[-73.689265,41.118594],[-73.695958,41.115304],[-73.700703,41.113377],[-73.703542,41.111825],[-73.705814,41.11093],[-73.712272,41.1079],[-73.71296,41.107609],[-73.727775,41.100696],[-73.723382,41.094437],[-73.718675,41.089996],[-73.71797,41.089115],[-73.717679,41.088715],[-73.717063,41.087791],[-73.715478,41.08581],[-73.705565,41.073125],[-73.696173,41.061596],[-73.694206,41.059331],[-73.692346,41.057143],[-73.691481,41.056022],[-73.689529,41.053518],[-73.68789,41.051529],[-73.68296,41.045314],[-73.679771,41.041944],[-73.678537,41.040371],[-73.675575,41.036813],[-73.675501,41.036739],[-73.67533,41.036561],[-73.674804,41.035941],[-73.671927,41.032534],[-73.671054,41.031498],[-73.670381,41.030072],[-73.670377,41.030059],[-73.670275,41.029948],[-73.669772,41.029397],[-73.669727,41.02933],[-73.666539,41.025288],[-73.665177,41.023621],[-73.664672,41.022997],[-73.664179,41.022286],[-73.662739,41.020558],[-73.661716,41.019653],[-73.660293,41.018399],[-73.659447,41.017651],[-73.658772,41.01683],[-73.658189,41.016154],[-73.656867,41.014465],[-73.656117,41.013135],[-73.65565,41.012678],[-73.655255,41.012246],[-73.656065,41.008923],[-73.657874,41.005164],[-73.658555,41.004018],[-73.659691,41.001512],[-73.660268,41.000484],[-73.659309,40.997171],[-73.659639,40.994339],[-73.659585,40.99414],[-73.659106,40.993338],[-73.657972,40.991997],[-73.657228,40.990914],[-73.65863,40.989257],[-73.659671,40.987909],[-73.656913,40.984675],[-73.656423,40.984243],[-73.649832,40.979199],[-73.612885,40.950943],[-73.60061,40.95358],[-73.587438,40.956376],[-73.553675,40.96346],[-73.544192,40.96545],[-73.517067,40.971116],[-73.496061,40.975489],[-73.45646,40.983836],[-73.389588,40.997932],[-73.382408,40.999293],[-73.378172,41.000097],[-73.37456,41.00106],[-73.291406,41.01788]]]]}},{"type":"Feature","properties":{"id":5,"NAME":"5","TotalPop":721932,"PopDevPct":0.00103052,"DemPct":0.47216989,"RepPct":0.51284555,"WhitePct":0.78977519,"MinorityPct":0.21022481,"BlackPct":0.04621612,"HispanicPct":0.10328248,"PacificPct":0.00101021,"AsianPct":0.03594683,"NativePct":0.01346886,"TotalVAP":580079,"Margin":-0.02783011,"color":"#ffa9a9","opacity":"0.5"},"geometry":{"type":"MultiPolygon","coordinates":[[[[-73.070114,41.514301],[-73.070164,41.514363],[-73.072266,41.5183],[-73.076854,41.522714],[-73.077884,41.523527],[-73.080485,41.526407],[-73.083727,41.531487],[-73.084718,41.533278],[-73.086324,41.536177],[-73.086556,41.536595],[-73.086832,41.537205],[-73.087072,41.538072],[-73.087561,41.539116],[-73.088159,41.541199],[-73.088382,41.54242],[-73.08855,41.543247],[-73.088599,41.543418],[-73.088746,41.543931],[-73.088795,41.544102],[-73.088845,41.544356],[-73.088996,41.545121],[-73.089047,41.545376],[-73.089735,41.547773],[-73.089816,41.549062],[-73.090141,41.550467],[-73.090377,41.551475],[-73.091269,41.555744],[-73.093169,41.565842],[-73.093853,41.570196],[-73.092353,41.570496],[-73.089406,41.575211],[-73.089113,41.575654],[-73.088674,41.576327],[-73.088207,41.577107],[-73.087772,41.577959],[-73.087253,41.578796],[-73.086755,41.579592],[-73.086308,41.580432],[-73.086277,41.580464],[-73.086183,41.580563],[-73.086153,41.580596],[-73.086099,41.580684],[-73.085939,41.580952],[-73.085886,41.581041],[-73.085145,41.582108],[-73.083374,41.584905],[-73.082984,41.585565],[-73.080401,41.586711],[-73.078261,41.586166],[-73.078203,41.586145],[-73.078003,41.586571],[-73.077934,41.586719],[-73.077593,41.587499],[-73.074402,41.587749],[-73.069844,41.588112],[-73.064209,41.588491],[-73.061132,41.588536],[-73.058389,41.588625],[-73.05801,41.588647],[-73.05752,41.589228],[-73.059458,41.591605],[-73.06015,41.593484],[-73.060244,41.597368],[-73.0607,41.600811],[-73.059176,41.602566],[-73.059097,41.602243],[-73.059469,41.606179],[-73.058024,41.60674],[-73.050362,41.609748],[-73.036156,41.615197],[-73.034777,41.615134],[-73.01865,41.614097],[-73.017443,41.609813],[-73.016985,41.606122],[-73.016114,41.601998],[-73.015751,41.600391],[-73.015071,41.597244],[-73.014931,41.596304],[-73.013214,41.588686],[-73.012049,41.583778],[-73.003859,41.575695],[-73.003675,41.575512],[-73.002465,41.574303],[-73.001868,41.574089],[-73.001734,41.573939],[-72.99873,41.57101],[-72.998278,41.570644],[-72.996753,41.56906],[-72.994386,41.566905],[-72.992797,41.565439],[-72.992208,41.564892],[-72.991587,41.564319],[-72.985168,41.558131],[-72.982613,41.555963],[-72.982439,41.555619],[-72.981057,41.554406],[-72.979853,41.553349],[-72.975285,41.553609],[-72.974514,41.553696],[-72.974435,41.553705],[-72.969907,41.553809],[-72.969369,41.553803],[-72.964216,41.554429],[-72.961883,41.554728],[-72.960779,41.55484],[-72.960199,41.554916],[-72.959146,41.555021],[-72.958519,41.55509],[-72.956906,41.555279],[-72.956788,41.555295],[-72.955167,41.555487],[-72.952506,41.555892],[-72.94635,41.556797],[-72.928538,41.558891],[-72.926399,41.558919],[-72.917806,41.560039],[-72.917139,41.560099],[-72.910065,41.56101],[-72.90347,41.561708],[-72.903213,41.561747],[-72.901408,41.562012],[-72.89203,41.563026],[-72.890074,41.563204],[-72.883885,41.563812],[-72.883057,41.563667],[-72.882693,41.563607],[-72.880873,41.563345],[-72.879745,41.563198],[-72.879256,41.563152],[-72.879748,41.562454],[-72.876233,41.560385],[-72.873956,41.559154],[-72.874112,41.558266],[-72.873306,41.556486],[-72.871823,41.556761],[-72.871857,41.555569],[-72.871876,41.555272],[-72.871916,41.554873],[-72.869514,41.554531],[-72.868227,41.552236],[-72.867999,41.55083],[-72.867806,41.54898],[-72.865588,41.548443],[-72.864697,41.548305],[-72.862537,41.547841],[-72.860488,41.547756],[-72.86031,41.547749],[-72.859753,41.547727],[-72.858121,41.547342],[-72.855792,41.546792],[-72.854669,41.546527],[-72.85329,41.546664],[-72.852707,41.546291],[-72.850293,41.54581],[-72.84944,41.545616],[-72.846988,41.545237],[-72.845554,41.544992],[-72.84428,41.544725],[-72.844806,41.546549],[-72.844973,41.546966],[-72.845111,41.547312],[-72.845295,41.548528],[-72.845612,41.551938],[-72.845731,41.553346],[-72.845922,41.554309],[-72.845986,41.554694],[-72.846005,41.55485],[-72.848541,41.567329],[-72.840244,41.569098],[-72.828594,41.570791],[-72.827644,41.570999],[-72.827898,41.570153],[-72.829644,41.562397],[-72.825743,41.564298],[-72.826141,41.555897],[-72.821243,41.554195],[-72.819145,41.554298],[-72.810242,41.562397],[-72.80996,41.562284],[-72.809243,41.561997],[-72.805243,41.566598],[-72.801243,41.573098],[-72.779721,41.575936],[-72.779343,41.57598],[-72.776526,41.576335],[-72.776348,41.576358],[-72.776042,41.576398],[-72.775814,41.576425],[-72.775638,41.576446],[-72.77246,41.576828],[-72.772209,41.576846],[-72.771029,41.576931],[-72.768871,41.577235],[-72.768079,41.577313],[-72.767821,41.577339],[-72.752181,41.578894],[-72.752941,41.592497],[-72.74284,41.594398],[-72.739077,41.594794],[-72.73448,41.595406],[-72.731671,41.595779],[-72.73167,41.595803],[-72.72994,41.601498],[-72.727175,41.601994],[-72.727041,41.602398],[-72.724177,41.602952],[-72.724146,41.602957],[-72.723941,41.603003],[-72.723679,41.603045],[-72.723352,41.60309],[-72.723032,41.603135],[-72.720984,41.603419],[-72.720196,41.60353],[-72.714538,41.60431],[-72.715608,41.605671],[-72.715769,41.607014],[-72.7151,41.608074],[-72.713644,41.610736],[-72.712767,41.614064],[-72.712567,41.616684],[-72.71181,41.617196],[-72.711134,41.618036],[-72.712844,41.618927],[-72.713287,41.620839],[-72.715527,41.622821],[-72.715706,41.625353],[-72.7155,41.625573],[-72.713897,41.627705],[-72.712339,41.630599],[-72.713377,41.633533],[-72.713677,41.634379],[-72.713833,41.636205],[-72.71476,41.646725],[-72.71502,41.648494],[-72.715296,41.652706],[-72.720846,41.652581],[-72.723053,41.65252],[-72.725535,41.652338],[-72.727356,41.652197],[-72.727163,41.649484],[-72.728926,41.64931],[-72.729167,41.649279],[-72.730191,41.649116],[-72.732024,41.648958],[-72.734481,41.64874],[-72.736178,41.648586],[-72.744697,41.647583],[-72.747384,41.647243],[-72.749874,41.646965],[-72.750357,41.650167],[-72.751643,41.650006],[-72.753881,41.649833],[-72.758153,41.649722],[-72.767619,41.648904],[-72.767824,41.648901],[-72.768402,41.648901],[-72.768871,41.648879],[-72.77131,41.648393],[-72.778572,41.648244],[-72.781528,41.648],[-72.78852,41.647625],[-72.789623,41.647553],[-72.790973,41.647491],[-72.79116,41.647484],[-72.79304,41.647357],[-72.794642,41.647213],[-72.796388,41.647201],[-72.800128,41.646781],[-72.806424,41.646256],[-72.809612,41.64605],[-72.814188,41.645706],[-72.814322,41.645699],[-72.817467,41.64513],[-72.818048,41.645025],[-72.818401,41.645018],[-72.819185,41.645004],[-72.819297,41.645256],[-72.819442,41.645579],[-72.819441,41.645806],[-72.819428,41.646101],[-72.820739,41.655715],[-72.822573,41.65571],[-72.82343,41.658779],[-72.824289,41.661853],[-72.82537,41.667341],[-72.825525,41.668273],[-72.825624,41.66849],[-72.825523,41.668711],[-72.825418,41.668938],[-72.825335,41.669244],[-72.823411,41.672568],[-72.821559,41.677691],[-72.819779,41.683104],[-72.815782,41.687114],[-72.815442,41.68782],[-72.825973,41.689433],[-72.832508,41.690434],[-72.835817,41.690879],[-72.842175,41.691908],[-72.843172,41.692073],[-72.844685,41.692324],[-72.848861,41.693041],[-72.85321,41.693792],[-72.855793,41.694162],[-72.856079,41.694223],[-72.863845,41.695429],[-72.869342,41.696522],[-72.86954,41.697523],[-72.870773,41.701777],[-72.873104,41.703209],[-72.873793,41.705074],[-72.874212,41.707142],[-72.87739,41.706805],[-72.87987,41.706511],[-72.880184,41.709452],[-72.881673,41.713853],[-72.881944,41.716074],[-72.88198,41.71637],[-72.882204,41.717992],[-72.883006,41.718951],[-72.88807,41.718381],[-72.897031,41.717272],[-72.89827,41.723177],[-72.89983,41.732046],[-72.901021,41.736557],[-72.90108,41.73668],[-72.901357,41.737688],[-72.90208,41.739737],[-72.902157,41.741299],[-72.902611,41.743166],[-72.902625,41.743569],[-72.902726,41.744662],[-72.90289,41.745336],[-72.904246,41.750236],[-72.904927,41.75809],[-72.906247,41.764892],[-72.908328,41.775196],[-72.90848,41.776043],[-72.909088,41.776217],[-72.909506,41.776146],[-72.911706,41.776602],[-72.913158,41.776844],[-72.914917,41.777338],[-72.915702,41.777382],[-72.917652,41.777739],[-72.919023,41.778299],[-72.920057,41.779068],[-72.920475,41.779573],[-72.920856,41.780737],[-72.921317,41.781609],[-72.921596,41.782537],[-72.922256,41.783047],[-72.922791,41.784304],[-72.923087,41.785217],[-72.924058,41.78602],[-72.924946,41.787785],[-72.924542,41.789574],[-72.924659,41.792615],[-72.925252,41.795639],[-72.925523,41.798702],[-72.92688,41.799805],[-72.928082,41.801765],[-72.927414,41.803707],[-72.924253,41.804794],[-72.921391,41.805194],[-72.920731,41.805726],[-72.921183,41.807117],[-72.924133,41.808723],[-72.925623,41.809212],[-72.925901,41.809161],[-72.928081,41.808876],[-72.937258,41.807892],[-72.945122,41.806915],[-72.949024,41.806431],[-72.94717,41.811683],[-72.946481,41.81341],[-72.941559,41.826462],[-72.940402,41.829234],[-72.939559,41.83169],[-72.939545,41.831729],[-72.937441,41.837493],[-72.93641,41.839988],[-72.936502,41.840263],[-72.93679,41.840736],[-72.939095,41.842506],[-72.942245,41.843445],[-72.946526,41.843628],[-72.951187,41.842697],[-72.951889,41.842953],[-72.952346,41.844799],[-72.953651,41.84668],[-72.95381,41.849497],[-72.953647,41.853885],[-72.95364,41.853919],[-72.953294,41.85478],[-72.951932,41.858226],[-72.947335,41.871384],[-72.946342,41.874027],[-72.946178,41.877234],[-72.943894,41.884815],[-72.942528,41.88949],[-72.940647,41.895196],[-72.939774,41.895254],[-72.929406,41.895916],[-72.92737,41.89607],[-72.915346,41.896797],[-72.906754,41.919907],[-72.905945,41.921696],[-72.902968,41.931361],[-72.902244,41.931995],[-72.898595,41.942255],[-72.896288,41.948298],[-72.892846,41.957811],[-72.88706,41.973121],[-72.88661,41.974527],[-72.886558,41.974725],[-72.880943,41.990193],[-72.878714,41.995878],[-72.878469,41.996781],[-72.87795,41.998159],[-72.87762,42.000161],[-72.874543,42.008822],[-72.873001,42.011628],[-72.86916,42.021339],[-72.866291,42.029706],[-72.865781,42.030431],[-72.863819,42.035383],[-72.86364,42.037528],[-72.872302,42.037487],[-72.874505,42.037682],[-72.882852,42.037729],[-72.889672,42.037766],[-72.924231,42.037949],[-72.939641,42.038032],[-72.966222,42.038169],[-72.979038,42.038237],[-73.008766,42.038785],[-73.036131,42.039281],[-73.050026,42.039716],[-73.055145,42.039915],[-73.055951,42.039936],[-73.060642,42.040043],[-73.103952,42.041405],[-73.119931,42.041902],[-73.127228,42.042127],[-73.1306,42.042231],[-73.13537,42.042379],[-73.154003,42.042887],[-73.205478,42.044308],[-73.223975,42.044802],[-73.228654,42.044929],[-73.231465,42.045005],[-73.23295,42.045047],[-73.254349,42.045708],[-73.255468,42.045749],[-73.256658,42.045785],[-73.272379,42.04627],[-73.288202,42.046755],[-73.288471,42.046766],[-73.292955,42.046904],[-73.294611,42.04696],[-73.29494,42.046968],[-73.304283,42.047254],[-73.308768,42.047393],[-73.325647,42.047898],[-73.328337,42.047972],[-73.335956,42.048221],[-73.340544,42.048357],[-73.345645,42.048477],[-73.375061,42.049197],[-73.405116,42.049919],[-73.41293,42.050115],[-73.426168,42.050426],[-73.438554,42.050475],[-73.466973,42.049925],[-73.487319,42.049525],[-73.488613,42.022791],[-73.488681,42.021495],[-73.48881,42.018705],[-73.488872,42.017443],[-73.489126,42.011661],[-73.489615,42.000092],[-73.492235,41.967094],[-73.492987,41.958312],[-73.493439,41.953335],[-73.49393,41.94965],[-73.496526,41.922408],[-73.496601,41.921748],[-73.497056,41.911071],[-73.497319,41.906526],[-73.498295,41.892648],[-73.498573,41.890122],[-73.500917,41.868572],[-73.501953,41.858464],[-73.501937,41.858331],[-73.505254,41.824431],[-73.505312,41.82394],[-73.505249,41.82185],[-73.507083,41.800764],[-73.50793,41.791524],[-73.508481,41.786141],[-73.510961,41.758749],[-73.511262,41.753409],[-73.511313,41.752829],[-73.511907,41.741209],[-73.51319,41.725901],[-73.514289,41.713661],[-73.516017,41.696285],[-73.516561,41.689709],[-73.516785,41.687581],[-73.517759,41.671154],[-73.51808,41.666723],[-73.519746,41.644587],[-73.520027,41.640979],[-73.520073,41.64001],[-73.521018,41.620261],[-73.521435,41.616612],[-73.523865,41.592675],[-73.526001,41.571918],[-73.526097,41.568541],[-73.527405,41.554352],[-73.527692,41.549951],[-73.528961,41.538158],[-73.529228,41.536248],[-73.530277,41.524838],[-73.530713,41.51996],[-73.532451,41.500511],[-73.532606,41.498729],[-73.532618,41.49858],[-73.532692,41.497651],[-73.533222,41.490463],[-73.533857,41.481755],[-73.533952,41.479379],[-73.53429,41.475898],[-73.534367,41.475358],[-73.534532,41.473297],[-73.534615,41.472236],[-73.534751,41.470663],[-73.534807,41.470096],[-73.534969,41.467807],[-73.535049,41.467044],[-73.535221,41.464525],[-73.535269,41.464094],[-73.535269,41.463494],[-73.535354,41.462814],[-73.535408,41.462064],[-73.535606,41.459587],[-73.535892,41.455035],[-73.536,41.452803],[-73.536064,41.45019],[-73.536105,41.449635],[-73.536287,41.447213],[-73.536406,41.446066],[-73.537093,41.439706],[-73.537261,41.43791],[-73.538066,41.430511],[-73.538527,41.426737],[-73.541102,41.406474],[-73.541328,41.405315],[-73.542469,41.392594],[-73.542572,41.390443],[-73.542562,41.39019],[-73.542628,41.38925],[-73.542644,41.389032],[-73.543416,41.376754],[-73.543619,41.375094],[-73.545293,41.361516],[-73.546282,41.351821],[-73.546919,41.344941],[-73.548142,41.334439],[-73.548236,41.333459],[-73.548609,41.329982],[-73.549088,41.325134],[-73.549293,41.319581],[-73.54948,41.316746],[-73.549687,41.30539],[-73.549879,41.301522],[-73.550962,41.295421],[-73.548845,41.292969],[-73.548114,41.292095],[-73.540597,41.282999],[-73.538387,41.280385],[-73.526316,41.266101],[-73.525208,41.26473],[-73.517456,41.255455],[-73.512948,41.250095],[-73.502532,41.237228],[-73.502022,41.237176],[-73.498359,41.238693],[-73.498096,41.239045],[-73.492892,41.241203],[-73.49186,41.241858],[-73.484935,41.245085],[-73.483592,41.245636],[-73.481361,41.246562],[-73.479615,41.247346],[-73.473922,41.249968],[-73.471837,41.250731],[-73.469234,41.251959],[-73.463926,41.252819],[-73.463636,41.254191],[-73.46099,41.255622],[-73.456488,41.257381],[-73.450872,41.259787],[-73.445492,41.262106],[-73.442936,41.263209],[-73.442012,41.263575],[-73.441902,41.263617],[-73.440067,41.264453],[-73.439771,41.264642],[-73.439473,41.264791],[-73.438605,41.265063],[-73.43819,41.265187],[-73.44085,41.268981],[-73.444112,41.274154],[-73.444427,41.274541],[-73.444785,41.274962],[-73.444989,41.275266],[-73.447138,41.278475],[-73.447986,41.283628],[-73.448535,41.287234],[-73.448658,41.287991],[-73.44957,41.293594],[-73.450261,41.298962],[-73.450269,41.300397],[-73.450197,41.300128],[-73.450008,41.300031],[-73.448599,41.300487],[-73.447501,41.300706],[-73.446558,41.300565],[-73.445259,41.301213],[-73.441092,41.302876],[-73.439999,41.303084],[-73.437296,41.303752],[-73.435266,41.304872],[-73.431599,41.304249],[-73.427887,41.305827],[-73.427024,41.307383],[-73.42478,41.308465],[-73.426881,41.311509],[-73.428595,41.315167],[-73.426655,41.316609],[-73.424587,41.320365],[-73.42508,41.320566],[-73.424125,41.321732],[-73.423075,41.321735],[-73.422671,41.323372],[-73.42009,41.322904],[-73.417613,41.32309],[-73.417016,41.324015],[-73.415376,41.324939],[-73.414075,41.327317],[-73.410623,41.327929],[-73.408946,41.327931],[-73.406997,41.329083],[-73.405545,41.329824],[-73.402879,41.329821],[-73.402209,41.330195],[-73.399349,41.329697],[-73.396488,41.330117],[-73.395024,41.330831],[-73.392286,41.332153],[-73.391244,41.332239],[-73.389759,41.329612],[-73.384813,41.331323],[-73.382862,41.332708],[-73.381984,41.335397],[-73.378386,41.337015],[-73.378245,41.336878],[-73.376179,41.333387],[-73.372604,41.329625],[-73.369838,41.326862],[-73.36945,41.325452],[-73.367714,41.324303],[-73.365326,41.324013],[-73.363212,41.322659],[-73.356933,41.322623],[-73.356619,41.322537],[-73.354969,41.320499],[-73.350652,41.314129],[-73.341626,41.317012],[-73.340724,41.317158],[-73.341147,41.318971],[-73.339187,41.319784],[-73.338697,41.320736],[-73.337188,41.32182],[-73.334846,41.321868],[-73.333337,41.318343],[-73.326294,41.321958],[-73.325287,41.322474],[-73.315111,41.327696],[-73.305999,41.332358],[-73.301858,41.334456],[-73.29981,41.335493],[-73.297371,41.336729],[-73.295159,41.337871],[-73.292278,41.339307],[-73.291929,41.339485],[-73.284205,41.343394],[-73.276629,41.347235],[-73.273975,41.348581],[-73.271406,41.349883],[-73.26827,41.351464],[-73.261292,41.355006],[-73.256172,41.357441],[-73.241034,41.364639],[-73.238005,41.366083],[-73.23495,41.367538],[-73.231826,41.369015],[-73.229007,41.370303],[-73.228912,41.370275],[-73.228898,41.370262],[-73.22884,41.370219],[-73.228813,41.37019],[-73.228802,41.370174],[-73.228773,41.370119],[-73.228763,41.370085],[-73.228739,41.370031],[-73.228722,41.369951],[-73.228705,41.369927],[-73.228673,41.369914],[-73.228651,41.369912],[-73.22862,41.369921],[-73.228562,41.369927],[-73.228526,41.369923],[-73.228506,41.369914],[-73.228487,41.36989],[-73.228505,41.369863],[-73.228525,41.369855],[-73.228654,41.369801],[-73.228656,41.36978],[-73.228643,41.369719],[-73.228579,41.369548],[-73.228564,41.369473],[-73.228534,41.369382],[-73.228449,41.369293],[-73.228304,41.369111],[-73.228299,41.369093],[-73.22831,41.369064],[-73.228341,41.369019],[-73.228358,41.368976],[-73.228362,41.368951],[-73.228357,41.368916],[-73.228293,41.368908],[-73.228179,41.368902],[-73.228156,41.368896],[-73.228126,41.368878],[-73.228104,41.368849],[-73.228102,41.368839],[-73.228107,41.368827],[-73.228117,41.368813],[-73.228243,41.368762],[-73.228258,41.368736],[-73.228239,41.368718],[-73.228209,41.368712],[-73.228136,41.368703],[-73.228108,41.368693],[-73.228108,41.368673],[-73.22818,41.368594],[-73.228234,41.368531],[-73.228333,41.368483],[-73.228401,41.368394],[-73.228449,41.368367],[-73.229198,41.368197],[-73.229378,41.366439],[-73.228497,41.365637],[-73.228031,41.36513],[-73.225336,41.365342],[-73.223326,41.36422],[-73.221158,41.364002],[-73.21903,41.364495],[-73.215127,41.36666],[-73.215104,41.36728],[-73.213294,41.367919],[-73.211199,41.367721],[-73.207772,41.369294],[-73.206614,41.370166],[-73.204828,41.370475],[-73.202369,41.371978],[-73.201311,41.373941],[-73.202029,41.375179],[-73.202294,41.378005],[-73.203391,41.378251],[-73.203578,41.379162],[-73.201075,41.38102],[-73.197829,41.382812],[-73.196408,41.385107],[-73.195933,41.38747],[-73.194378,41.388752],[-73.191748,41.388934],[-73.190426,41.388258],[-73.188963,41.388532],[-73.187117,41.389118],[-73.183269,41.391711],[-73.181168,41.389611],[-73.173356,41.383596],[-73.171588,41.383887],[-73.171339,41.383935],[-73.166565,41.383356],[-73.166556,41.383196],[-73.161253,41.383853],[-73.158656,41.383396],[-73.157977,41.382959],[-73.158832,41.379684],[-73.157923,41.377223],[-73.157055,41.376696],[-73.157168,41.376671],[-73.158011,41.376245],[-73.15965,41.374905],[-73.159442,41.372914],[-73.17058,41.357898],[-73.170657,41.357934],[-73.171147,41.356192],[-73.173358,41.348882],[-73.176814,41.337587],[-73.178877,41.334744],[-73.179483,41.334231],[-73.180615,41.332973],[-73.184718,41.326495],[-73.188163,41.321934],[-73.189299,41.320431],[-73.189779,41.319581],[-73.193332,41.314861],[-73.195014,41.31282],[-73.195116,41.312688],[-73.198975,41.307469],[-73.201172,41.30429],[-73.20336,41.301292],[-73.2048,41.29936],[-73.202888,41.297335],[-73.200693,41.294719],[-73.198592,41.293379],[-73.198299,41.293093],[-73.190988,41.285799],[-73.188167,41.283091],[-73.187763,41.282269],[-73.186328,41.280937],[-73.182265,41.277063],[-73.1806,41.275419],[-73.179032,41.273731],[-73.178639,41.272636],[-73.177175,41.271487],[-73.174294,41.269029],[-73.173596,41.268606],[-73.170017,41.268681],[-73.164912,41.268795],[-73.160786,41.26894],[-73.157722,41.269057],[-73.155573,41.269096],[-73.155266,41.269087],[-73.150791,41.261578],[-73.149273,41.259376],[-73.148713,41.258347],[-73.147367,41.256222],[-73.146882,41.255367],[-73.146009,41.255807],[-73.14355,41.257215],[-73.14192,41.257692],[-73.1314,41.261019],[-73.124388,41.26337],[-73.120241,41.264679],[-73.113576,41.266824],[-73.112751,41.267288],[-73.108295,41.268582],[-73.106049,41.26705],[-73.107228,41.264972],[-73.106851,41.263878],[-73.104616,41.263556],[-73.102952,41.261643],[-73.103117,41.259775],[-73.098359,41.25928],[-73.097723,41.259078],[-73.096976,41.258788],[-73.095265,41.258052],[-73.094558,41.256214],[-73.090872,41.257082],[-73.088752,41.255396],[-73.086752,41.254596],[-73.087852,41.260096],[-73.087752,41.265296],[-73.088682,41.271737],[-73.086852,41.276596],[-73.083752,41.281496],[-73.08153,41.282856],[-73.078852,41.284496],[-73.075451,41.285749],[-73.071251,41.287296],[-73.068751,41.289196],[-73.065251,41.294896],[-73.065051,41.297596],[-73.066151,41.299496],[-73.067851,41.300996],[-73.067436,41.301407],[-73.067204,41.301674],[-73.065454,41.304835],[-73.065027,41.306127],[-73.061255,41.310444],[-73.058984,41.311627],[-73.056701,41.312168],[-73.056149,41.311974],[-73.054627,41.311568],[-73.05315,41.311351],[-73.050168,41.311282],[-73.04911,41.3113],[-73.047358,41.311766],[-73.044164,41.312944],[-73.040707,41.313891],[-73.040529,41.317182],[-73.039141,41.326654],[-73.038934,41.32801],[-73.039981,41.332357],[-73.041072,41.335293],[-73.041193,41.335632],[-73.041881,41.337578],[-73.042788,41.338759],[-73.043843,41.341577],[-73.043718,41.34232],[-73.046334,41.346078],[-73.046445,41.352086],[-73.047162,41.360531],[-73.04907,41.381053],[-73.048885,41.383888],[-73.0483,41.390459],[-73.047608,41.395611],[-73.047543,41.395834],[-73.046409,41.401691],[-73.041651,41.420896],[-73.036483,41.420215],[-73.029459,41.419492],[-73.02522,41.434567],[-73.025022,41.437336],[-73.024952,41.450094],[-73.02497,41.451232],[-73.02561,41.458087],[-73.025751,41.459596],[-73.025326,41.459654],[-73.004229,41.462557],[-73.003503,41.467092],[-73.001811,41.471159],[-73.00226,41.472705],[-72.998709,41.473887],[-72.997032,41.47629],[-72.993667,41.48241],[-72.992183,41.485406],[-72.989312,41.49075],[-72.988506,41.4923],[-72.98637,41.496648],[-72.984277,41.500825],[-72.983453,41.502678],[-72.982873,41.503787],[-72.988319,41.505267],[-72.99062,41.506501],[-72.991542,41.508692],[-72.992197,41.510541],[-72.992704,41.511799],[-72.993904,41.513048],[-72.994946,41.513507],[-72.999085,41.514141],[-72.999923,41.514527],[-73.001691,41.516867],[-73.002375,41.520334],[-73.002141,41.524641],[-73.00215,41.524754],[-73.003832,41.524233],[-73.005085,41.523693],[-73.01131,41.522156],[-73.015127,41.520825],[-73.01817,41.519834],[-73.018419,41.519789],[-73.019201,41.519409],[-73.020356,41.519417],[-73.022453,41.519001],[-73.027925,41.517923],[-73.029999,41.51771],[-73.039504,41.516586],[-73.047552,41.515204],[-73.049366,41.515192],[-73.049465,41.515184],[-73.049545,41.515178],[-73.051591,41.514996],[-73.052934,41.514892],[-73.05376,41.514764],[-73.054191,41.514758],[-73.05475,41.514636],[-73.055016,41.514657],[-73.059318,41.514524],[-73.066508,41.51422],[-73.069892,41.514292],[-73.070114,41.514301]],[[-73.007621,41.486148],[-73.007442,41.485941],[-73.00732,41.485752],[-73.007238,41.485479],[-73.006996,41.484718],[-73.007011,41.484509],[-73.00707,41.484356],[-73.007109,41.484239],[-73.007075,41.483948],[-73.007305,41.484264],[-73.007316,41.484332],[-73.007544,41.485694],[-73.007621,41.486148]]]]}}],"labels":{"type":"FeatureCollection","features":[{"type":"Feature","properties":{"id":"1","NAME":"1","featureLabel":{"left":-72.70570624748228,"right":-72.70570624748228,"top":41.83317305284119,"bottom":41.83317305284119},"text-field":"1"},"geometry":{"type":"Point","coordinates":[-72.70570624748228,41.83317305284119]}},{"type":"Feature","properties":{"id":"2","NAME":"2","featureLabel":{"left":-72.1381275146637,"right":-72.1381275146637,"top":41.61917838600159,"bottom":41.61917838600159},"text-field":"2"},"geometry":{"type":"Point","coordinates":[-72.1381275146637,41.61917838600159]}},{"type":"Feature","properties":{"id":"3","NAME":"3","featureLabel":{"left":-72.86533434984588,"right":-72.86533434984588,"top":41.29296166269684,"bottom":41.29296166269684},"text-field":"3"},"geometry":{"type":"Point","coordinates":[-72.86533434984588,41.29296166269684]}},{"type":"Feature","properties":{"id":"4","NAME":"4","featureLabel":{"left":-73.29242109667969,"right":-73.29242109667969,"top":41.172248405273436,"bottom":41.172248405273436},"text-field":"4"},"geometry":{"type":"Point","coordinates":[-73.29242109667969,41.172248405273436]}},{"type":"Feature","properties":{"id":"5","NAME":"5","featureLabel":{"left":-73.24790462345123,"right":-73.24790462345123,"top":41.78590090285492,"bottom":41.78590090285492},"text-field":"5"},"geometry":{"type":"Point","coordinates":[-73.24790462345123,41.78590090285492]}}]}}