{"type":"FeatureCollection","features":[{"type":"Feature","properties":{"id":1,"NAME":"1","TotalPop":548850,"PopDevPct":0.00029252,"DemPct":0.52915709,"RepPct":0.45110184,"WhitePct":0.8413345,"MinorityPct":0.1586655,"BlackPct":0.0384618,"HispanicPct":0.06338322,"PacificPct":0.0012135,"AsianPct":0.03899493,"NativePct":0.01477841,"TotalVAP":448289,"Margin":0.02915709,"color":"#e10000","opacity":"0.5"},"geometry":{"type":"MultiPolygon","coordinates":[[[[-71.584452,41.317037],[-71.575199,41.320941],[-71.549448,41.347805],[-71.549402,41.347802],[-71.530712,41.367812],[-71.52343,41.375887],[-71.522706,41.376815],[-71.521591,41.377529],[-71.520739,41.378432],[-71.520737,41.378467],[-71.520611,41.378617],[-71.520538,41.378729],[-71.520488,41.378787],[-71.520434,41.378837],[-71.520397,41.378864],[-71.520308,41.37893],[-71.520224,41.378963],[-71.520177,41.379012],[-71.52014,41.379035],[-71.519546,41.379938],[-71.519392,41.380204],[-71.518629,41.380903],[-71.517632,41.381744],[-71.517312,41.382136],[-71.51464,41.38479],[-71.514516,41.384906],[-71.50839,41.399198],[-71.505063,41.406961],[-71.504766,41.407817],[-71.503202,41.417601],[-71.499502,41.417602],[-71.497101,41.417502],[-71.495801,41.422601],[-71.495501,41.424101],[-71.494802,41.427301],[-71.492801,41.428301],[-71.492203,41.429055],[-71.493278,41.429233],[-71.493324,41.428381],[-71.49536,41.428114],[-71.497568,41.42689],[-71.497983,41.4258],[-71.498739,41.428434],[-71.498954,41.428372],[-71.500717,41.427884],[-71.50259,41.427367],[-71.506234,41.426936],[-71.515924,41.427168],[-71.518776,41.427223],[-71.518825,41.427431],[-71.519198,41.427811],[-71.517326,41.430737],[-71.517244,41.430864],[-71.516602,41.431831],[-71.515876,41.432876],[-71.514809,41.434692],[-71.518044,41.435993],[-71.518929,41.437859],[-71.519211,41.438469],[-71.519539,41.43906],[-71.521193,41.440784],[-71.521652,41.441761],[-71.522235,41.442873],[-71.522461,41.443298],[-71.524147,41.446632],[-71.521339,41.447033],[-71.516708,41.446934],[-71.516548,41.44693],[-71.51427,41.446855],[-71.51223,41.445858],[-71.51156,41.445839],[-71.510704,41.445873],[-71.509002,41.445916],[-71.507133,41.445763],[-71.506866,41.448593],[-71.506853,41.448992],[-71.506775,41.449978],[-71.506554,41.450882],[-71.506493,41.451023],[-71.505981,41.452084],[-71.505658,41.452772],[-71.508715,41.452639],[-71.510158,41.452948],[-71.510541,41.453095],[-71.5106,41.45312],[-71.513784,41.455958],[-71.515167,41.456859],[-71.519776,41.458596],[-71.520023,41.458648],[-71.524039,41.459495],[-71.527296,41.460158],[-71.526865,41.460752],[-71.526642,41.462402],[-71.526474,41.465519],[-71.526379,41.466799],[-71.526292,41.46804],[-71.526244,41.468584],[-71.52623,41.46875],[-71.526131,41.469788],[-71.525891,41.470616],[-71.525675,41.471378],[-71.525391,41.472259],[-71.525337,41.472427],[-71.524796,41.474045],[-71.52449,41.475155],[-71.52417,41.476433],[-71.523796,41.47765],[-71.523064,41.479973],[-71.522598,41.479939],[-71.522319,41.480667],[-71.522285,41.480762],[-71.522121,41.481263],[-71.521629,41.482742],[-71.521118,41.484226],[-71.520241,41.486702],[-71.519905,41.487595],[-71.519424,41.488953],[-71.519244,41.489432],[-71.518335,41.491933],[-71.515752,41.499078],[-71.514896,41.501341],[-71.512801,41.500941],[-71.51213,41.500812],[-71.507886,41.50006],[-71.505355,41.49972],[-71.503225,41.499667],[-71.502088,41.49932],[-71.500997,41.499103],[-71.497304,41.498156],[-71.496068,41.497916],[-71.491864,41.497219],[-71.48915,41.497335],[-71.48718,41.497405],[-71.478728,41.497877],[-71.478687,41.497885],[-71.469565,41.498372],[-71.458115,41.499069],[-71.457966,41.499058],[-71.453453,41.499874],[-71.452481,41.500336],[-71.450101,41.501801],[-71.448148,41.50279],[-71.447758,41.505907],[-71.449589,41.50731],[-71.44851,41.508277],[-71.448313,41.509812],[-71.447142,41.511014],[-71.446005,41.511191],[-71.444763,41.512423],[-71.444152,41.514108],[-71.443916,41.51548],[-71.444798,41.516301],[-71.447218,41.517487],[-71.445283,41.519104],[-71.445344,41.519341],[-71.444608,41.519865],[-71.444576,41.520887],[-71.444572,41.521346],[-71.447924,41.521852],[-71.45025,41.520514],[-71.453281,41.522763],[-71.454074,41.52414],[-71.454008,41.525144],[-71.456251,41.527763],[-71.458832,41.526898],[-71.45945,41.52795],[-71.459907,41.531024],[-71.460869,41.530964],[-71.461777,41.530861],[-71.46258,41.530749],[-71.462766,41.530724],[-71.462912,41.530703],[-71.462964,41.530694],[-71.464577,41.53038],[-71.465131,41.530253],[-71.465881,41.530083],[-71.465988,41.53006],[-71.46608,41.530273],[-71.468132,41.535053],[-71.468681,41.537459],[-71.468575,41.538525],[-71.468605,41.539978],[-71.469193,41.540638],[-71.476875,41.545265],[-71.477051,41.545235],[-71.478943,41.544785],[-71.481133,41.544075],[-71.484421,41.542488],[-71.486,41.541988],[-71.487321,41.542572],[-71.488289,41.543049],[-71.489269,41.542146],[-71.4897,41.539555],[-71.492843,41.538908],[-71.495712,41.538574],[-71.498028,41.538614],[-71.498353,41.538682],[-71.500427,41.54039],[-71.498726,41.545444],[-71.499741,41.550037],[-71.500359,41.551544],[-71.497544,41.554504],[-71.496132,41.556961],[-71.496361,41.558643],[-71.494422,41.560788],[-71.493393,41.561146],[-71.491516,41.561722],[-71.489693,41.560749],[-71.489555,41.560764],[-71.489762,41.561684],[-71.491296,41.568155],[-71.492126,41.570229],[-71.493103,41.571602],[-71.495073,41.573428],[-71.49465,41.574273],[-71.493819,41.575923],[-71.492049,41.579415],[-71.489727,41.584025],[-71.487776,41.587884],[-71.485613,41.592165],[-71.482503,41.591343],[-71.476929,41.590092],[-71.472957,41.588755],[-71.472054,41.588051],[-71.470139,41.58836],[-71.467415,41.589439],[-71.465622,41.589546],[-71.463423,41.588756],[-71.462959,41.588406],[-71.462639,41.588264],[-71.462601,41.589211],[-71.462105,41.590664],[-71.459908,41.589874],[-71.457463,41.590178],[-71.456729,41.592629],[-71.456512,41.593361],[-71.456021,41.594982],[-71.45533,41.597332],[-71.454895,41.599106],[-71.454687,41.602291],[-71.454669,41.602612],[-71.45451,41.602559],[-71.454475,41.602549],[-71.453048,41.602413],[-71.4515,41.601456],[-71.442258,41.597582],[-71.441393,41.597196],[-71.440201,41.596726],[-71.439214,41.596317],[-71.43219,41.593304],[-71.431305,41.59293],[-71.430629,41.592667],[-71.430291,41.592535],[-71.430168,41.592487],[-71.429687,41.592319],[-71.429594,41.592294],[-71.429192,41.592186],[-71.428406,41.592007],[-71.427696,41.59185],[-71.42614,41.591534],[-71.425293,41.591347],[-71.424866,41.591248],[-71.424556,41.591155],[-71.421616,41.590065],[-71.419212,41.58913],[-71.419269,41.589043],[-71.419418,41.588875],[-71.418315,41.588495],[-71.413911,41.587367],[-71.411624,41.586984],[-71.407791,41.586002],[-71.407835,41.585961],[-71.411848,41.586982],[-71.412013,41.586637],[-71.412438,41.586959],[-71.413341,41.587007],[-71.413683,41.586858],[-71.413624,41.586544],[-71.411949,41.5861],[-71.411944,41.585969],[-71.412637,41.58611],[-71.414138,41.586583],[-71.415555,41.586382],[-71.41689,41.586044],[-71.417101,41.586353],[-71.417133,41.585729],[-71.422617,41.585712],[-71.424598,41.585028],[-71.425204,41.5852],[-71.427844,41.584545],[-71.429621,41.583966],[-71.429592,41.582922],[-71.4293,41.570101],[-71.429035,41.569956],[-71.398699,41.556801],[-71.397418,41.562578],[-71.395754,41.568582],[-71.393603,41.575746],[-71.389314,41.587854],[-71.38759,41.591829],[-71.387376,41.593447],[-71.387819,41.597979],[-71.387865,41.60145],[-71.387442,41.603673],[-71.386308,41.610199],[-71.386455,41.620876],[-71.385193,41.625101],[-71.385168,41.626524],[-71.386709,41.631605],[-71.386358,41.633901],[-71.383001,41.637037],[-71.381933,41.639028],[-71.381749,41.640561],[-71.381491,41.646455],[-71.380542,41.650326],[-71.379718,41.656458],[-71.378972,41.657977],[-71.376581,41.660295],[-71.374783,41.662765],[-71.367566,41.665876],[-71.363289,41.667937],[-71.360359,41.670406],[-71.358092,41.674202],[-71.355982,41.676783],[-71.354069,41.678165],[-71.352354,41.678885],[-71.33097,41.686962],[-71.325667,41.693213],[-71.332015,41.70038],[-71.331648,41.701451],[-71.331408,41.702281],[-71.331316,41.7028],[-71.331315,41.702902],[-71.333869,41.705776],[-71.335052,41.707106],[-71.342585,41.715577],[-71.34836,41.720724],[-71.35508,41.726962],[-71.35689,41.728472],[-71.364561,41.734928],[-71.365207,41.735649],[-71.366103,41.73667],[-71.368512,41.739421],[-71.372508,41.744727],[-71.374965,41.749641],[-71.378273,41.755297],[-71.382971,41.756174],[-71.384733,41.757602],[-71.386344,41.756712],[-71.386681,41.757163],[-71.388634,41.756655],[-71.389709,41.756515],[-71.391205,41.755912],[-71.393875,41.755537],[-71.393845,41.755862],[-71.395965,41.755651],[-71.398102,41.755368],[-71.398064,41.755823],[-71.398018,41.756346],[-71.397972,41.757032],[-71.398628,41.757608],[-71.399223,41.758096],[-71.400704,41.757128],[-71.402191,41.756151],[-71.403694,41.755179],[-71.40435,41.754773],[-71.404411,41.755591],[-71.404472,41.756464],[-71.404526,41.757322],[-71.404716,41.759791],[-71.404754,41.760317],[-71.404793,41.761064],[-71.404831,41.76172],[-71.404877,41.762494],[-71.404892,41.762759],[-71.404991,41.764162],[-71.405076,41.765598],[-71.4051,41.766236],[-71.40519,41.767457],[-71.405203,41.76761],[-71.407191,41.767404],[-71.408629,41.766945],[-71.40979,41.766766],[-71.410728,41.76654],[-71.411419,41.766086],[-71.412183,41.765058],[-71.412642,41.764545],[-71.413314,41.764083],[-71.413677,41.763328],[-71.414383,41.762953],[-71.415806,41.762902],[-71.416657,41.762761],[-71.417586,41.762254],[-71.417599,41.762372],[-71.417943,41.76438],[-71.418228,41.765663],[-71.418267,41.76577],[-71.418337,41.766084],[-71.418423,41.766585],[-71.417671,41.766685],[-71.417824,41.767395],[-71.418549,41.76737],[-71.418869,41.768021],[-71.419014,41.768696],[-71.41909,41.769176],[-71.421921,41.768867],[-71.422134,41.769505],[-71.424149,41.769165],[-71.424416,41.768467],[-71.42469,41.767715],[-71.424973,41.766987],[-71.425148,41.766542],[-71.425232,41.766262],[-71.426445,41.766972],[-71.427771,41.766596],[-71.425975,41.771525],[-71.426136,41.771561],[-71.427634,41.771862],[-71.427383,41.77256],[-71.427696,41.772621],[-71.427933,41.772671],[-71.428284,41.772743],[-71.429176,41.772926],[-71.430061,41.773109],[-71.430946,41.773289],[-71.431839,41.773472],[-71.432716,41.773647],[-71.433609,41.773827],[-71.434601,41.774029],[-71.435516,41.774208],[-71.436195,41.774342],[-71.437248,41.774551],[-71.437333,41.774577],[-71.437393,41.774776],[-71.437508,41.77544],[-71.437614,41.776112],[-71.437622,41.776173],[-71.43777,41.777003],[-71.437691,41.777763],[-71.437532,41.777917],[-71.43766,41.777966],[-71.437523,41.778706],[-71.437363,41.779461],[-71.438728,41.78022],[-71.438942,41.780338],[-71.440863,41.781408],[-71.44007,41.781977],[-71.439444,41.78242],[-71.438804,41.782884],[-71.438182,41.783336],[-71.437541,41.783797],[-71.436923,41.784244],[-71.436298,41.784698],[-71.435906,41.784979],[-71.43565,41.785164],[-71.435135,41.785543],[-71.434622,41.785911],[-71.434046,41.786307],[-71.436482,41.788412],[-71.436996,41.788082],[-71.437569,41.787739],[-71.438789,41.786987],[-71.439438,41.786518],[-71.439812,41.785988],[-71.440186,41.785465],[-71.440575,41.785191],[-71.441162,41.785648],[-71.442177,41.78455],[-71.44239,41.78458],[-71.443031,41.784664],[-71.443123,41.784679],[-71.443748,41.784767],[-71.444389,41.785114],[-71.444901,41.785797],[-71.445976,41.787266],[-71.446762,41.788303],[-71.449295,41.789242],[-71.449806,41.789658],[-71.450294,41.790047],[-71.450775,41.790443],[-71.452347,41.789383],[-71.452441,41.789759],[-71.453995,41.788638],[-71.454706,41.788121],[-71.455519,41.787525],[-71.456061,41.787147],[-71.457513,41.786092],[-71.459028,41.78776],[-71.4592,41.789812],[-71.459882,41.792989],[-71.459532,41.793566],[-71.460303,41.793895],[-71.462322,41.79818],[-71.461563,41.799457],[-71.459356,41.799071],[-71.458998,41.799542],[-71.459478,41.801587],[-71.459096,41.801937],[-71.458702,41.802741],[-71.460226,41.804055],[-71.461631,41.804645],[-71.464255,41.803982],[-71.464379,41.802595],[-71.466167,41.802652],[-71.466027,41.803749],[-71.464315,41.804163],[-71.463665,41.805046],[-71.464725,41.804964],[-71.464686,41.805946],[-71.46492,41.805874],[-71.465935,41.80513],[-71.466644,41.804699],[-71.467072,41.80447],[-71.467668,41.804939],[-71.469165,41.804864],[-71.469064,41.806059],[-71.468109,41.806265],[-71.467851,41.807251],[-71.466803,41.8078],[-71.468703,41.8106],[-71.466551,41.810742],[-71.467572,41.813317],[-71.467675,41.813308],[-71.46768,41.813325],[-71.467698,41.813402],[-71.467867,41.814156],[-71.467804,41.814201],[-71.468094,41.814838],[-71.468193,41.815445],[-71.468208,41.815586],[-71.468285,41.815575],[-71.468625,41.816318],[-71.46882,41.81681],[-71.469018,41.817305],[-71.469226,41.817821],[-71.469347,41.818122],[-71.46965,41.818876],[-71.470031,41.819828],[-71.47082,41.821809],[-71.470877,41.821944],[-71.471511,41.823511],[-71.471573,41.823665],[-71.4716,41.823735],[-71.471632,41.823816],[-71.471764,41.824153],[-71.471306,41.824139],[-71.468399,41.824322],[-71.464703,41.824623],[-71.462423,41.824687],[-71.461936,41.825115],[-71.462542,41.826453],[-71.462306,41.827047],[-71.46293,41.827847],[-71.462983,41.827832],[-71.463065,41.827836],[-71.463145,41.827881],[-71.4632,41.827919],[-71.463249,41.827965],[-71.463348,41.828074],[-71.463461,41.828214],[-71.463635,41.828405],[-71.463676,41.828475],[-71.463744,41.828616],[-71.463793,41.828681],[-71.463948,41.828841],[-71.464021,41.828939],[-71.464125,41.829136],[-71.46418,41.829228],[-71.464304,41.829397],[-71.464422,41.829597],[-71.464569,41.829877],[-71.464646,41.830071],[-71.464686,41.830126],[-71.464744,41.830247],[-71.46475,41.830316],[-71.464742,41.830588],[-71.464693,41.830659],[-71.464992,41.831243],[-71.46759,41.831491],[-71.468624,41.832212],[-71.470444,41.832912],[-71.472383,41.834122],[-71.472176,41.834933],[-71.471791,41.835231],[-71.471667,41.835599],[-71.471721,41.836169],[-71.472004,41.836474],[-71.472459,41.836981],[-71.470955,41.837875],[-71.469144,41.839005],[-71.468742,41.83926],[-71.467685,41.839968],[-71.466949,41.840477],[-71.466393,41.840855],[-71.46456,41.842066],[-71.462484,41.843444],[-71.460292,41.844957],[-71.459526,41.84544],[-71.458656,41.846054],[-71.45845,41.846191],[-71.457565,41.846786],[-71.455905,41.847903],[-71.455376,41.848261],[-71.454503,41.848846],[-71.453552,41.849445],[-71.452352,41.850293],[-71.45184,41.850635],[-71.451263,41.85102],[-71.450907,41.851257],[-71.450654,41.851425],[-71.449829,41.851994],[-71.449493,41.852185],[-71.448324,41.852981],[-71.447182,41.853745],[-71.446686,41.85405],[-71.446281,41.854321],[-71.445633,41.854759],[-71.445351,41.854948],[-71.444482,41.855533],[-71.443067,41.856464],[-71.442986,41.856556],[-71.437001,41.86052],[-71.436311,41.861001],[-71.434998,41.861824],[-71.430801,41.861373],[-71.429906,41.861255],[-71.429764,41.861214],[-71.42916,41.861147],[-71.428873,41.861117],[-71.427762,41.860985],[-71.427173,41.860912],[-71.425964,41.860752],[-71.425243,41.860668],[-71.423076,41.860386],[-71.422155,41.860266],[-71.420241,41.860017],[-71.41979,41.859958],[-71.417714,41.859701],[-71.417418,41.859666],[-71.417474,41.859907],[-71.41763,41.860545],[-71.417759,41.861092],[-71.417862,41.861504],[-71.417953,41.862156],[-71.41811,41.8628],[-71.418624,41.864849],[-71.419724,41.864964],[-71.422385,41.864356],[-71.423553,41.864048],[-71.423759,41.864609],[-71.42395,41.865128],[-71.423988,41.865223],[-71.424232,41.865864],[-71.424477,41.866516],[-71.424728,41.867188],[-71.424965,41.867859],[-71.425209,41.868507],[-71.427004,41.868175],[-71.427942,41.868185],[-71.427635,41.86935],[-71.42746,41.870083],[-71.427277,41.870796],[-71.4272,41.871109],[-71.427589,41.871395],[-71.427224,41.871856],[-71.427094,41.872059],[-71.427063,41.872105],[-71.426292,41.871841],[-71.425789,41.87265],[-71.42485,41.873062],[-71.424057,41.873238],[-71.423279,41.873402],[-71.422432,41.873619],[-71.422699,41.874287],[-71.421677,41.874142],[-71.421394,41.874779],[-71.42114,41.875346],[-71.421336,41.876128],[-71.421588,41.877267],[-71.4219,41.878695],[-71.418564,41.879139],[-71.41806,41.879204],[-71.415553,41.879547],[-71.413887,41.879772],[-71.41292,41.879879],[-71.411606,41.880063],[-71.410728,41.880186],[-71.409843,41.880294],[-71.408948,41.880404],[-71.40652,41.880701],[-71.406403,41.880716],[-71.405004,41.880894],[-71.404748,41.880927],[-71.403706,41.881059],[-71.40428,41.882739],[-71.405485,41.886254],[-71.405817,41.887239],[-71.406016,41.887848],[-71.406227,41.888491],[-71.406441,41.88914],[-71.407283,41.891633],[-71.407055,41.89191],[-71.405529,41.893766],[-71.404691,41.894784],[-71.404568,41.894824],[-71.403673,41.895108],[-71.403488,41.895168],[-71.402001,41.895526],[-71.400869,41.895827],[-71.398941,41.896313],[-71.398145,41.896513],[-71.397243,41.896782],[-71.394296,41.897652],[-71.394782,41.898625],[-71.397003,41.899756],[-71.398398,41.90028],[-71.399914,41.901802],[-71.400651,41.901931],[-71.399823,41.903881],[-71.400072,41.905498],[-71.399604,41.906355],[-71.399068,41.90744],[-71.398643,41.908747],[-71.39865,41.909094],[-71.398283,41.909525],[-71.397343,41.910058],[-71.397162,41.910361],[-71.396985,41.909974],[-71.39621,41.910336],[-71.396202,41.910987],[-71.395084,41.910443],[-71.395294,41.91082],[-71.395966,41.911938],[-71.394295,41.912327],[-71.393044,41.912609],[-71.392464,41.912655],[-71.391495,41.912682],[-71.391075,41.912697],[-71.390625,41.912712],[-71.390236,41.912754],[-71.389336,41.912907],[-71.388474,41.913082],[-71.386337,41.913403],[-71.384118,41.913919],[-71.383856,41.913994],[-71.382904,41.914284],[-71.38144,41.914745],[-71.381439,41.915287],[-71.381439,41.915472],[-71.381434,41.919725],[-71.381432,41.919857],[-71.381434,41.919949],[-71.381434,41.920011],[-71.381434,41.920167],[-71.381434,41.920219],[-71.381434,41.920605],[-71.381433,41.921149],[-71.381432,41.921366],[-71.381433,41.921472],[-71.381432,41.921686],[-71.381432,41.921981],[-71.381433,41.922335],[-71.381433,41.92256],[-71.381431,41.922836],[-71.381431,41.923009],[-71.381422,41.923155],[-71.381427,41.926501],[-71.381425,41.929828],[-71.381408,41.943627],[-71.3814,41.947682],[-71.381399,41.951662],[-71.381398,41.952862],[-71.381398,41.953156],[-71.381398,41.954883],[-71.381394,41.956429],[-71.381393,41.957419],[-71.381388,41.962994],[-71.381383,41.966977],[-71.381378,41.971399],[-71.381377,41.972688],[-71.381373,41.97639],[-71.381372,41.977196],[-71.381369,41.980231],[-71.381365,41.982778],[-71.381378,41.992025],[-71.381505,42.000021],[-71.3815,42.00071],[-71.381501,42.006682],[-71.381503,42.01024],[-71.381401,42.018798],[-71.387409,42.018791],[-71.390748,42.018798],[-71.396578,42.018748],[-71.412368,42.018525],[-71.41426,42.018499],[-71.415708,42.018498],[-71.419858,42.018385],[-71.422481,42.018298],[-71.424407,42.01828],[-71.439153,42.018121],[-71.441511,42.018092],[-71.45024,42.017895],[-71.452735,42.017864],[-71.454035,42.017848],[-71.458104,42.017798],[-71.463456,42.017732],[-71.473124,42.017621],[-71.483784,42.017481],[-71.485368,42.017459],[-71.486652,42.017441],[-71.489389,42.017401],[-71.491324,42.017373],[-71.49357,42.01734],[-71.494428,42.017328],[-71.495296,42.017315],[-71.496186,42.017302],[-71.497677,42.017281],[-71.499065,42.017213],[-71.499244,42.017199],[-71.502054,42.016991],[-71.505728,42.016712],[-71.506428,42.016667],[-71.507155,42.016613],[-71.511633,42.01628],[-71.514439,42.016073],[-71.516614,42.015912],[-71.518809,42.015747],[-71.519774,42.01568],[-71.520734,42.015605],[-71.521714,42.015533],[-71.524641,42.015316],[-71.52718,42.015128],[-71.527702,42.015095],[-71.528665,42.015072],[-71.529125,42.015063],[-71.533673,42.014959],[-71.53522,42.014924],[-71.536306,42.014898],[-71.537507,42.014873],[-71.537877,42.014864],[-71.54278,42.014753],[-71.543658,42.014733],[-71.553256,42.014514],[-71.55337,42.014512],[-71.553618,42.014505],[-71.558748,42.014388],[-71.565485,42.014235],[-71.570322,42.014124],[-71.571897,42.014088],[-71.573399,42.014061],[-71.576816,42.013975],[-71.580471,42.013889],[-71.583019,42.013833],[-71.584608,42.013796],[-71.586861,42.013743],[-71.587254,42.013734],[-71.594116,42.013575],[-71.594332,42.013568],[-71.606731,42.01328],[-71.60785,42.013254],[-71.614552,42.013099],[-71.625977,42.012828],[-71.636672,42.012578],[-71.64533,42.012372],[-71.649516,42.012274],[-71.6616,42.011987],[-71.669997,42.011788],[-71.678019,42.011598],[-71.682432,42.011495],[-71.698585,42.011135],[-71.702161,42.011055],[-71.713558,42.010796],[-71.724934,42.010542],[-71.734064,42.010334],[-71.740881,42.010179],[-71.750278,42.009966],[-71.755106,42.009857],[-71.765713,42.009611],[-71.76608,42.009601],[-71.771427,42.009481],[-71.799188,42.008053],[-71.799195,42.004218],[-71.798763,41.985147],[-71.798646,41.976912],[-71.798549,41.970427],[-71.798379,41.962946],[-71.798328,41.961642],[-71.798313,41.961238],[-71.798068,41.95373],[-71.798038,41.945079],[-71.798015,41.941717],[-71.79791,41.933216],[-71.797893,41.932216],[-71.797778,41.928645],[-71.797726,41.927446],[-71.797299,41.916891],[-71.797262,41.916247],[-71.797105,41.912231],[-71.796698,41.899921],[-71.796522,41.895288],[-71.795863,41.877688],[-71.795356,41.867126],[-71.794941,41.859475],[-71.79468,41.854409],[-71.794474,41.849159],[-71.794471,41.849088],[-71.794173,41.841416],[-71.794121,41.841103],[-71.794134,41.840008],[-71.79344,41.825637],[-71.793161,41.817169],[-71.793114,41.814658],[-71.792894,41.812521],[-71.792364,41.800053],[-71.792079,41.795076],[-71.792058,41.794592],[-71.791919,41.790715],[-71.79194,41.789614],[-71.79137,41.777296],[-71.791066,41.77018],[-71.790554,41.750117],[-71.790323,41.747792],[-71.790089,41.740991],[-71.790016,41.738876],[-71.789768,41.731556],[-71.789704,41.725198],[-71.789272,41.711929],[-71.789069,41.705964],[-71.788804,41.698336],[-71.788715,41.695598],[-71.788577,41.691526],[-71.788397,41.686218],[-71.787843,41.669817],[-71.787239,41.656111],[-71.787649,41.640274],[-71.787726,41.637946],[-71.787846,41.63445],[-71.787984,41.629347],[-71.788213,41.621017],[-71.788647,41.612057],[-71.789044,41.603521],[-71.789247,41.596847],[-71.789462,41.594328],[-71.789995,41.582071],[-71.790432,41.571986],[-71.790467,41.570872],[-71.790672,41.566058],[-71.790972,41.561451],[-71.791033,41.556177],[-71.791138,41.553021],[-71.791402,41.546092],[-71.792206,41.526783],[-71.792667,41.516013],[-71.79351,41.498985],[-71.794147,41.486219],[-71.794232,41.48472],[-71.79427,41.484049],[-71.794778,41.475093],[-71.795025,41.470748],[-71.795415,41.463938],[-71.795647,41.459984],[-71.796296,41.451516],[-71.796468,41.44735],[-71.796645,41.443086],[-71.796669,41.442494],[-71.796681,41.442202],[-71.796767,41.440124],[-71.79688,41.437294],[-71.797112,41.4305],[-71.797134,41.429982],[-71.797287,41.426399],[-71.79772,41.417408],[-71.797744,41.41691],[-71.798391,41.416447],[-71.799513,41.415838],[-71.800739,41.415533],[-71.801726,41.415658],[-71.803253,41.417307],[-71.803684,41.417428],[-71.805177,41.417134],[-71.805895,41.416836],[-71.806812,41.416673],[-71.807237,41.416834],[-71.808052,41.417387],[-71.809212,41.417822],[-71.8105,41.418521],[-71.81215,41.419213],[-71.8129,41.419404],[-71.814889,41.419487],[-71.816904,41.419927],[-71.818088,41.419852],[-71.82033,41.419382],[-71.821765,41.418248],[-71.822767,41.41786],[-71.823418,41.41747],[-71.823731,41.417282],[-71.823873,41.417164],[-71.823981,41.417028],[-71.824146,41.416764],[-71.824273,41.416257],[-71.824304,41.415833],[-71.824384,41.415461],[-71.824573,41.415235],[-71.82492,41.414961],[-71.825384,41.414687],[-71.825936,41.414596],[-71.826128,41.414565],[-71.827218,41.414492],[-71.827902,41.414334],[-71.829288,41.413782],[-71.830628,41.41318],[-71.831412,41.412793],[-71.833416,41.411946],[-71.834107,41.411582],[-71.834658,41.411597],[-71.835797,41.412232],[-71.836883,41.412228],[-71.83789,41.412483],[-71.839258,41.41239],[-71.839697,41.412222],[-71.84044,41.411532],[-71.842029,41.410706],[-71.842426,41.41026],[-71.842627,41.409757],[-71.842352,41.408084],[-71.842935,41.407151],[-71.843229,41.406181],[-71.843591,41.405331],[-71.843256,41.404461],[-71.842326,41.403817],[-71.841553,41.403046],[-71.84138,41.401439],[-71.841068,41.399658],[-71.84115,41.39923],[-71.842004,41.397496],[-71.842244,41.396879],[-71.842209,41.39538],[-71.841722,41.394625],[-71.841042,41.394089],[-71.840991,41.394024],[-71.840608,41.393622],[-71.839623,41.392168],[-71.838749,41.391054],[-71.838118,41.390554],[-71.835708,41.389852],[-71.834557,41.389181],[-71.83313,41.387839],[-71.832655,41.387156],[-71.832591,41.386385],[-71.832955,41.385257],[-71.833395,41.38383],[-71.833553,41.382846],[-71.833527,41.382264],[-71.833232,41.381686],[-71.832736,41.381164],[-71.832082,41.380139],[-71.831796,41.379866],[-71.830831,41.379137],[-71.831356,41.377752],[-71.831464,41.377654],[-71.832134,41.377059],[-71.832436,41.376462],[-71.832656,41.37585],[-71.832674,41.375621],[-71.832699,41.375309],[-71.832623,41.375151],[-71.832531,41.374963],[-71.832508,41.374893],[-71.832468,41.374768],[-71.832374,41.374476],[-71.831779,41.372628],[-71.831775,41.372615],[-71.831712,41.372417],[-71.831652,41.372226],[-71.831653,41.372088],[-71.831656,41.371683],[-71.831657,41.371472],[-71.83166,41.371258],[-71.831665,41.37123],[-71.831681,41.371152],[-71.831844,41.370344],[-71.831954,41.370109],[-71.831997,41.370017],[-71.832776,41.369169],[-71.837034,41.366286],[-71.837633,41.365499],[-71.837751,41.363296],[-71.837807,41.358994],[-71.836768,41.355103],[-71.836044,41.353988],[-71.831303,41.351295],[-71.829779,41.346229],[-71.829479,41.342326],[-71.830627,41.341258],[-71.83728,41.335068],[-71.844611,41.33073],[-71.847709,41.329604],[-71.851923,41.324664],[-71.857458,41.320789],[-71.859896,41.320358],[-71.866538,41.319185],[-71.874513,41.321868],[-71.882131,41.325673],[-71.889292,41.328975],[-71.891265,41.329714],[-71.892356,41.329218],[-71.893657,41.326504],[-71.900301,41.316046],[-71.901658,41.312683],[-71.907258,41.304483],[-71.879847,41.276246],[-71.874513,41.270686],[-71.858513,41.253697],[-71.854462,41.2501],[-71.809384,41.203235],[-71.790972,41.184101],[-71.79148,41.2501],[-71.79148,41.271922],[-71.79148,41.272165],[-71.77843,41.275111],[-71.765812,41.274245],[-71.749509,41.274999],[-71.747045,41.274974],[-71.73956,41.275449],[-71.732835,41.276876],[-71.729228,41.277891],[-71.723435,41.279617],[-71.719994,41.281149],[-71.711661,41.280601],[-71.705744,41.280739],[-71.695043,41.282647],[-71.685861,41.28539],[-71.672595,41.289079],[-71.666319,41.292487],[-71.659565,41.296653],[-71.656976,41.296897],[-71.651523,41.298362],[-71.645638,41.300124],[-71.64072,41.301821],[-71.636129,41.303157],[-71.632188,41.304842],[-71.624504,41.306143],[-71.624504,41.305997],[-71.598151,41.312594],[-71.584452,41.317037]]]]}},{"type":"Feature","properties":{"id":2,"NAME":"2","TotalPop":548529,"PopDevPct":-0.00029252,"DemPct":0.70630541,"RepPct":0.2739206,"WhitePct":0.60384926,"MinorityPct":0.39615074,"BlackPct":0.12092737,"HispanicPct":0.22210992,"PacificPct":0.00252899,"AsianPct":0.04430862,"NativePct":0.02281331,"TotalVAP":439305,"Margin":0.20630541,"color":"#0000f8","opacity":"0.5"},"geometry":{"type":"MultiPolygon","coordinates":[[[[-71.116404,41.484568],[-71.121116,41.492787],[-71.119936,41.495079],[-71.120559,41.497421],[-71.121463,41.508803],[-71.121473,41.508928],[-71.121661,41.511354],[-71.121661,41.511366],[-71.121687,41.512406],[-71.121698,41.512543],[-71.121776,41.51351],[-71.122437,41.522075],[-71.124232,41.535829],[-71.125822,41.547995],[-71.126268,41.55142],[-71.126809,41.554902],[-71.127111,41.557331],[-71.127837,41.563203],[-71.129839,41.579352],[-71.13162,41.593716],[-71.135765,41.599855],[-71.136764,41.601334],[-71.138346,41.603676],[-71.140308,41.60485],[-71.140801,41.607136],[-71.141958,41.612533],[-71.141745,41.613898],[-71.141291,41.616797],[-71.140521,41.621705],[-71.139894,41.624146],[-71.138715,41.625268],[-71.135302,41.628565],[-71.135157,41.630926],[-71.13483,41.636285],[-71.134672,41.638888],[-71.134588,41.640246],[-71.134511,41.641485],[-71.134451,41.642452],[-71.134447,41.642514],[-71.134346,41.644117],[-71.133814,41.648948],[-71.133763,41.649417],[-71.13335,41.653176],[-71.13317,41.654774],[-71.132874,41.657498],[-71.132659,41.659449],[-71.132647,41.659555],[-71.132624,41.659785],[-71.132606,41.659928],[-71.132597,41.660023],[-71.132564,41.660315],[-71.132557,41.660363],[-71.133057,41.660457],[-71.135045,41.660807],[-71.138905,41.661491],[-71.144852,41.662568],[-71.147117,41.662968],[-71.153608,41.664151],[-71.15522,41.664475],[-71.159111,41.665186],[-71.161771,41.665671],[-71.16212,41.665735],[-71.17612,41.668248],[-71.175784,41.671493],[-71.178022,41.671901],[-71.181268,41.672495],[-71.18221,41.672667],[-71.183272,41.672857],[-71.184328,41.673063],[-71.186091,41.673401],[-71.186853,41.673538],[-71.187625,41.673676],[-71.190868,41.674262],[-71.192772,41.674596],[-71.193697,41.674765],[-71.194496,41.67491],[-71.195594,41.675201],[-71.198257,41.678406],[-71.208371,41.690598],[-71.222471,41.707679],[-71.225998,41.712242],[-71.227175,41.713512],[-71.229468,41.716123],[-71.235982,41.723538],[-71.24515,41.733973],[-71.24796,41.737172],[-71.252041,41.741818],[-71.25464,41.744771],[-71.257566,41.748095],[-71.261067,41.752082],[-71.263871,41.753275],[-71.265878,41.754128],[-71.270835,41.756236],[-71.283421,41.761579],[-71.284404,41.762005],[-71.286131,41.762738],[-71.294753,41.766389],[-71.2977,41.767639],[-71.303586,41.770127],[-71.310355,41.773009],[-71.314668,41.774838],[-71.317873,41.776199],[-71.321751,41.777843],[-71.327792,41.780407],[-71.328639,41.780872],[-71.329096,41.782719],[-71.329725,41.781918],[-71.330046,41.786247],[-71.329432,41.788274],[-71.331861,41.789725],[-71.332841,41.790514],[-71.332343,41.791208],[-71.334112,41.794388],[-71.336463,41.795731],[-71.338838,41.795935],[-71.340495,41.797074],[-71.339894,41.797628],[-71.341124,41.799546],[-71.340543,41.802078],[-71.340511,41.803226],[-71.339569,41.804628],[-71.339466,41.806648],[-71.339404,41.806791],[-71.339325,41.808461],[-71.340405,41.810442],[-71.340635,41.810861],[-71.343089,41.815261],[-71.347496,41.823158],[-71.346095,41.825984],[-71.345787,41.826565],[-71.345198,41.827676],[-71.343254,41.829259],[-71.337855,41.833658],[-71.337321,41.834093],[-71.335417,41.835645],[-71.336438,41.83694],[-71.337032,41.837675],[-71.337299,41.838023],[-71.337453,41.838231],[-71.340629,41.842231],[-71.340803,41.84245],[-71.341015,41.842726],[-71.341931,41.843874],[-71.34255,41.844656],[-71.33771,41.854861],[-71.337265,41.855805],[-71.334653,41.861314],[-71.334255,41.862151],[-71.33404,41.862604],[-71.33599,41.86807],[-71.3374,41.872019],[-71.337818,41.873171],[-71.33886,41.876112],[-71.340626,41.881062],[-71.340752,41.882904],[-71.33985,41.89013],[-71.339767,41.890794],[-71.339539,41.89258],[-71.339517,41.89277],[-71.339307,41.894439],[-71.339286,41.894609],[-71.338787,41.898593],[-71.343864,41.897993],[-71.345934,41.89775],[-71.346809,41.897645],[-71.347849,41.897522],[-71.348565,41.897434],[-71.350383,41.897223],[-71.351335,41.89711],[-71.35294,41.89692],[-71.354558,41.896728],[-71.355581,41.896607],[-71.356757,41.896468],[-71.358695,41.89624],[-71.359541,41.896139],[-71.365457,41.895441],[-71.366113,41.895363],[-71.366239,41.895348],[-71.37109,41.894773],[-71.373798,41.894454],[-71.37409,41.894419],[-71.376369,41.894151],[-71.381125,41.893584],[-71.381463,41.893546],[-71.381463,41.893731],[-71.381459,41.896756],[-71.381456,41.898879],[-71.381456,41.899767],[-71.381455,41.900276],[-71.381452,41.903598],[-71.381446,41.907687],[-71.381446,41.910206],[-71.381443,41.911457],[-71.381444,41.912212],[-71.38144,41.912903],[-71.38144,41.914745],[-71.382904,41.914284],[-71.383856,41.913994],[-71.384118,41.913919],[-71.386337,41.913403],[-71.388474,41.913082],[-71.389336,41.912907],[-71.390236,41.912754],[-71.390625,41.912712],[-71.391075,41.912697],[-71.391495,41.912682],[-71.392464,41.912655],[-71.393044,41.912609],[-71.394295,41.912327],[-71.395966,41.911938],[-71.395294,41.91082],[-71.395084,41.910443],[-71.396202,41.910987],[-71.39621,41.910336],[-71.396985,41.909974],[-71.397162,41.910361],[-71.397343,41.910058],[-71.398283,41.909525],[-71.39865,41.909094],[-71.398643,41.908747],[-71.399068,41.90744],[-71.399604,41.906355],[-71.400072,41.905498],[-71.399823,41.903881],[-71.400651,41.901931],[-71.399914,41.901802],[-71.398398,41.90028],[-71.397003,41.899756],[-71.394782,41.898625],[-71.394296,41.897652],[-71.397243,41.896782],[-71.398145,41.896513],[-71.398941,41.896313],[-71.400869,41.895827],[-71.402001,41.895526],[-71.403488,41.895168],[-71.403673,41.895108],[-71.404568,41.894824],[-71.404691,41.894784],[-71.405529,41.893766],[-71.407055,41.89191],[-71.407283,41.891633],[-71.406441,41.88914],[-71.406227,41.888491],[-71.406016,41.887848],[-71.405817,41.887239],[-71.405485,41.886254],[-71.40428,41.882739],[-71.403706,41.881059],[-71.404748,41.880927],[-71.405004,41.880894],[-71.406403,41.880716],[-71.40652,41.880701],[-71.408948,41.880404],[-71.409843,41.880294],[-71.410728,41.880186],[-71.411606,41.880063],[-71.41292,41.879879],[-71.413887,41.879772],[-71.415553,41.879547],[-71.41806,41.879204],[-71.418564,41.879139],[-71.4219,41.878695],[-71.421588,41.877267],[-71.421336,41.876128],[-71.42114,41.875346],[-71.421394,41.874779],[-71.421677,41.874142],[-71.422699,41.874287],[-71.422432,41.873619],[-71.423279,41.873402],[-71.424057,41.873238],[-71.42485,41.873062],[-71.425789,41.87265],[-71.426292,41.871841],[-71.427063,41.872105],[-71.427094,41.872059],[-71.427224,41.871856],[-71.427589,41.871395],[-71.4272,41.871109],[-71.427277,41.870796],[-71.42746,41.870083],[-71.427635,41.86935],[-71.427942,41.868185],[-71.427004,41.868175],[-71.425209,41.868507],[-71.424965,41.867859],[-71.424728,41.867188],[-71.424477,41.866516],[-71.424232,41.865864],[-71.423988,41.865223],[-71.42395,41.865128],[-71.423759,41.864609],[-71.423553,41.864048],[-71.422385,41.864356],[-71.419724,41.864964],[-71.418624,41.864849],[-71.41811,41.8628],[-71.417953,41.862156],[-71.417862,41.861504],[-71.417759,41.861092],[-71.41763,41.860545],[-71.417474,41.859907],[-71.417418,41.859666],[-71.417714,41.859701],[-71.41979,41.859958],[-71.420241,41.860017],[-71.422155,41.860266],[-71.423076,41.860386],[-71.425243,41.860668],[-71.425964,41.860752],[-71.427173,41.860912],[-71.427762,41.860985],[-71.428873,41.861117],[-71.42916,41.861147],[-71.429764,41.861214],[-71.429906,41.861255],[-71.430801,41.861373],[-71.434998,41.861824],[-71.436311,41.861001],[-71.437001,41.86052],[-71.442986,41.856556],[-71.443067,41.856464],[-71.444482,41.855533],[-71.445351,41.854948],[-71.445633,41.854759],[-71.446281,41.854321],[-71.446686,41.85405],[-71.447182,41.853745],[-71.448324,41.852981],[-71.449493,41.852185],[-71.449829,41.851994],[-71.450654,41.851425],[-71.450907,41.851257],[-71.451263,41.85102],[-71.45184,41.850635],[-71.452352,41.850293],[-71.453552,41.849445],[-71.454503,41.848846],[-71.455376,41.848261],[-71.455905,41.847903],[-71.457565,41.846786],[-71.45845,41.846191],[-71.458656,41.846054],[-71.459526,41.84544],[-71.460292,41.844957],[-71.462484,41.843444],[-71.46456,41.842066],[-71.466393,41.840855],[-71.466949,41.840477],[-71.467685,41.839968],[-71.468742,41.83926],[-71.469144,41.839005],[-71.470955,41.837875],[-71.472459,41.836981],[-71.472004,41.836474],[-71.471721,41.836169],[-71.471667,41.835599],[-71.471791,41.835231],[-71.472176,41.834933],[-71.472383,41.834122],[-71.470444,41.832912],[-71.468624,41.832212],[-71.46759,41.831491],[-71.464992,41.831243],[-71.464693,41.830659],[-71.464742,41.830588],[-71.46475,41.830316],[-71.464744,41.830247],[-71.464686,41.830126],[-71.464646,41.830071],[-71.464569,41.829877],[-71.464422,41.829597],[-71.464304,41.829397],[-71.46418,41.829228],[-71.464125,41.829136],[-71.464021,41.828939],[-71.463948,41.828841],[-71.463793,41.828681],[-71.463744,41.828616],[-71.463676,41.828475],[-71.463635,41.828405],[-71.463461,41.828214],[-71.463348,41.828074],[-71.463249,41.827965],[-71.4632,41.827919],[-71.463145,41.827881],[-71.463065,41.827836],[-71.462983,41.827832],[-71.46293,41.827847],[-71.462306,41.827047],[-71.462542,41.826453],[-71.461936,41.825115],[-71.462423,41.824687],[-71.464703,41.824623],[-71.468399,41.824322],[-71.471306,41.824139],[-71.471764,41.824153],[-71.471632,41.823816],[-71.4716,41.823735],[-71.471573,41.823665],[-71.471511,41.823511],[-71.470877,41.821944],[-71.47082,41.821809],[-71.470031,41.819828],[-71.46965,41.818876],[-71.469347,41.818122],[-71.469226,41.817821],[-71.469018,41.817305],[-71.46882,41.81681],[-71.468625,41.816318],[-71.468285,41.815575],[-71.468208,41.815586],[-71.468193,41.815445],[-71.468094,41.814838],[-71.467804,41.814201],[-71.467867,41.814156],[-71.467698,41.813402],[-71.46768,41.813325],[-71.467675,41.813308],[-71.467572,41.813317],[-71.466551,41.810742],[-71.468703,41.8106],[-71.466803,41.8078],[-71.467851,41.807251],[-71.468109,41.806265],[-71.469064,41.806059],[-71.469165,41.804864],[-71.467668,41.804939],[-71.467072,41.80447],[-71.466644,41.804699],[-71.465935,41.80513],[-71.46492,41.805874],[-71.464686,41.805946],[-71.464725,41.804964],[-71.463665,41.805046],[-71.464315,41.804163],[-71.466027,41.803749],[-71.466167,41.802652],[-71.464379,41.802595],[-71.464255,41.803982],[-71.461631,41.804645],[-71.460226,41.804055],[-71.458702,41.802741],[-71.459096,41.801937],[-71.459478,41.801587],[-71.458998,41.799542],[-71.459356,41.799071],[-71.461563,41.799457],[-71.462322,41.79818],[-71.460303,41.793895],[-71.459532,41.793566],[-71.459882,41.792989],[-71.4592,41.789812],[-71.459028,41.78776],[-71.457513,41.786092],[-71.456061,41.787147],[-71.455519,41.787525],[-71.454706,41.788121],[-71.453995,41.788638],[-71.452441,41.789759],[-71.452347,41.789383],[-71.450775,41.790443],[-71.450294,41.790047],[-71.449806,41.789658],[-71.449295,41.789242],[-71.446762,41.788303],[-71.445976,41.787266],[-71.444901,41.785797],[-71.444389,41.785114],[-71.443748,41.784767],[-71.443123,41.784679],[-71.443031,41.784664],[-71.44239,41.78458],[-71.442177,41.78455],[-71.441162,41.785648],[-71.440575,41.785191],[-71.440186,41.785465],[-71.439812,41.785988],[-71.439438,41.786518],[-71.438789,41.786987],[-71.437569,41.787739],[-71.436996,41.788082],[-71.436482,41.788412],[-71.434046,41.786307],[-71.434622,41.785911],[-71.435135,41.785543],[-71.43565,41.785164],[-71.435906,41.784979],[-71.436298,41.784698],[-71.436923,41.784244],[-71.437541,41.783797],[-71.438182,41.783336],[-71.438804,41.782884],[-71.439444,41.78242],[-71.44007,41.781977],[-71.440863,41.781408],[-71.438942,41.780338],[-71.438728,41.78022],[-71.437363,41.779461],[-71.437523,41.778706],[-71.43766,41.777966],[-71.437532,41.777917],[-71.437691,41.777763],[-71.43777,41.777003],[-71.437622,41.776173],[-71.437614,41.776112],[-71.437508,41.77544],[-71.437393,41.774776],[-71.437333,41.774577],[-71.437248,41.774551],[-71.436195,41.774342],[-71.435516,41.774208],[-71.434601,41.774029],[-71.433609,41.773827],[-71.432716,41.773647],[-71.431839,41.773472],[-71.430946,41.773289],[-71.430061,41.773109],[-71.429176,41.772926],[-71.428284,41.772743],[-71.427933,41.772671],[-71.427696,41.772621],[-71.427383,41.77256],[-71.427634,41.771862],[-71.426136,41.771561],[-71.425975,41.771525],[-71.427771,41.766596],[-71.426445,41.766972],[-71.425232,41.766262],[-71.425148,41.766542],[-71.424973,41.766987],[-71.42469,41.767715],[-71.424416,41.768467],[-71.424149,41.769165],[-71.422134,41.769505],[-71.421921,41.768867],[-71.41909,41.769176],[-71.419014,41.768696],[-71.418869,41.768021],[-71.418549,41.76737],[-71.417824,41.767395],[-71.417671,41.766685],[-71.418423,41.766585],[-71.418337,41.766084],[-71.418267,41.76577],[-71.418228,41.765663],[-71.417943,41.76438],[-71.417599,41.762372],[-71.417586,41.762254],[-71.416657,41.762761],[-71.415806,41.762902],[-71.414383,41.762953],[-71.413677,41.763328],[-71.413314,41.764083],[-71.412642,41.764545],[-71.412183,41.765058],[-71.411419,41.766086],[-71.410728,41.76654],[-71.40979,41.766766],[-71.408629,41.766945],[-71.407191,41.767404],[-71.405203,41.76761],[-71.40519,41.767457],[-71.4051,41.766236],[-71.405076,41.765598],[-71.404991,41.764162],[-71.404892,41.762759],[-71.404877,41.762494],[-71.404831,41.76172],[-71.404793,41.761064],[-71.404754,41.760317],[-71.404716,41.759791],[-71.404526,41.757322],[-71.404472,41.756464],[-71.404411,41.755591],[-71.40435,41.754773],[-71.403694,41.755179],[-71.402191,41.756151],[-71.400704,41.757128],[-71.399223,41.758096],[-71.398628,41.757608],[-71.397972,41.757032],[-71.398018,41.756346],[-71.398064,41.755823],[-71.398102,41.755368],[-71.395965,41.755651],[-71.393845,41.755862],[-71.393875,41.755537],[-71.391205,41.755912],[-71.389709,41.756515],[-71.388634,41.756655],[-71.386681,41.757163],[-71.386344,41.756712],[-71.384733,41.757602],[-71.382971,41.756174],[-71.378273,41.755297],[-71.374965,41.749641],[-71.372508,41.744727],[-71.368512,41.739421],[-71.366103,41.73667],[-71.365207,41.735649],[-71.364561,41.734928],[-71.35689,41.728472],[-71.35508,41.726962],[-71.34836,41.720724],[-71.342585,41.715577],[-71.335052,41.707106],[-71.333869,41.705776],[-71.331315,41.702902],[-71.331316,41.7028],[-71.331408,41.702281],[-71.331648,41.701451],[-71.332015,41.70038],[-71.325667,41.693213],[-71.33097,41.686962],[-71.352354,41.678885],[-71.354069,41.678165],[-71.355982,41.676783],[-71.358092,41.674202],[-71.360359,41.670406],[-71.363289,41.667937],[-71.367566,41.665876],[-71.374783,41.662765],[-71.376581,41.660295],[-71.378972,41.657977],[-71.379718,41.656458],[-71.380542,41.650326],[-71.381491,41.646455],[-71.381749,41.640561],[-71.381933,41.639028],[-71.383001,41.637037],[-71.386358,41.633901],[-71.386709,41.631605],[-71.385168,41.626524],[-71.385193,41.625101],[-71.386455,41.620876],[-71.386308,41.610199],[-71.387442,41.603673],[-71.387865,41.60145],[-71.387819,41.597979],[-71.387376,41.593447],[-71.38759,41.591829],[-71.389314,41.587854],[-71.393603,41.575746],[-71.395754,41.568582],[-71.397418,41.562578],[-71.398699,41.556801],[-71.429035,41.569956],[-71.4293,41.570101],[-71.429592,41.582922],[-71.429621,41.583966],[-71.427844,41.584545],[-71.425204,41.5852],[-71.424598,41.585028],[-71.422617,41.585712],[-71.417133,41.585729],[-71.417101,41.586353],[-71.41689,41.586044],[-71.415555,41.586382],[-71.414138,41.586583],[-71.412637,41.58611],[-71.411944,41.585969],[-71.411949,41.5861],[-71.413624,41.586544],[-71.413683,41.586858],[-71.413341,41.587007],[-71.412438,41.586959],[-71.412013,41.586637],[-71.411848,41.586982],[-71.407835,41.585961],[-71.407791,41.586002],[-71.411624,41.586984],[-71.413911,41.587367],[-71.418315,41.588495],[-71.419418,41.588875],[-71.419269,41.589043],[-71.419212,41.58913],[-71.421616,41.590065],[-71.424556,41.591155],[-71.424866,41.591248],[-71.425293,41.591347],[-71.42614,41.591534],[-71.427696,41.59185],[-71.428406,41.592007],[-71.429192,41.592186],[-71.429594,41.592294],[-71.429687,41.592319],[-71.430168,41.592487],[-71.430291,41.592535],[-71.430629,41.592667],[-71.431305,41.59293],[-71.43219,41.593304],[-71.439214,41.596317],[-71.440201,41.596726],[-71.441393,41.597196],[-71.442258,41.597582],[-71.4515,41.601456],[-71.453048,41.602413],[-71.454475,41.602549],[-71.45451,41.602559],[-71.454669,41.602612],[-71.454687,41.602291],[-71.454895,41.599106],[-71.45533,41.597332],[-71.456021,41.594982],[-71.456512,41.593361],[-71.456729,41.592629],[-71.457463,41.590178],[-71.459908,41.589874],[-71.462105,41.590664],[-71.462601,41.589211],[-71.462639,41.588264],[-71.462959,41.588406],[-71.463423,41.588756],[-71.465622,41.589546],[-71.467415,41.589439],[-71.470139,41.58836],[-71.472054,41.588051],[-71.472957,41.588755],[-71.476929,41.590092],[-71.482503,41.591343],[-71.485613,41.592165],[-71.487776,41.587884],[-71.489727,41.584025],[-71.492049,41.579415],[-71.493819,41.575923],[-71.49465,41.574273],[-71.495073,41.573428],[-71.493103,41.571602],[-71.492126,41.570229],[-71.491296,41.568155],[-71.489762,41.561684],[-71.489555,41.560764],[-71.489693,41.560749],[-71.491516,41.561722],[-71.493393,41.561146],[-71.494422,41.560788],[-71.496361,41.558643],[-71.496132,41.556961],[-71.497544,41.554504],[-71.500359,41.551544],[-71.499741,41.550037],[-71.498726,41.545444],[-71.500427,41.54039],[-71.498353,41.538682],[-71.498028,41.538614],[-71.495712,41.538574],[-71.492843,41.538908],[-71.4897,41.539555],[-71.489269,41.542146],[-71.488289,41.543049],[-71.487321,41.542572],[-71.486,41.541988],[-71.484421,41.542488],[-71.481133,41.544075],[-71.478943,41.544785],[-71.477051,41.545235],[-71.476875,41.545265],[-71.469193,41.540638],[-71.468605,41.539978],[-71.468575,41.538525],[-71.468681,41.537459],[-71.468132,41.535053],[-71.46608,41.530273],[-71.465988,41.53006],[-71.465881,41.530083],[-71.465131,41.530253],[-71.464577,41.53038],[-71.462964,41.530694],[-71.462912,41.530703],[-71.462766,41.530724],[-71.46258,41.530749],[-71.461777,41.530861],[-71.460869,41.530964],[-71.459907,41.531024],[-71.45945,41.52795],[-71.458832,41.526898],[-71.456251,41.527763],[-71.454008,41.525144],[-71.454074,41.52414],[-71.453281,41.522763],[-71.45025,41.520514],[-71.447924,41.521852],[-71.444572,41.521346],[-71.444576,41.520887],[-71.444608,41.519865],[-71.445344,41.519341],[-71.445283,41.519104],[-71.447218,41.517487],[-71.444798,41.516301],[-71.443916,41.51548],[-71.444152,41.514108],[-71.444763,41.512423],[-71.446005,41.511191],[-71.447142,41.511014],[-71.448313,41.509812],[-71.44851,41.508277],[-71.449589,41.50731],[-71.447758,41.505907],[-71.448148,41.50279],[-71.450101,41.501801],[-71.452481,41.500336],[-71.453453,41.499874],[-71.457966,41.499058],[-71.458115,41.499069],[-71.469565,41.498372],[-71.478687,41.497885],[-71.478728,41.497877],[-71.48718,41.497405],[-71.48915,41.497335],[-71.491864,41.497219],[-71.496068,41.497916],[-71.497304,41.498156],[-71.500997,41.499103],[-71.502088,41.49932],[-71.503225,41.499667],[-71.505355,41.49972],[-71.507886,41.50006],[-71.51213,41.500812],[-71.512801,41.500941],[-71.514896,41.501341],[-71.515752,41.499078],[-71.518335,41.491933],[-71.519244,41.489432],[-71.519424,41.488953],[-71.519905,41.487595],[-71.520241,41.486702],[-71.521118,41.484226],[-71.521629,41.482742],[-71.522121,41.481263],[-71.522285,41.480762],[-71.522319,41.480667],[-71.522598,41.479939],[-71.523064,41.479973],[-71.523796,41.47765],[-71.52417,41.476433],[-71.52449,41.475155],[-71.524796,41.474045],[-71.525337,41.472427],[-71.525391,41.472259],[-71.525675,41.471378],[-71.525891,41.470616],[-71.526131,41.469788],[-71.52623,41.46875],[-71.526244,41.468584],[-71.526292,41.46804],[-71.526379,41.466799],[-71.526474,41.465519],[-71.526642,41.462402],[-71.526865,41.460752],[-71.527296,41.460158],[-71.524039,41.459495],[-71.520023,41.458648],[-71.519776,41.458596],[-71.515167,41.456859],[-71.513784,41.455958],[-71.5106,41.45312],[-71.510541,41.453095],[-71.510158,41.452948],[-71.508715,41.452639],[-71.505658,41.452772],[-71.505981,41.452084],[-71.506493,41.451023],[-71.506554,41.450882],[-71.506775,41.449978],[-71.506853,41.448992],[-71.506866,41.448593],[-71.507133,41.445763],[-71.509002,41.445916],[-71.510704,41.445873],[-71.51156,41.445839],[-71.51223,41.445858],[-71.51427,41.446855],[-71.516548,41.44693],[-71.516708,41.446934],[-71.521339,41.447033],[-71.524147,41.446632],[-71.522461,41.443298],[-71.522235,41.442873],[-71.521652,41.441761],[-71.521193,41.440784],[-71.519539,41.43906],[-71.519211,41.438469],[-71.518929,41.437859],[-71.518044,41.435993],[-71.514809,41.434692],[-71.515876,41.432876],[-71.516602,41.431831],[-71.517244,41.430864],[-71.517326,41.430737],[-71.519198,41.427811],[-71.518825,41.427431],[-71.518776,41.427223],[-71.515924,41.427168],[-71.506234,41.426936],[-71.50259,41.427367],[-71.500717,41.427884],[-71.498954,41.428372],[-71.498739,41.428434],[-71.497983,41.4258],[-71.497568,41.42689],[-71.49536,41.428114],[-71.493324,41.428381],[-71.493278,41.429233],[-71.492203,41.429055],[-71.492801,41.428301],[-71.494802,41.427301],[-71.495501,41.424101],[-71.495801,41.422601],[-71.497101,41.417502],[-71.499502,41.417602],[-71.503202,41.417601],[-71.504766,41.407817],[-71.505063,41.406961],[-71.50839,41.399198],[-71.514516,41.384906],[-71.51464,41.38479],[-71.517312,41.382136],[-71.517632,41.381744],[-71.518629,41.380903],[-71.519392,41.380204],[-71.519546,41.379938],[-71.52014,41.379035],[-71.520177,41.379012],[-71.520224,41.378963],[-71.520308,41.37893],[-71.520397,41.378864],[-71.520434,41.378837],[-71.520488,41.378787],[-71.520538,41.378729],[-71.520611,41.378617],[-71.520737,41.378467],[-71.520739,41.378432],[-71.521591,41.377529],[-71.522706,41.376815],[-71.52343,41.375887],[-71.530712,41.367812],[-71.549402,41.347802],[-71.549448,41.347805],[-71.575199,41.320941],[-71.556933,41.316254],[-71.543851,41.312598],[-71.526594,41.308804],[-71.51206,41.30808],[-71.509442,41.307732],[-71.50661,41.307356],[-71.494805,41.307355],[-71.489356,41.308802],[-71.482996,41.310974],[-71.479876,41.312599],[-71.374495,41.339011],[-71.258257,41.375078],[-71.24996,41.377713],[-71.124594,41.411474],[-71.119322,41.413321],[-71.10398,41.421957],[-71.088571,41.431315],[-71.116404,41.484568]]],[[[-71.643014,41.231323],[-71.649378,41.223986],[-71.654561,41.215465],[-71.663768,41.206605],[-71.667858,41.200626],[-71.670491,41.194503],[-71.672814,41.18465],[-71.673808,41.17885],[-71.676264,41.168864],[-71.678807,41.158912],[-71.678302,41.148904],[-71.676092,41.141502],[-71.672644,41.134292],[-71.668345,41.12825],[-71.665453,41.125821],[-71.657633,41.119875],[-71.649849,41.114143],[-71.640344,41.108433],[-71.630301,41.103455],[-71.624501,41.100979],[-71.618861,41.099091],[-71.611673,41.097413],[-71.601864,41.096619],[-71.593513,41.095834],[-71.5693,41.097182],[-71.565311,41.09779],[-71.55316,41.100079],[-71.543771,41.100817],[-71.535841,41.101664],[-71.528168,41.103114],[-71.517538,41.107077],[-71.508093,41.111615],[-71.501887,41.115541],[-71.499496,41.117492],[-71.494679,41.122192],[-71.491432,41.125104],[-71.488273,41.130541],[-71.48403,41.139232],[-71.479562,41.148055],[-71.477024,41.155657],[-71.476877,41.161171],[-71.476925,41.168157],[-71.478603,41.175792],[-71.480455,41.181288],[-71.482716,41.186253],[-71.489844,41.194698],[-71.485884,41.204727],[-71.485175,41.209468],[-71.484583,41.217486],[-71.486497,41.226927],[-71.489322,41.235171],[-71.492196,41.240876],[-71.496595,41.245823],[-71.499994,41.250103],[-71.51635,41.271549],[-71.535979,41.28618],[-71.557569,41.294018],[-71.570655,41.294018],[-71.591591,41.289317],[-71.609257,41.281999],[-71.624504,41.274129],[-71.634968,41.263682],[-71.640844,41.250101],[-71.642006,41.245313],[-71.642758,41.237934],[-71.643014,41.231323]]]]}}],"labels":{"type":"FeatureCollection","features":[{"type":"Feature","properties":{"id":"1","NAME":"1","featureLabel":{"left":-71.61479855480194,"right":-71.61479855480194,"top":41.70914004920196,"bottom":41.70914004920196},"text-field":"1"},"geometry":{"type":"Point","coordinates":[-71.61479855480194,41.70914004920196]}},{"type":"Feature","properties":{"id":"2","NAME":"2","featureLabel":{"left":-71.26353090371704,"right":-71.26353090371704,"top":41.519322868072514,"bottom":41.519322868072514},"text-field":"2"},"geometry":{"type":"Point","coordinates":[-71.26353090371704,41.519322868072514]}}]}}